{
"type": "FeatureCollection",
"name": "geo_05_訪問入浴介護",
"crs": { "type": "name", "properties": { "name": "urn:ogc:def:crs:OGC:1.3:CRS84" } },
"features": [
{ "type": "Feature", "properties": { "内容": "アースサポート秋田飯島【訪問入浴介護】秋田県秋田市飯島道東二丁目12番45号ハイ・ロードブリッチ　1B", "url2": "https://www.kaigokensaku.mhlw.go.jp/05/index.php?action_kouhyou_detail_004_kani=true&JigyosyoCd=0570126912-00&ServiceCd=120&Type=search" }, "geometry": { "type": "Point", "coordinates": [ 140.067471396958922, 39.77983279041149 ] } },
{ "type": "Feature", "properties": { "内容": "アースサポート秋田【訪問入浴介護】秋田県秋田市桜一丁目13番7号", "url2": "https://www.kaigokensaku.mhlw.go.jp/05/index.php?action_kouhyou_detail_004_kani=true&JigyosyoCd=0570109058-00&ServiceCd=120&Type=search" }, "geometry": { "type": "Point", "coordinates": [ 140.149328432818777, 39.71141781856781 ] } },
{ "type": "Feature", "properties": { "内容": "株式会社　虹の街　秋田営業所【訪問入浴介護】秋田県秋田市牛島西1丁目3番8号", "url2": "https://www.kaigokensaku.mhlw.go.jp/05/index.php?action_kouhyou_detail_004_kani=true&JigyosyoCd=0570101055-00&ServiceCd=120&Type=search" }, "geometry": { "type": "Point", "coordinates": [ 140.116372500000011, 39.6979555 ] } },
{ "type": "Feature", "properties": { "内容": "株式会社　虹の街　能代営業所【訪問入浴介護】秋田県能代市河戸川字下大須賀40番", "url2": "https://www.kaigokensaku.mhlw.go.jp/05/index.php?action_kouhyou_detail_004_kani=true&JigyosyoCd=0570206094-00&ServiceCd=120&Type=search" }, "geometry": { "type": "Point", "coordinates": [ 140.021998828203266, 40.183682642892641 ] } },
{ "type": "Feature", "properties": { "内容": "かもめ介護福祉サービス【訪問入浴介護】秋田県能代市落合字亀谷地１－２９", "url2": "https://www.kaigokensaku.mhlw.go.jp/05/index.php?action_kouhyou_detail_004_kani=true&JigyosyoCd=0570209973-00&ServiceCd=120&Type=search" }, "geometry": { "type": "Point", "coordinates": [ 140.010957700000063, 40.2309455 ] } },
{ "type": "Feature", "properties": { "内容": "オレンジ訪問入浴事業所【訪問入浴介護】秋田県横手市十文字町字海道下56番地2", "url2": "https://www.kaigokensaku.mhlw.go.jp/05/index.php?action_kouhyou_detail_004_kani=true&JigyosyoCd=0570323949-00&ServiceCd=120&Type=search" }, "geometry": { "type": "Point", "coordinates": [ 140.521928297771524, 39.228312437309313 ] } },
{ "type": "Feature", "properties": { "内容": "アースサポート横手【訪問入浴介護】秋田県横手市前郷二番町8番33号", "url2": "https://www.kaigokensaku.mhlw.go.jp/05/index.php?action_kouhyou_detail_004_kani=true&JigyosyoCd=0570319582-00&ServiceCd=120&Type=search" }, "geometry": { "type": "Point", "coordinates": [ 140.563796799999977, 39.30866 ] } },
{ "type": "Feature", "properties": { "内容": "株式会社　虹の街　横手営業所【訪問入浴介護】秋田県横手市三本柳字寺田135番3号", "url2": "https://www.kaigokensaku.mhlw.go.jp/05/index.php?action_kouhyou_detail_004_kani=true&JigyosyoCd=0570324210-00&ServiceCd=120&Type=search" }, "geometry": { "type": "Point", "coordinates": [ 140.546221479762238, 39.319099600707439 ] } },
{ "type": "Feature", "properties": { "内容": "大館市社会福祉協議会　指定訪問入浴介護事業所【訪問入浴介護】秋田県大館市池内字大出１３５番地大館市立上川沿公民館", "url2": "https://www.kaigokensaku.mhlw.go.jp/05/index.php?action_kouhyou_detail_004_kani=true&JigyosyoCd=0570404368-00&ServiceCd=120&Type=search" }, "geometry": { "type": "Point", "coordinates": [ 140.573082800000066, 40.2434281 ] } },
{ "type": "Feature", "properties": { "内容": "アースサポート大館【訪問入浴介護】秋田県大館市字水門前83", "url2": "https://www.kaigokensaku.mhlw.go.jp/05/index.php?action_kouhyou_detail_004_kani=true&JigyosyoCd=0570421511-00&ServiceCd=120&Type=search" }, "geometry": { "type": "Point", "coordinates": [ 140.559655, 40.2765404 ] } },
{ "type": "Feature", "properties": { "内容": "株式会社虹の街　大館営業所【訪問入浴介護】秋田県大館市御成町二丁目18番31", "url2": "https://www.kaigokensaku.mhlw.go.jp/05/index.php?action_kouhyou_detail_004_kani=true&JigyosyoCd=0570424325-00&ServiceCd=120&Type=search" }, "geometry": { "type": "Point", "coordinates": [ 140.554189436669049, 40.279610513677042 ] } },
{ "type": "Feature", "properties": { "内容": "株式会社　虹の街　湯沢営業所【訪問入浴介護】秋田県湯沢市字前島129-2", "url2": "https://www.kaigokensaku.mhlw.go.jp/05/index.php?action_kouhyou_detail_004_kani=true&JigyosyoCd=0570726505-00&ServiceCd=120&Type=search" }, "geometry": { "type": "Point", "coordinates": [ 140.4867333, 39.1760372 ] } },
{ "type": "Feature", "properties": { "内容": "東恵園指定訪問入浴介護事業所【訪問入浴介護】秋田県鹿角市花輪字古館5番地１", "url2": "https://www.kaigokensaku.mhlw.go.jp/05/index.php?action_kouhyou_detail_004_kani=true&JigyosyoCd=0570902080-00&ServiceCd=120&Type=search" }, "geometry": { "type": "Point", "coordinates": [ 140.803636936898158, 40.194476490868198 ] } },
{ "type": "Feature", "properties": { "内容": "由利本荘市社会福祉協議会　訪問入浴介護事業所【訪問入浴介護】秋田県由利本荘市堤脇40番地1", "url2": "https://www.kaigokensaku.mhlw.go.jp/05/index.php?action_kouhyou_detail_004_kani=true&JigyosyoCd=0570511501-00&ServiceCd=120&Type=search" }, "geometry": { "type": "Point", "coordinates": [ 140.045885399999946, 39.385921 ] } },
{ "type": "Feature", "properties": { "内容": "そらばす訪問入浴介護事業所【訪問入浴介護】秋田県由利本荘市桜小路25－8小笠原アパート１号室", "url2": "https://www.kaigokensaku.mhlw.go.jp/05/index.php?action_kouhyou_detail_004_kani=true&JigyosyoCd=0570590638-00&ServiceCd=120&Type=search" }, "geometry": { "type": "Point", "coordinates": [ 140.0518745, 39.3856737 ] } },
{ "type": "Feature", "properties": { "内容": "株式会社　虹の街　　本荘営業所【訪問入浴介護】由利本荘市川口字下野173－1", "url2": "https://www.kaigokensaku.mhlw.go.jp/05/index.php?action_kouhyou_detail_004_kani=true&JigyosyoCd=0570510891-00&ServiceCd=120&Type=search" }, "geometry": { "type": "Point", "coordinates": [ 140.059536406529219, 39.40210530240963 ] } },
{ "type": "Feature", "properties": { "内容": "アースサポート大仙【訪問入浴介護】秋田県大仙市大曲栄町13番45号", "url2": "https://www.kaigokensaku.mhlw.go.jp/05/index.php?action_kouhyou_detail_004_kani=true&JigyosyoCd=0570825695-00&ServiceCd=120&Type=search" }, "geometry": { "type": "Point", "coordinates": [ 140.480253, 39.454727 ] } },
{ "type": "Feature", "properties": { "内容": "訪問入浴介護事業所せせらぎ【訪問入浴介護】秋田県大仙市大曲字下高畑１６番地２７号", "url2": "https://www.kaigokensaku.mhlw.go.jp/05/index.php?action_kouhyou_detail_004_kani=true&JigyosyoCd=0570824334-00&ServiceCd=120&Type=search" }, "geometry": { "type": "Point", "coordinates": [ 140.498237300000028, 39.4443727 ] } },
{ "type": "Feature", "properties": { "内容": "株式会社虹の街大曲営業所【訪問入浴介護】秋田県大仙市戸蒔字谷地中14-1", "url2": "https://www.kaigokensaku.mhlw.go.jp/05/index.php?action_kouhyou_detail_004_kani=true&JigyosyoCd=0570801084-00&ServiceCd=120&Type=search" }, "geometry": { "type": "Point", "coordinates": [ 140.505895172352638, 39.450380170968401 ] } },
{ "type": "Feature", "properties": { "内容": "北秋田市社協訪問入浴介護事業所【訪問入浴介護】秋田県北秋田市花園町１６番１号", "url2": "https://www.kaigokensaku.mhlw.go.jp/05/index.php?action_kouhyou_detail_004_kani=true&JigyosyoCd=0571111202-00&ServiceCd=120&Type=search" }, "geometry": { "type": "Point", "coordinates": [ 140.369569500000011, 40.2272345 ] } },
{ "type": "Feature", "properties": { "内容": "株式会社　虹の街　　鷹巣営業所【訪問入浴介護】秋田県北秋田市脇神字藤株囲の内14番地", "url2": "https://www.kaigokensaku.mhlw.go.jp/05/index.php?action_kouhyou_detail_004_kani=true&JigyosyoCd=0572101046-00&ServiceCd=120&Type=search" }, "geometry": { "type": "Point", "coordinates": [ 140.39263, 40.2025239 ] } },
{ "type": "Feature", "properties": { "内容": "三種町社会福祉協議会　訪問入浴サービス【訪問入浴介護】秋田県山本郡三種町森岳字上台９３－５", "url2": "https://www.kaigokensaku.mhlw.go.jp/05/index.php?action_kouhyou_detail_004_kani=true&JigyosyoCd=0572214245-00&ServiceCd=120&Type=search" }, "geometry": { "type": "Point", "coordinates": [ 140.092034900000016, 40.0797843 ] } }
]
}
