{
"type": "FeatureCollection",
"name": "geo_05_定期巡回・随時対応型訪問介護看護",
"crs": { "type": "name", "properties": { "name": "urn:ogc:def:crs:OGC:1.3:CRS84" } },
"features": [
{ "type": "Feature", "properties": { "内容": "２４時間ケアコールセンターふきのとう【定期巡回・随時対応型訪問介護看護】秋田県秋田市金足小泉字潟向８６－１", "url2": "https://www.kaigokensaku.mhlw.go.jp/05/index.php?action_kouhyou_detail_004_kani=true&JigyosyoCd=0590100681-00&ServiceCd=760&Type=search" }, "geometry": { "type": "Point", "coordinates": [ 140.0594347, 39.8166379 ] } },
{ "type": "Feature", "properties": { "内容": "定期巡回・随時対応型訪問介護看護スマイルコール【定期巡回・随時対応型訪問介護看護】秋田県秋田市二ツ屋二丁目12-42", "url2": "https://www.kaigokensaku.mhlw.go.jp/05/index.php?action_kouhyou_detail_004_kani=true&JigyosyoCd=0590101382-00&ServiceCd=760&Type=search" }, "geometry": { "type": "Point", "coordinates": [ 140.138339300000013, 39.7090748 ] } },
{ "type": "Feature", "properties": { "内容": "街かどケアステーションさらさ能代【定期巡回・随時対応型訪問介護看護】秋田県能代市元町14番126号特別養護老人ホームさらさ能代", "url2": "https://www.kaigokensaku.mhlw.go.jp/05/index.php?action_kouhyou_detail_004_kani=true&JigyosyoCd=0590200192-00&ServiceCd=760&Type=search" }, "geometry": { "type": "Point", "coordinates": [ 140.0330566, 40.207288 ] } },
{ "type": "Feature", "properties": { "内容": "０１３ｃａｒｅ【定期巡回・随時対応型訪問介護看護】秋田県横手市中央町６−２３２階", "url2": "https://www.kaigokensaku.mhlw.go.jp/05/index.php?action_kouhyou_detail_004_kani=true&JigyosyoCd=0590300489-00&ServiceCd=760&Type=search" }, "geometry": { "type": "Point", "coordinates": [ 140.5664108, 39.3143215 ] } },
{ "type": "Feature", "properties": { "内容": "街かどケアステーションさらさ【定期巡回・随時対応型訪問介護看護】秋田県横手市駅前町7-17ウェルフェア横手", "url2": "https://www.kaigokensaku.mhlw.go.jp/05/index.php?action_kouhyou_detail_004_kani=true&JigyosyoCd=0590300299-00&ServiceCd=760&Type=search" }, "geometry": { "type": "Point", "coordinates": [ 140.561911099999946, 39.3081712 ] } },
{ "type": "Feature", "properties": { "内容": "条里ケアセンター【定期巡回・随時対応型訪問介護看護】秋田県横手市条里１丁目１５番７号", "url2": "https://www.kaigokensaku.mhlw.go.jp/05/index.php?action_kouhyou_detail_004_kani=true&JigyosyoCd=0590300323-00&ServiceCd=760&Type=search" }, "geometry": { "type": "Point", "coordinates": [ 140.55090139999993, 39.3084542 ] } },
{ "type": "Feature", "properties": { "内容": "ほのぼの定期巡回ステーション【定期巡回・随時対応型訪問介護看護】秋田県由利本荘市東梵天95-2", "url2": "https://www.kaigokensaku.mhlw.go.jp/05/index.php?action_kouhyou_detail_004_kani=true&JigyosyoCd=0590500344-00&ServiceCd=760&Type=search" }, "geometry": { "type": "Point", "coordinates": [ 140.0621597, 39.3829698 ] } },
{ "type": "Feature", "properties": { "内容": "定期巡回・随時対応型訪問介護看護「わかば」【定期巡回・随時対応型訪問介護看護】秋田県由利本荘市川口字八幡前262-1", "url2": "https://www.kaigokensaku.mhlw.go.jp/05/index.php?action_kouhyou_detail_004_kani=true&JigyosyoCd=0590500237-00&ServiceCd=760&Type=search" }, "geometry": { "type": "Point", "coordinates": [ 140.060777284503217, 39.400073042723065 ] } },
{ "type": "Feature", "properties": { "内容": "定期巡回・随時対応型訪問介護看護はやぶさ【定期巡回・随時対応型訪問介護看護】秋田県潟上市昭和大久保字街道下84－6", "url2": "https://www.kaigokensaku.mhlw.go.jp/05/index.php?action_kouhyou_detail_004_kani=true&JigyosyoCd=0591000062-00&ServiceCd=760&Type=search" }, "geometry": { "type": "Point", "coordinates": [ 140.0598963, 39.8706564 ] } },
{ "type": "Feature", "properties": { "内容": "定期巡回・随時対応型訪問介護看護　ロクス【定期巡回・随時対応型訪問介護看護】秋田県大仙市大曲字下高畑１－１", "url2": "https://www.kaigokensaku.mhlw.go.jp/05/index.php?action_kouhyou_detail_004_kani=true&JigyosyoCd=0590800421-00&ServiceCd=760&Type=search" }, "geometry": { "type": "Point", "coordinates": [ 140.49901508657311, 39.443981029906233 ] } },
{ "type": "Feature", "properties": { "内容": "オオマガリライフ定期巡回・随時対応サービスセンター【定期巡回・随時対応型訪問介護看護】秋田県大仙市大曲丸の内町６番２４号", "url2": "https://www.kaigokensaku.mhlw.go.jp/05/index.php?action_kouhyou_detail_004_kani=true&JigyosyoCd=0590800389-00&ServiceCd=760&Type=search" }, "geometry": { "type": "Point", "coordinates": [ 140.477001154002011, 39.462336044482541 ] } },
{ "type": "Feature", "properties": { "内容": "定期巡回naniku24【定期巡回・随時対応型訪問介護看護】秋田県にかほ市平沢字宮田6-5宮田テナント２階", "url2": "https://www.kaigokensaku.mhlw.go.jp/05/index.php?action_kouhyou_detail_004_kani=true&JigyosyoCd=0591300082-00&ServiceCd=760&Type=search" }, "geometry": { "type": "Point", "coordinates": [ 139.9660256, 39.2869576 ] } },
{ "type": "Feature", "properties": { "内容": "定期巡回・随時対応型訪問介護看護事業所　ハルモニア・にかほ【定期巡回・随時対応型訪問介護看護】秋田県にかほ市院内字嶋田４２番地１", "url2": "https://www.kaigokensaku.mhlw.go.jp/05/index.php?action_kouhyou_detail_004_kani=true&JigyosyoCd=0591300033-00&ServiceCd=760&Type=search" }, "geometry": { "type": "Point", "coordinates": [ 139.963730749737579, 39.282262204007282 ] } },
{ "type": "Feature", "properties": { "内容": "藤里町社会福祉協議会指定定期巡回・随時対応型訪問介護看護事業所【定期巡回・随時対応型訪問介護看護】秋田県山本郡藤里町藤琴字三ツ谷脇４０番地総合福祉センター", "url2": "https://www.kaigokensaku.mhlw.go.jp/05/index.php?action_kouhyou_detail_004_kani=true&JigyosyoCd=0592200125-00&ServiceCd=760&Type=search" }, "geometry": { "type": "Point", "coordinates": [ 140.261564899999939, 40.281971 ] } },
{ "type": "Feature", "properties": { "内容": "ミサトライフ定期巡回・随時対応サービスセンター【定期巡回・随時対応型訪問介護看護】秋田県仙北郡美郷町六郷字熊野１５２−１", "url2": "https://www.kaigokensaku.mhlw.go.jp/05/index.php?action_kouhyou_detail_004_kani=true&JigyosyoCd=0593900145-00&ServiceCd=760&Type=search" }, "geometry": { "type": "Point", "coordinates": [ 140.553119900000013, 39.4134462 ] } }
]
}
