{
"type": "FeatureCollection",
"name": "geo_5_1",
"crs": { "type": "name", "properties": { "name": "urn:ogc:def:crs:OGC:1.3:CRS84" } },
"features": [
{ "type": "Feature", "properties": { "ID": 511050100010, "正式名称": "医療法人健永会　大館記念病院", "機関区分": 1, "都道府県コード": 5, "市区町村コード": 204, "所在地": "秋田県大館市御成町３丁目２番３号", "緯度": 40.282332, "経度": 140.558874, "url": "https://www.iryou.teikyouseido.mhlw.go.jp/znk-web/juminkanja/S2430/initialize?prefCd=05&kikanCd=11050100010&kikanKbn=1", "url2": "http://keneikai.jp/", "内容": "医療法人健永会　大館記念病院【1:病院】【診療科目:0】【一般病床数:20療養病床数:78精神病床数:0感染症病床数:0合計病床数:98】秋田県大館市御成町３丁目２番３号" }, "geometry": { "type": "Point", "coordinates": [ 140.558874, 40.282332 ] } },
{ "type": "Feature", "properties": { "ID": 511050100020, "正式名称": "医療法人仁慈会　東台病院", "機関区分": 1, "都道府県コード": 5, "市区町村コード": 204, "所在地": "秋田県大館市柄沢稲荷山下６９番地", "緯度": 40.258779, "経度": 140.581179, "url": "https://www.iryou.teikyouseido.mhlw.go.jp/znk-web/juminkanja/S2430/initialize?prefCd=05&kikanCd=11050100020&kikanKbn=1", "url2": null, "内容": "医療法人仁慈会　東台病院【1:病院】【診療科目:0】【一般病床数:0療養病床数:0精神病床数:108感染症病床数:0合計病床数:108】秋田県大館市柄沢稲荷山下６９番地" }, "geometry": { "type": "Point", "coordinates": [ 140.581179, 40.258779 ] } },
{ "type": "Feature", "properties": { "ID": 511050100030, "正式名称": "医療法人和成会　今井病院", "機関区分": 1, "都道府県コード": 5, "市区町村コード": 204, "所在地": "秋田県大館市片山町３丁目１２番３０号", "緯度": 40.277805, "経度": 140.533709, "url": "https://www.iryou.teikyouseido.mhlw.go.jp/znk-web/juminkanja/S2430/initialize?prefCd=05&kikanCd=11050100030&kikanKbn=1", "url2": null, "内容": "医療法人和成会　今井病院【1:病院】【診療科目:0】【一般病床数:0療養病床数:0精神病床数:114感染症病床数:0合計病床数:114】秋田県大館市片山町３丁目１２番３０号" }, "geometry": { "type": "Point", "coordinates": [ 140.533709, 40.277805 ] } },
{ "type": "Feature", "properties": { "ID": 511050100050, "正式名称": "大館市立総合病院", "機関区分": 1, "都道府県コード": 5, "市区町村コード": 204, "所在地": "秋田県大館市豊町３番１号", "緯度": 40.273166, "経度": 140.555208, "url": "https://www.iryou.teikyouseido.mhlw.go.jp/znk-web/juminkanja/S2430/initialize?prefCd=05&kikanCd=11050100050&kikanKbn=1", "url2": "https://www.odate-hp.odate.akita.jp", "内容": "大館市立総合病院【1:病院】【診療科目:0】【一般病床数:375療養病床数:0精神病床数:60感染症病床数:2合計病床数:443】秋田県大館市豊町３番１号" }, "geometry": { "type": "Point", "coordinates": [ 140.555208, 40.273166 ] } },
{ "type": "Feature", "properties": { "ID": 511050100060, "正式名称": "独立行政法人労働者健康安全機構　秋田労災病院", "機関区分": 1, "都道府県コード": 5, "市区町村コード": 204, "所在地": "秋田県大館市軽井沢下岱３０", "緯度": 40.216563, "経度": 140.639398, "url": "https://www.iryou.teikyouseido.mhlw.go.jp/znk-web/juminkanja/S2430/initialize?prefCd=05&kikanCd=11050100060&kikanKbn=1", "url2": "https://akitah.johas.go.jp", "内容": "独立行政法人労働者健康安全機構　秋田労災病院【1:病院】【診療科目:0】【一般病床数:194療養病床数:0精神病床数:0感染症病床数:0合計病床数:194】秋田県大館市軽井沢下岱３０" }, "geometry": { "type": "Point", "coordinates": [ 140.639398, 40.216563 ] } },
{ "type": "Feature", "properties": { "ID": 511050100070, "正式名称": "大館市立扇田病院", "機関区分": 1, "都道府県コード": 5, "市区町村コード": 204, "所在地": "秋田県大館市比内町扇田字本道端７番地１", "緯度": 40.224533, "経度": 140.596984, "url": "https://www.iryou.teikyouseido.mhlw.go.jp/znk-web/juminkanja/S2430/initialize?prefCd=05&kikanCd=11050100070&kikanKbn=1", "url2": "http://www.oogita-hp.jp/", "内容": "大館市立扇田病院【1:病院】【診療科目:0】【一般病床数:0療養病床数:40精神病床数:0感染症病床数:0合計病床数:40】秋田県大館市比内町扇田字本道端７番地１" }, "geometry": { "type": "Point", "coordinates": [ 140.596984, 40.224533 ] } },
{ "type": "Feature", "properties": { "ID": 511050100080, "正式名称": "秋田県厚生農業協同組合連合会　かづの厚生病院", "機関区分": 1, "都道府県コード": 5, "市区町村コード": 209, "所在地": "秋田県鹿角市花輪向畑１８番地", "緯度": 40.219065, "経度": 140.785386, "url": "https://www.iryou.teikyouseido.mhlw.go.jp/znk-web/juminkanja/S2430/initialize?prefCd=05&kikanCd=11050100080&kikanKbn=1", "url2": "http://www.hspkazuno.kazuno.akita.jp/", "内容": "秋田県厚生農業協同組合連合会　かづの厚生病院【1:病院】【診療科目:0】【一般病床数:159療養病床数:0精神病床数:0感染症病床数:2合計病床数:161】秋田県鹿角市花輪向畑１８番地" }, "geometry": { "type": "Point", "coordinates": [ 140.785386, 40.219065 ] } },
{ "type": "Feature", "properties": { "ID": 511050100090, "正式名称": "医療法人恵愛会　鹿角中央病院", "機関区分": 1, "都道府県コード": 5, "市区町村コード": 209, "所在地": "秋田県鹿角市花輪字六月田９７番地", "緯度": 40.200261, "経度": 140.789969, "url": "https://www.iryou.teikyouseido.mhlw.go.jp/znk-web/juminkanja/S2430/initialize?prefCd=05&kikanCd=11050100090&kikanKbn=1", "url2": "https://keiai4131.cloudfree.jp/", "内容": "医療法人恵愛会　鹿角中央病院【1:病院】【診療科目:0】【一般病床数:0療養病床数:44精神病床数:0感染症病床数:0合計病床数:44】秋田県鹿角市花輪字六月田９７番地" }, "geometry": { "type": "Point", "coordinates": [ 140.789969, 40.200261 ] } },
{ "type": "Feature", "properties": { "ID": 511050100100, "正式名称": "医療法人楽山会　大湯リハビリ温泉病院", "機関区分": 1, "都道府県コード": 5, "市区町村コード": 209, "所在地": "秋田県鹿角市十和田大湯湯ノ岱１６－２", "緯度": 40.298891, "経度": 140.840433, "url": "https://www.iryou.teikyouseido.mhlw.go.jp/znk-web/juminkanja/S2430/initialize?prefCd=05&kikanCd=11050100100&kikanKbn=1", "url2": "http://oyu-reha-com/", "内容": "医療法人楽山会　大湯リハビリ温泉病院【1:病院】【診療科目:0】【一般病床数:0療養病床数:109精神病床数:0感染症病床数:0合計病床数:109】秋田県鹿角市十和田大湯湯ノ岱１６－２" }, "geometry": { "type": "Point", "coordinates": [ 140.840433, 40.298891 ] } },
{ "type": "Feature", "properties": { "ID": 511050200010, "正式名称": "医療法人社団博愛会　鷹巣病院", "機関区分": 1, "都道府県コード": 5, "市区町村コード": 213, "所在地": "秋田県北秋田市綴子字釜堤脇１２", "緯度": 40.251443, "経度": 140.37789, "url": "https://www.iryou.teikyouseido.mhlw.go.jp/znk-web/juminkanja/S2430/initialize?prefCd=05&kikanCd=11050200010&kikanKbn=1", "url2": "http://www.hakuaikai.info/", "内容": "医療法人社団博愛会　鷹巣病院【1:病院】【診療科目:0】【一般病床数:0療養病床数:0精神病床数:144感染症病床数:0合計病床数:144】秋田県北秋田市綴子字釜堤脇１２" }, "geometry": { "type": "Point", "coordinates": [ 140.37789, 40.251443 ] } },
{ "type": "Feature", "properties": { "ID": 511050200020, "正式名称": "北秋田市民病院", "機関区分": 1, "都道府県コード": 5, "市区町村コード": 213, "所在地": "秋田県北秋田市下杉字上清水沢１６－２９", "緯度": 40.166757, "経度": 140.356368, "url": "https://www.iryou.teikyouseido.mhlw.go.jp/znk-web/juminkanja/S2430/initialize?prefCd=05&kikanCd=11050200020&kikanKbn=1", "url2": "http://www.kitaakita-hp.jp", "内容": "北秋田市民病院【1:病院】【診療科目:0】【一般病床数:169療養病床数:0精神病床数:0感染症病床数:4合計病床数:177】秋田県北秋田市下杉字上清水沢１６－２９" }, "geometry": { "type": "Point", "coordinates": [ 140.356368, 40.166757 ] } },
{ "type": "Feature", "properties": { "ID": 511050300010, "正式名称": "秋田県厚生農業協同組合連合会　能代厚生医療センター", "機関区分": 1, "都道府県コード": 5, "市区町村コード": 202, "所在地": "秋田県能代市落合上前田地内", "緯度": 40.227051, "経度": 140.022866, "url": "https://www.iryou.teikyouseido.mhlw.go.jp/znk-web/juminkanja/S2430/initialize?prefCd=05&kikanCd=11050300010&kikanKbn=1", "url2": "https://www.yamamoto-hosp.noshiro.akita.jp", "内容": "秋田県厚生農業協同組合連合会　能代厚生医療センター【1:病院】【診療科目:0】【一般病床数:329療養病床数:0精神病床数:45感染症病床数:4合計病床数:378】秋田県能代市落合上前田地内" }, "geometry": { "type": "Point", "coordinates": [ 140.022866, 40.227051 ] } },
{ "type": "Feature", "properties": { "ID": 511050300020, "正式名称": "能代山本医師会病院", "機関区分": 1, "都道府県コード": 5, "市区町村コード": 202, "所在地": "秋田県能代市檜山字新田沢１０５－１１", "緯度": 40.177723, "経度": 140.073475, "url": "https://www.iryou.teikyouseido.mhlw.go.jp/znk-web/juminkanja/S2430/initialize?prefCd=05&kikanCd=11050300020&kikanKbn=1", "url2": "http://www.ny-ishikaihp.jp/", "内容": "能代山本医師会病院【1:病院】【診療科目:0】【一般病床数:162療養病床数:27精神病床数:0感染症病床数:0合計病床数:189】秋田県能代市檜山字新田沢１０５－１１" }, "geometry": { "type": "Point", "coordinates": [ 140.073475, 40.177723 ] } },
{ "type": "Feature", "properties": { "ID": 511050300040, "正式名称": "医療法人松野敬愛会　能代病院", "機関区分": 1, "都道府県コード": 5, "市区町村コード": 202, "所在地": "秋田県能代市大手町４－１", "緯度": 40.211913, "経度": 140.024791, "url": "https://www.iryou.teikyouseido.mhlw.go.jp/znk-web/juminkanja/S2430/initialize?prefCd=05&kikanCd=11050300040&kikanKbn=1", "url2": "noshiro-hospitai.com", "内容": "医療法人松野敬愛会　能代病院【1:病院】【診療科目:0】【一般病床数:0療養病床数:60精神病床数:0感染症病床数:0合計病床数:60】秋田県能代市大手町４－１" }, "geometry": { "type": "Point", "coordinates": [ 140.024791, 40.211913 ] } },
{ "type": "Feature", "properties": { "ID": 511050300050, "正式名称": "医療法人弘仁会　島田病院", "機関区分": 1, "都道府県コード": 5, "市区町村コード": 202, "所在地": "秋田県能代市西赤沼１４番地の４", "緯度": 40.193582, "経度": 140.039754, "url": "https://www.iryou.teikyouseido.mhlw.go.jp/znk-web/juminkanja/S2430/initialize?prefCd=05&kikanCd=11050300050&kikanKbn=1", "url2": "https://shimada-hp.com", "内容": "医療法人弘仁会　島田病院【1:病院】【診療科目:0】【一般病床数:0療養病床数:0精神病床数:210感染症病床数:0合計病床数:210】秋田県能代市西赤沼１４番地の４" }, "geometry": { "type": "Point", "coordinates": [ 140.039754, 40.193582 ] } },
{ "type": "Feature", "properties": { "ID": 511050300060, "正式名称": "独立行政法人地域医療機能推進機構　秋田病院", "機関区分": 1, "都道府県コード": 5, "市区町村コード": 202, "所在地": "秋田県能代市緑町５－２２", "緯度": 40.198248, "経度": 140.035116, "url": "https://www.iryou.teikyouseido.mhlw.go.jp/znk-web/juminkanja/S2430/initialize?prefCd=05&kikanCd=11050300060&kikanKbn=1", "url2": "http://akita.jcho.go.jp", "内容": "独立行政法人地域医療機能推進機構　秋田病院【1:病院】【診療科目:0】【一般病床数:162療養病床数:0精神病床数:0感染症病床数:0合計病床数:162】秋田県能代市緑町５－２２" }, "geometry": { "type": "Point", "coordinates": [ 140.035116, 40.198248 ] } },
{ "type": "Feature", "properties": { "ID": 511050300080, "正式名称": "医療法人双山会　森岳温泉病院", "機関区分": 1, "都道府県コード": 5, "市区町村コード": 348, "所在地": "秋田県山本郡三種町森岳木戸沢１９９", "緯度": 40.085121, "経度": 140.095441, "url": "https://www.iryou.teikyouseido.mhlw.go.jp/znk-web/juminkanja/S2430/initialize?prefCd=05&kikanCd=11050300080&kikanKbn=1", "url2": "http://www.moritake-onsen.com/", "内容": "医療法人双山会　森岳温泉病院【1:病院】【診療科目:0】【一般病床数:0療養病床数:110精神病床数:0感染症病床数:0合計病床数:110】秋田県山本郡三種町森岳木戸沢１９９" }, "geometry": { "type": "Point", "coordinates": [ 140.095441, 40.085121 ] } },
{ "type": "Feature", "properties": { "ID": 511050400010, "正式名称": "男鹿みなと市民病院", "機関区分": 1, "都道府県コード": 5, "市区町村コード": 206, "所在地": "秋田県男鹿市船川港船川字海岸通り１号８番地６", "緯度": 39.882862, "経度": 139.853062, "url": "https://www.iryou.teikyouseido.mhlw.go.jp/znk-web/juminkanja/S2430/initialize?prefCd=05&kikanCd=11050400010&kikanKbn=1", "url2": "http://www.ogaminato.jp/", "内容": "男鹿みなと市民病院【1:病院】【診療科目:0】【一般病床数:110療養病床数:0精神病床数:0感染症病床数:0合計病床数:110】秋田県男鹿市船川港船川字海岸通り１号８番地６" }, "geometry": { "type": "Point", "coordinates": [ 139.853062, 39.882862 ] } },
{ "type": "Feature", "properties": { "ID": 511050400020, "正式名称": "医療法人　敬徳会　藤原記念病院", "機関区分": 1, "都道府県コード": 5, "市区町村コード": 211, "所在地": "秋田県潟上市天王上江川４７番地", "緯度": 39.879703, "経度": 139.987843, "url": "https://www.iryou.teikyouseido.mhlw.go.jp/znk-web/juminkanja/S2430/initialize?prefCd=05&kikanCd=11050400020&kikanKbn=1", "url2": "http://www.fujiwarahsp.or.jp/", "内容": "医療法人　敬徳会　藤原記念病院【1:病院】【診療科目:0】【一般病床数:140療養病床数:0精神病床数:0感染症病床数:0合計病床数:140】秋田県潟上市天王上江川４７番地" }, "geometry": { "type": "Point", "coordinates": [ 139.987843, 39.879703 ] } },
{ "type": "Feature", "properties": { "ID": 511050400030, "正式名称": "医療法人　仁政会　杉山病院", "機関区分": 1, "都道府県コード": 5, "市区町村コード": 211, "所在地": "秋田県潟上市昭和大久保北野出戸道脇４１", "緯度": 39.855257, "経度": 140.035354, "url": "https://www.iryou.teikyouseido.mhlw.go.jp/znk-web/juminkanja/S2430/initialize?prefCd=05&kikanCd=11050400030&kikanKbn=1", "url2": "https://www.smc-jinseikai.com", "内容": "医療法人　仁政会　杉山病院【1:病院】【診療科目:0】【一般病床数:0療養病床数:144精神病床数:120感染症病床数:0合計病床数:264】秋田県潟上市昭和大久保北野出戸道脇４１" }, "geometry": { "type": "Point", "coordinates": [ 140.035354, 39.855257 ] } },
{ "type": "Feature", "properties": { "ID": 511050400050, "正式名称": "湖東厚生病院", "機関区分": 1, "都道府県コード": 5, "市区町村コード": 363, "所在地": "秋田県南秋田郡八郎潟町川崎字貝保９８番１", "緯度": 39.946158, "経度": 140.102089, "url": "https://www.iryou.teikyouseido.mhlw.go.jp/znk-web/juminkanja/S2430/initialize?prefCd=05&kikanCd=11050400050&kikanKbn=1", "url2": "http://www.koto-ghp.jp/", "内容": "湖東厚生病院【1:病院】【診療科目:0】【一般病床数:100療養病床数:0精神病床数:0感染症病床数:0合計病床数:100】秋田県南秋田郡八郎潟町川崎字貝保９８番１" }, "geometry": { "type": "Point", "coordinates": [ 140.102089, 39.946158 ] } },
{ "type": "Feature", "properties": { "ID": 511050500010, "正式名称": "社会医療法人明和会　中通リハビリテーション病院", "機関区分": 1, "都道府県コード": 5, "市区町村コード": 201, "所在地": "秋田県秋田市中通６丁目１番５８号", "緯度": 39.713496, "経度": 140.122158, "url": "https://www.iryou.teikyouseido.mhlw.go.jp/znk-web/juminkanja/S2430/initialize?prefCd=05&kikanCd=11050500010&kikanKbn=1", "url2": "http://www.meiwakai.or.jp", "内容": "社会医療法人明和会　中通リハビリテーション病院【1:病院】【診療科目:0】【一般病床数:0療養病床数:220精神病床数:0感染症病床数:0合計病床数:220】秋田県秋田市中通６丁目１番５８号" }, "geometry": { "type": "Point", "coordinates": [ 140.122158, 39.713496 ] } },
{ "type": "Feature", "properties": { "ID": 511050500020, "正式名称": "医療法人小泉病院　小泉病院", "機関区分": 1, "都道府県コード": 5, "市区町村コード": 201, "所在地": "秋田県秋田市中通４－１－２８", "緯度": 39.714774, "経度": 140.123019, "url": "https://www.iryou.teikyouseido.mhlw.go.jp/znk-web/juminkanja/S2430/initialize?prefCd=05&kikanCd=11050500020&kikanKbn=1", "url2": "http://www.koizumi-hosp.com", "内容": "医療法人小泉病院　小泉病院【1:病院】【診療科目:0】【一般病床数:27療養病床数:43精神病床数:0感染症病床数:0合計病床数:70】秋田県秋田市中通４－１－２８" }, "geometry": { "type": "Point", "coordinates": [ 140.123019, 39.714774 ] } },
{ "type": "Feature", "properties": { "ID": 511050500050, "正式名称": "医療法人梅栄会　細谷病院", "機関区分": 1, "都道府県コード": 5, "市区町村コード": 201, "所在地": "秋田県秋田市南通宮田３－１０", "緯度": 39.711469, "経度": 140.128964, "url": "https://www.iryou.teikyouseido.mhlw.go.jp/znk-web/juminkanja/S2430/initialize?prefCd=05&kikanCd=11050500050&kikanKbn=1", "url2": "http://www.hosoya-med.or.jp", "内容": "医療法人梅栄会　細谷病院【1:病院】【診療科目:0】【一般病床数:0療養病床数:107精神病床数:0感染症病床数:0合計病床数:107】秋田県秋田市南通宮田３－１０" }, "geometry": { "type": "Point", "coordinates": [ 140.128964, 39.711469 ] } },
{ "type": "Feature", "properties": { "ID": 511050500060, "正式名称": "医療法人回生会　秋田回生会病院", "機関区分": 1, "都道府県コード": 5, "市区町村コード": 201, "所在地": "秋田県秋田市牛島西一丁目７番５号", "緯度": 39.696359, "経度": 140.113994, "url": "https://www.iryou.teikyouseido.mhlw.go.jp/znk-web/juminkanja/S2430/initialize?prefCd=05&kikanCd=11050500060&kikanKbn=1", "url2": "https://kaisei.hello-net.info", "内容": "医療法人回生会　秋田回生会病院【1:病院】【診療科目:0】【一般病床数:0療養病床数:0精神病床数:393感染症病床数:0合計病床数:393】秋田県秋田市牛島西一丁目７番５号" }, "geometry": { "type": "Point", "coordinates": [ 140.113994, 39.696359 ] } },
{ "type": "Feature", "properties": { "ID": 511050500070, "正式名称": "今村病院", "機関区分": 1, "都道府県コード": 5, "市区町村コード": 201, "所在地": "秋田県秋田市下新城中野琵琶沼１２４番地１", "緯度": 39.803949, "経度": 140.059594, "url": "https://www.iryou.teikyouseido.mhlw.go.jp/znk-web/juminkanja/S2430/initialize?prefCd=05&kikanCd=11050500070&kikanKbn=1", "url2": "http://www.kyukokai.com/", "内容": "今村病院【1:病院】【診療科目:0】【一般病床数:0療養病床数:0精神病床数:223感染症病床数:0合計病床数:223】秋田県秋田市下新城中野琵琶沼１２４番地１" }, "geometry": { "type": "Point", "coordinates": [ 140.059594, 39.803949 ] } },
{ "type": "Feature", "properties": { "ID": 511050500090, "正式名称": "医療法人三愛会　秋田東病院", "機関区分": 1, "都道府県コード": 5, "市区町村コード": 201, "所在地": "秋田県秋田市山内丸木橋１６７－３", "緯度": 39.775435, "経度": 140.185373, "url": "https://www.iryou.teikyouseido.mhlw.go.jp/znk-web/juminkanja/S2430/initialize?prefCd=05&kikanCd=11050500090&kikanKbn=1", "url2": "http://www.akitahigashi-hp.com/", "内容": "医療法人三愛会　秋田東病院【1:病院】【診療科目:0】【一般病床数:0療養病床数:0精神病床数:140感染症病床数:0合計病床数:140】秋田県秋田市山内丸木橋１６７－３" }, "geometry": { "type": "Point", "coordinates": [ 140.185373, 39.775435 ] } },
{ "type": "Feature", "properties": { "ID": 511050500100, "正式名称": "医療法人清風会　清和病院", "機関区分": 1, "都道府県コード": 5, "市区町村コード": 201, "所在地": "秋田県秋田市柳田石神５９", "緯度": 39.739494, "経度": 140.168042, "url": "https://www.iryou.teikyouseido.mhlw.go.jp/znk-web/juminkanja/S2430/initialize?prefCd=05&kikanCd=11050500100&kikanKbn=1", "url2": "http://seiwa-hp.or.jp", "内容": "医療法人清風会　清和病院【1:病院】【診療科目:0】【一般病床数:0療養病床数:0精神病床数:133感染症病床数:0合計病床数:133】秋田県秋田市柳田石神５９" }, "geometry": { "type": "Point", "coordinates": [ 140.168042, 39.739494 ] } },
{ "type": "Feature", "properties": { "ID": 511050500110, "正式名称": "地方独立行政法人　秋田県立病院機構　秋田県立循環器・脳脊髄センター", "機関区分": 1, "都道府県コード": 5, "市区町村コード": 201, "所在地": "秋田県秋田市千秋久保田町６番１０号", "緯度": 39.720329, "経度": 140.127103, "url": "https://www.iryou.teikyouseido.mhlw.go.jp/znk-web/juminkanja/S2430/initialize?prefCd=05&kikanCd=11050500110&kikanKbn=1", "url2": "https://www.akita-noken.jp", "内容": "地方独立行政法人　秋田県立病院機構　秋田県立循環器・脳脊髄センター【1:病院】【診療科目:0】【一般病床数:184療養病床数:0精神病床数:0感染症病床数:0合計病床数:184】秋田県秋田市千秋久保田町６番１０号" }, "geometry": { "type": "Point", "coordinates": [ 140.127103, 39.720329 ] } },
{ "type": "Feature", "properties": { "ID": 511050500140, "正式名称": "市立秋田総合病院", "機関区分": 1, "都道府県コード": 5, "市区町村コード": 201, "所在地": "秋田県秋田市川元松丘町４番３０号", "緯度": 39.711953, "経度": 140.103463, "url": "https://www.iryou.teikyouseido.mhlw.go.jp/znk-web/juminkanja/S2430/initialize?prefCd=05&kikanCd=11050500140&kikanKbn=1", "url2": "http://akita-city-hospital.jp/", "内容": "市立秋田総合病院【1:病院】【診療科目:0】【一般病床数:337療養病床数:0精神病床数:45感染症病床数:0合計病床数:396】秋田県秋田市川元松丘町４番３０号" }, "geometry": { "type": "Point", "coordinates": [ 140.103463, 39.711953 ] } },
{ "type": "Feature", "properties": { "ID": 511050500150, "正式名称": "秋田県厚生農業協同組合連合会　秋田厚生医療センター", "機関区分": 1, "都道府県コード": 5, "市区町村コード": 201, "所在地": "秋田県秋田市飯島西袋１－１－１", "緯度": 39.767739, "経度": 140.092936, "url": "https://www.iryou.teikyouseido.mhlw.go.jp/znk-web/juminkanja/S2430/initialize?prefCd=05&kikanCd=11050500150&kikanKbn=1", "url2": "http://www.akikumihsp.com", "内容": "秋田県厚生農業協同組合連合会　秋田厚生医療センター【1:病院】【診療科目:0】【一般病床数:429療養病床数:0精神病床数:0感染症病床数:2合計病床数:431】秋田県秋田市飯島西袋１－１－１" }, "geometry": { "type": "Point", "coordinates": [ 140.092936, 39.767739 ] } },
{ "type": "Feature", "properties": { "ID": 511050500160, "正式名称": "秋田県立医療療育センター", "機関区分": 1, "都道府県コード": 5, "市区町村コード": 201, "所在地": "秋田県秋田市南ケ丘一丁目１番２号", "緯度": 39.690221, "経度": 140.159945, "url": "https://www.iryou.teikyouseido.mhlw.go.jp/znk-web/juminkanja/S2430/initialize?prefCd=05&kikanCd=11050500160&kikanKbn=1", "url2": "https://www.airc.or.jp/", "内容": "秋田県立医療療育センター【1:病院】【診療科目:0】【一般病床数:100療養病床数:0精神病床数:0感染症病床数:0合計病床数:100】秋田県秋田市南ケ丘一丁目１番２号" }, "geometry": { "type": "Point", "coordinates": [ 140.159945, 39.690221 ] } },
{ "type": "Feature", "properties": { "ID": 511050500170, "正式名称": "医療法人正観会　御野場病院", "機関区分": 1, "都道府県コード": 5, "市区町村コード": 201, "所在地": "秋田県秋田市御野場二丁目１４番１号", "緯度": 39.673584, "経度": 140.131632, "url": "https://www.iryou.teikyouseido.mhlw.go.jp/znk-web/juminkanja/S2430/initialize?prefCd=05&kikanCd=11050500170&kikanKbn=1", "url2": "http://www.seikankai.or.jp/", "内容": "医療法人正観会　御野場病院【1:病院】【診療科目:0】【一般病床数:26療養病床数:125精神病床数:0感染症病床数:0合計病床数:151】秋田県秋田市御野場二丁目１４番１号" }, "geometry": { "type": "Point", "coordinates": [ 140.131632, 39.673584 ] } },
{ "type": "Feature", "properties": { "ID": 511050500180, "正式名称": "秋田赤十字病院", "機関区分": 1, "都道府県コード": 5, "市区町村コード": 201, "所在地": "秋田県秋田市上北手猿田字苗代沢２２２－１", "緯度": 39.686972, "経度": 140.153046, "url": "https://www.iryou.teikyouseido.mhlw.go.jp/znk-web/juminkanja/S2430/initialize?prefCd=05&kikanCd=11050500180&kikanKbn=1", "url2": "https://www.akita-med.jrc.or.jp/", "内容": "秋田赤十字病院【1:病院】【診療科目:0】【一般病床数:447療養病床数:0精神病床数:0感染症病床数:0合計病床数:447】秋田県秋田市上北手猿田字苗代沢２２２－１" }, "geometry": { "type": "Point", "coordinates": [ 140.153046, 39.686972 ] } },
{ "type": "Feature", "properties": { "ID": 511050500190, "正式名称": "医療法人緑陽会　笠松病院", "機関区分": 1, "都道府県コード": 5, "市区町村コード": 201, "所在地": "秋田県秋田市浜田藍の原５２", "緯度": 39.653696, "経度": 140.070276, "url": "https://www.iryou.teikyouseido.mhlw.go.jp/znk-web/juminkanja/S2430/initialize?prefCd=05&kikanCd=11050500190&kikanKbn=1", "url2": "https://kasamathu.com", "内容": "医療法人緑陽会　笠松病院【1:病院】【診療科目:0】【一般病床数:0療養病床数:0精神病床数:187感染症病床数:0合計病床数:187】秋田県秋田市浜田藍の原５２" }, "geometry": { "type": "Point", "coordinates": [ 140.070276, 39.653696 ] } },
{ "type": "Feature", "properties": { "ID": 511050500200, "正式名称": "秋田大学医学部附属病院", "機関区分": 1, "都道府県コード": 5, "市区町村コード": 201, "所在地": "秋田県秋田市広面蓮沼４４番２", "緯度": 39.730994, "経度": 140.149516, "url": "https://www.iryou.teikyouseido.mhlw.go.jp/znk-web/juminkanja/S2430/initialize?prefCd=05&kikanCd=11050500200&kikanKbn=1", "url2": "https://www.hos.akita-u.ac.jp/", "内容": "秋田大学医学部附属病院【1:病院】【診療科目:0】【一般病床数:566療養病床数:0精神病床数:32感染症病床数:2合計病床数:600】秋田県秋田市広面蓮沼４４番２" }, "geometry": { "type": "Point", "coordinates": [ 140.149516, 39.730994 ] } },
{ "type": "Feature", "properties": { "ID": 511050500210, "正式名称": "社会医療法人明和会　中通総合病院", "機関区分": 1, "都道府県コード": 5, "市区町村コード": 201, "所在地": "秋田県秋田市南通みその町３番１５号", "緯度": 39.710883, "経度": 140.122982, "url": "https://www.iryou.teikyouseido.mhlw.go.jp/znk-web/juminkanja/S2430/initialize?prefCd=05&kikanCd=11050500210&kikanKbn=1", "url2": "http://www.meiwakai.or.jp/nakadori/", "内容": "社会医療法人明和会　中通総合病院【1:病院】【診療科目:0】【一般病床数:413療養病床数:0精神病床数:0感染症病床数:0合計病床数:413】秋田県秋田市南通みその町３番１５号" }, "geometry": { "type": "Point", "coordinates": [ 140.122982, 39.710883 ] } },
{ "type": "Feature", "properties": { "ID": 511050500220, "正式名称": "医療法人久盛会　秋田緑ヶ丘病院", "機関区分": 1, "都道府県コード": 5, "市区町村コード": 201, "所在地": "秋田県秋田市飯島堀川８４番地", "緯度": 39.790321, "経度": 140.060827, "url": "https://www.iryou.teikyouseido.mhlw.go.jp/znk-web/juminkanja/S2430/initialize?prefCd=05&kikanCd=11050500220&kikanKbn=1", "url2": "http://www.kyusei.or.jp", "内容": "医療法人久盛会　秋田緑ヶ丘病院【1:病院】【診療科目:0】【一般病床数:0療養病床数:0精神病床数:372感染症病床数:0合計病床数:372】秋田県秋田市飯島堀川８４番地" }, "geometry": { "type": "Point", "coordinates": [ 140.060827, 39.790321 ] } },
{ "type": "Feature", "properties": { "ID": 511050500230, "正式名称": "医療法人運忠会　土崎病院", "機関区分": 1, "都道府県コード": 5, "市区町村コード": 201, "所在地": "秋田県秋田市土崎港中央４丁目４－２６", "緯度": 39.753519, "経度": 140.072578, "url": "https://www.iryou.teikyouseido.mhlw.go.jp/znk-web/juminkanja/S2430/initialize?prefCd=05&kikanCd=11050500230&kikanKbn=1", "url2": "https://www.tsuchizakihp.or.jp", "内容": "医療法人運忠会　土崎病院【1:病院】【診療科目:0】【一般病床数:68療養病床数:42精神病床数:0感染症病床数:0合計病床数:110】秋田県秋田市土崎港中央４丁目４－２６" }, "geometry": { "type": "Point", "coordinates": [ 140.072578, 39.753519 ] } },
{ "type": "Feature", "properties": { "ID": 511050500240, "正式名称": "社会医療法人正和会　五十嵐記念病院", "機関区分": 1, "都道府県コード": 5, "市区町村コード": 201, "所在地": "秋田県秋田市土崎港中央１－１７－２３", "緯度": 39.753547, "経度": 140.068495, "url": "https://www.iryou.teikyouseido.mhlw.go.jp/znk-web/juminkanja/S2430/initialize?prefCd=05&kikanCd=11050500240&kikanKbn=1", "url2": "https://med.akita-seiwakai.jp/igarashi/", "内容": "社会医療法人正和会　五十嵐記念病院【1:病院】【診療科目:0】【一般病床数:60療養病床数:0精神病床数:0感染症病床数:0合計病床数:60】秋田県秋田市土崎港中央１－１７－２３" }, "geometry": { "type": "Point", "coordinates": [ 140.068495, 39.753547 ] } },
{ "type": "Feature", "properties": { "ID": 511050500250, "正式名称": "医療法人祐愛会　加藤病院", "機関区分": 1, "都道府県コード": 5, "市区町村コード": 201, "所在地": "秋田県秋田市河辺戸島上野４－３", "緯度": 39.632979, "経度": 140.194212, "url": "https://www.iryou.teikyouseido.mhlw.go.jp/znk-web/juminkanja/S2430/initialize?prefCd=05&kikanCd=11050500250&kikanKbn=1", "url2": "http://www.kato-byoin.com/", "内容": "医療法人祐愛会　加藤病院【1:病院】【診療科目:0】【一般病床数:0療養病床数:0精神病床数:160感染症病床数:0合計病床数:160】秋田県秋田市河辺戸島上野４－３" }, "geometry": { "type": "Point", "coordinates": [ 140.194212, 39.632979 ] } },
{ "type": "Feature", "properties": { "ID": 511050600010, "正式名称": "医療法人荘和会　菅原病院", "機関区分": 1, "都道府県コード": 5, "市区町村コード": 210, "所在地": "秋田県由利本荘市石脇（田尻）３３番地", "緯度": 39.390891, "経度": 140.02282, "url": "https://www.iryou.teikyouseido.mhlw.go.jp/znk-web/juminkanja/S2430/initialize?prefCd=05&kikanCd=11050600010&kikanKbn=1", "url2": "https://www.sugawara-hosp.jp/", "内容": "医療法人荘和会　菅原病院【1:病院】【診療科目:0】【一般病床数:0療養病床数:0精神病床数:200感染症病床数:0合計病床数:200】秋田県由利本荘市石脇（田尻）３３番地" }, "geometry": { "type": "Point", "coordinates": [ 140.02282, 39.390891 ] } },
{ "type": "Feature", "properties": { "ID": 511050600020, "正式名称": "由利本荘医師会病院", "機関区分": 1, "都道府県コード": 5, "市区町村コード": 210, "所在地": "秋田県由利本荘市水林４５６－４", "緯度": 39.377808, "経度": 140.025682, "url": "https://www.iryou.teikyouseido.mhlw.go.jp/znk-web/juminkanja/S2430/initialize?prefCd=05&kikanCd=11050600020&kikanKbn=1", "url2": "http://yurihon-hospital.jp/", "内容": "由利本荘医師会病院【1:病院】【診療科目:0】【一般病床数:100療養病床数:0精神病床数:0感染症病床数:0合計病床数:100】秋田県由利本荘市水林４５６－４" }, "geometry": { "type": "Point", "coordinates": [ 140.025682, 39.377808 ] } },
{ "type": "Feature", "properties": { "ID": 511050600030, "正式名称": "由利組合総合病院", "機関区分": 1, "都道府県コード": 5, "市区町村コード": 210, "所在地": "秋田県由利本荘市川口家後３８", "緯度": 39.404723, "経度": 140.061178, "url": "https://www.iryou.teikyouseido.mhlw.go.jp/znk-web/juminkanja/S2430/initialize?prefCd=05&kikanCd=11050600030&kikanKbn=1", "url2": "http://www.yuri-hospital.honjo.akita.jp", "内容": "由利組合総合病院【1:病院】【診療科目:0】【一般病床数:372療養病床数:0精神病床数:0感染症病床数:4合計病床数:376】秋田県由利本荘市川口家後３８" }, "geometry": { "type": "Point", "coordinates": [ 140.061178, 39.404723 ] } },
{ "type": "Feature", "properties": { "ID": 511050600040, "正式名称": "医療法人　佐藤病院", "機関区分": 1, "都道府県コード": 5, "市区町村コード": 210, "所在地": "秋田県由利本荘市小人町１１７番地３", "緯度": 39.380295, "経度": 140.046884, "url": "https://www.iryou.teikyouseido.mhlw.go.jp/znk-web/juminkanja/S2430/initialize?prefCd=05&kikanCd=11050600040&kikanKbn=1", "url2": "https://www.satohospital.jp/", "内容": "医療法人　佐藤病院【1:病院】【診療科目:0】【一般病床数:137療養病床数:0精神病床数:0感染症病床数:0合計病床数:137】秋田県由利本荘市小人町１１７番地３" }, "geometry": { "type": "Point", "coordinates": [ 140.046884, 39.380295 ] } },
{ "type": "Feature", "properties": { "ID": 511050600050, "正式名称": "本荘第一病院", "機関区分": 1, "都道府県コード": 5, "市区町村コード": 210, "所在地": "秋田県由利本荘市岩渕下１１０番地", "緯度": 39.392696, "経度": 140.051485, "url": "https://www.iryou.teikyouseido.mhlw.go.jp/znk-web/juminkanja/S2430/initialize?prefCd=05&kikanCd=11050600050&kikanKbn=1", "url2": "http://www.honjodaiichihp.com/", "内容": "本荘第一病院【1:病院】【診療科目:0】【一般病床数:131療養病床数:0精神病床数:0感染症病床数:0合計病床数:131】秋田県由利本荘市岩渕下１１０番地" }, "geometry": { "type": "Point", "coordinates": [ 140.051485, 39.392696 ] } },
{ "type": "Feature", "properties": { "ID": 511050600060, "正式名称": "独立行政法人　国立病院機構　あきた病院", "機関区分": 1, "都道府県コード": 5, "市区町村コード": 210, "所在地": "秋田県由利本荘市岩城内道川字井戸ノ沢８４番地４０", "緯度": 39.562261, "経度": 140.059781, "url": "https://www.iryou.teikyouseido.mhlw.go.jp/znk-web/juminkanja/S2430/initialize?prefCd=05&kikanCd=11050600060&kikanKbn=1", "url2": "https://akita.hosp.go.jp/index.html", "内容": "独立行政法人　国立病院機構　あきた病院【1:病院】【診療科目:0】【一般病床数:334療養病床数:0精神病床数:0感染症病床数:0合計病床数:334】秋田県由利本荘市岩城内道川字井戸ノ沢８４番地４０" }, "geometry": { "type": "Point", "coordinates": [ 140.059781, 39.562261 ] } },
{ "type": "Feature", "properties": { "ID": 511050600080, "正式名称": "象潟病院", "機関区分": 1, "都道府県コード": 5, "市区町村コード": 214, "所在地": "秋田県にかほ市象潟町小滝麻針堰１６番地", "緯度": 39.169274, "経度": 139.946921, "url": "https://www.iryou.teikyouseido.mhlw.go.jp/znk-web/juminkanja/S2430/initialize?prefCd=05&kikanCd=11050600080&kikanKbn=1", "url2": "http://www.kisakata-kunpukai.or.jp/", "内容": "象潟病院【1:病院】【診療科目:0】【一般病床数:0療養病床数:0精神病床数:136感染症病床数:0合計病床数:136】秋田県にかほ市象潟町小滝麻針堰１６番地" }, "geometry": { "type": "Point", "coordinates": [ 139.946921, 39.169274 ] } },
{ "type": "Feature", "properties": { "ID": 511050700010, "正式名称": "秋田県厚生農業協同組合連合会　大曲厚生医療センター", "機関区分": 1, "都道府県コード": 5, "市区町村コード": 212, "所在地": "秋田県大仙市大曲通町８－６５", "緯度": 39.465252, "経度": 140.47639, "url": "https://www.iryou.teikyouseido.mhlw.go.jp/znk-web/juminkanja/S2430/initialize?prefCd=05&kikanCd=11050700010&kikanKbn=1", "url2": "http://www.okmc.jp", "内容": "秋田県厚生農業協同組合連合会　大曲厚生医療センター【1:病院】【診療科目:0】【一般病床数:433療養病床数:0精神病床数:0感染症病床数:4合計病床数:437】秋田県大仙市大曲通町８－６５" }, "geometry": { "type": "Point", "coordinates": [ 140.47639, 39.465252 ] } },
{ "type": "Feature", "properties": { "ID": 511050700020, "正式名称": "医療法人あけぼの会　花園病院", "機関区分": 1, "都道府県コード": 5, "市区町村コード": 212, "所在地": "秋田県大仙市大曲あけぼの町９－２６", "緯度": 39.456446, "経度": 140.472475, "url": "https://www.iryou.teikyouseido.mhlw.go.jp/znk-web/juminkanja/S2430/initialize?prefCd=05&kikanCd=11050700020&kikanKbn=1", "url2": "http://www.akebonokai.org/", "内容": "医療法人あけぼの会　花園病院【1:病院】【診療科目:0】【一般病床数:0療養病床数:50精神病床数:0感染症病床数:0合計病床数:50】秋田県大仙市大曲あけぼの町９－２６" }, "geometry": { "type": "Point", "coordinates": [ 140.472475, 39.456446 ] } },
{ "type": "Feature", "properties": { "ID": 511050700030, "正式名称": "社会医療法人明和会　大曲中通病院", "機関区分": 1, "都道府県コード": 5, "市区町村コード": 212, "所在地": "秋田県大仙市大曲上栄町６番４号", "緯度": 39.451197, "経度": 140.476391, "url": "https://www.iryou.teikyouseido.mhlw.go.jp/znk-web/juminkanja/S2430/initialize?prefCd=05&kikanCd=11050700030&kikanKbn=1", "url2": "http://www.meiwakai.or.jp", "内容": "社会医療法人明和会　大曲中通病院【1:病院】【診療科目:0】【一般病床数:60療養病床数:46精神病床数:0感染症病床数:0合計病床数:106】秋田県大仙市大曲上栄町６番４号" }, "geometry": { "type": "Point", "coordinates": [ 140.476391, 39.451197 ] } },
{ "type": "Feature", "properties": { "ID": 511050700040, "正式名称": "市立大曲病院", "機関区分": 1, "都道府県コード": 5, "市区町村コード": 212, "所在地": "秋田県大仙市飯田堰東２１０", "緯度": 39.441031, "経度": 140.483919, "url": "https://www.iryou.teikyouseido.mhlw.go.jp/znk-web/juminkanja/S2430/initialize?prefCd=05&kikanCd=11050700040&kikanKbn=1", "url2": "http://omagari-hospital.sakura.ne.jp/", "内容": "市立大曲病院【1:病院】【診療科目:0】【一般病床数:0療養病床数:0精神病床数:120感染症病床数:0合計病床数:120】秋田県大仙市飯田堰東２１０" }, "geometry": { "type": "Point", "coordinates": [ 140.483919, 39.441031 ] } },
{ "type": "Feature", "properties": { "ID": 511050700050, "正式名称": "医療法人慧眞会　協和病院", "機関区分": 1, "都道府県コード": 5, "市区町村コード": 212, "所在地": "秋田県大仙市協和上淀川字五百刈田２７７番地１", "緯度": 39.597178, "経度": 140.302649, "url": "https://www.iryou.teikyouseido.mhlw.go.jp/znk-web/juminkanja/S2430/initialize?prefCd=05&kikanCd=11050700050&kikanKbn=1", "url2": "https://keishinkai-akita.net/kyouwa/", "内容": "医療法人慧眞会　協和病院【1:病院】【診療科目:0】【一般病床数:0療養病床数:57精神病床数:120感染症病床数:0合計病床数:177】秋田県大仙市協和上淀川字五百刈田２７７番地１" }, "geometry": { "type": "Point", "coordinates": [ 140.302649, 39.597178 ] } },
{ "type": "Feature", "properties": { "ID": 511050700060, "正式名称": "秋田県立リハビリテーション・精神医療センター", "機関区分": 1, "都道府県コード": 5, "市区町村コード": 212, "所在地": "秋田県大仙市協和上淀川五百刈田３５２番地", "緯度": 39.598373, "経度": 140.295122, "url": "https://www.iryou.teikyouseido.mhlw.go.jp/znk-web/juminkanja/S2430/initialize?prefCd=05&kikanCd=11050700060&kikanKbn=1", "url2": "http://akita-rehacen.jp", "内容": "秋田県立リハビリテーション・精神医療センター【1:病院】【診療科目:0】【一般病床数:50療養病床数:50精神病床数:200感染症病床数:0合計病床数:300】秋田県大仙市協和上淀川五百刈田３５２番地" }, "geometry": { "type": "Point", "coordinates": [ 140.295122, 39.598373 ] } },
{ "type": "Feature", "properties": { "ID": 511050700070, "正式名称": "市立角館総合病院", "機関区分": 1, "都道府県コード": 5, "市区町村コード": 215, "所在地": "秋田県仙北市角館町岩瀬３番地", "緯度": 39.586629, "経度": 140.560323, "url": "https://www.iryou.teikyouseido.mhlw.go.jp/znk-web/juminkanja/S2430/initialize?prefCd=05&kikanCd=11050700070&kikanKbn=1", "url2": "https://kakunodate-hp.com/", "内容": "市立角館総合病院【1:病院】【診療科目:0】【一般病床数:152療養病床数:0精神病床数:28感染症病床数:0合計病床数:180】秋田県仙北市角館町岩瀬３番地" }, "geometry": { "type": "Point", "coordinates": [ 140.560323, 39.586629 ] } },
{ "type": "Feature", "properties": { "ID": 511050700080, "正式名称": "市立田沢湖病院", "機関区分": 1, "都道府県コード": 5, "市区町村コード": 215, "所在地": "秋田県仙北市田沢湖生保内字浮世坂１７番地１", "緯度": 39.69862, "経度": 140.721443, "url": "https://www.iryou.teikyouseido.mhlw.go.jp/znk-web/juminkanja/S2430/initialize?prefCd=05&kikanCd=11050700080&kikanKbn=1", "url2": "http://www.hana.or.jp/~thos/", "内容": "市立田沢湖病院【1:病院】【診療科目:0】【一般病床数:60療養病床数:0精神病床数:0感染症病床数:0合計病床数:60】秋田県仙北市田沢湖生保内字浮世坂１７番地１" }, "geometry": { "type": "Point", "coordinates": [ 140.721443, 39.69862 ] } },
{ "type": "Feature", "properties": { "ID": 511050800010, "正式名称": "社会医療法人興生会　横手興生病院", "機関区分": 1, "都道府県コード": 5, "市区町村コード": 203, "所在地": "秋田県横手市根岸町８－２１", "緯度": 39.317824, "経度": 140.569612, "url": "https://www.iryou.teikyouseido.mhlw.go.jp/znk-web/juminkanja/S2430/initialize?prefCd=05&kikanCd=11050800010&kikanKbn=1", "url2": "http://www.kohseikai.com", "内容": "社会医療法人興生会　横手興生病院【1:病院】【診療科目:0】【一般病床数:0療養病床数:0精神病床数:246感染症病床数:0合計病床数:246】秋田県横手市根岸町８－２１" }, "geometry": { "type": "Point", "coordinates": [ 140.569612, 39.317824 ] } },
{ "type": "Feature", "properties": { "ID": 511050800020, "正式名称": "市立大森病院", "機関区分": 1, "都道府県コード": 5, "市区町村コード": 203, "所在地": "秋田県横手市大森町字菅生田２４５番地２０５", "緯度": 39.351485, "経度": 140.416985, "url": "https://www.iryou.teikyouseido.mhlw.go.jp/znk-web/juminkanja/S2430/initialize?prefCd=05&kikanCd=11050800020&kikanKbn=1", "url2": "https://www.oomorihp.jp/", "内容": "市立大森病院【1:病院】【診療科目:0】【一般病床数:100療養病床数:50精神病床数:0感染症病床数:0合計病床数:150】秋田県横手市大森町字菅生田２４５番地２０５" }, "geometry": { "type": "Point", "coordinates": [ 140.416985, 39.351485 ] } },
{ "type": "Feature", "properties": { "ID": 511050800030, "正式名称": "市立横手病院", "機関区分": 1, "都道府県コード": 5, "市区町村コード": 203, "所在地": "秋田県横手市根岸町５番３１号", "緯度": 39.318435, "経度": 140.569195, "url": "https://www.iryou.teikyouseido.mhlw.go.jp/znk-web/juminkanja/S2430/initialize?prefCd=05&kikanCd=11050800030&kikanKbn=1", "url2": "http://www.yokote-mhp.jp/", "内容": "市立横手病院【1:病院】【診療科目:0】【一般病床数:191療養病床数:0精神病床数:0感染症病床数:4合計病床数:195】秋田県横手市根岸町５番３１号" }, "geometry": { "type": "Point", "coordinates": [ 140.569195, 39.318435 ] } },
{ "type": "Feature", "properties": { "ID": 511050800040, "正式名称": "秋田県厚生農業協同組合連合会　平鹿総合病院", "機関区分": 1, "都道府県コード": 5, "市区町村コード": 203, "所在地": "秋田県横手市前郷八ツ口３番１", "緯度": 39.312419, "経度": 140.549346, "url": "https://www.iryou.teikyouseido.mhlw.go.jp/znk-web/juminkanja/S2430/initialize?prefCd=05&kikanCd=11050800040&kikanKbn=1", "url2": "http://www.hiraka-hp.yokote.akita.jp/", "内容": "秋田県厚生農業協同組合連合会　平鹿総合病院【1:病院】【診療科目:0】【一般病床数:386療養病床数:0精神病床数:0感染症病床数:0合計病床数:392】秋田県横手市前郷八ツ口３番１" }, "geometry": { "type": "Point", "coordinates": [ 140.549346, 39.312419 ] } },
{ "type": "Feature", "properties": { "ID": 511050900010, "正式名称": "医療法人仁恵会　佐藤病院", "機関区分": 1, "都道府県コード": 5, "市区町村コード": 207, "所在地": "秋田県湯沢市字中屋敷７５", "緯度": 39.157534, "経度": 140.458462, "url": "https://www.iryou.teikyouseido.mhlw.go.jp/znk-web/juminkanja/S2430/initialize?prefCd=05&kikanCd=11050900010&kikanKbn=1", "url2": "https://jinkeikai.jp/satou/", "内容": "医療法人仁恵会　佐藤病院【1:病院】【診療科目:0】【一般病床数:0療養病床数:0精神病床数:170感染症病床数:0合計病床数:170】秋田県湯沢市字中屋敷７５" }, "geometry": { "type": "Point", "coordinates": [ 140.458462, 39.157534 ] } },
{ "type": "Feature", "properties": { "ID": 511050900020, "正式名称": "秋田県厚生農業協同組合連合会　雄勝中央病院", "機関区分": 1, "都道府県コード": 5, "市区町村コード": 207, "所在地": "秋田県湯沢市山田字勇ヶ岡２５", "緯度": 39.145229, "経度": 140.454824, "url": "https://www.iryou.teikyouseido.mhlw.go.jp/znk-web/juminkanja/S2430/initialize?prefCd=05&kikanCd=11050900020&kikanKbn=1", "url2": "http://www.ogachi-hsp.jp", "内容": "秋田県厚生農業協同組合連合会　雄勝中央病院【1:病院】【診療科目:0】【一般病床数:173療養病床数:0精神病床数:0感染症病床数:4合計病床数:177】秋田県湯沢市山田字勇ヶ岡２５" }, "geometry": { "type": "Point", "coordinates": [ 140.454824, 39.145229 ] } },
{ "type": "Feature", "properties": { "ID": 511050900050, "正式名称": "羽後町立羽後病院", "機関区分": 1, "都道府県コード": 5, "市区町村コード": 463, "所在地": "秋田県雄勝郡羽後町西馬音内字大戸道４４－５", "緯度": 39.196668, "経度": 140.407742, "url": "https://www.iryou.teikyouseido.mhlw.go.jp/znk-web/juminkanja/S2430/initialize?prefCd=05&kikanCd=11050900050&kikanKbn=1", "url2": "https://www.ugo-h.jp/", "内容": "羽後町立羽後病院【1:病院】【診療科目:0】【一般病床数:54療養病床数:49精神病床数:0感染症病床数:0合計病床数:103】秋田県雄勝郡羽後町西馬音内字大戸道４４－５" }, "geometry": { "type": "Point", "coordinates": [ 140.407742, 39.196668 ] } }
]
}
