{
"type": "FeatureCollection",
"name": "geo_05_訪問看護",
"crs": { "type": "name", "properties": { "name": "urn:ogc:def:crs:OGC:1.3:CRS84" } },
"features": [
{ "type": "Feature", "properties": { "内容": "訪問看護ステーションひまわり【訪問看護】秋田県秋田市牛島西一丁目７番５号", "url2": "https://www.kaigokensaku.mhlw.go.jp/05/index.php?action_kouhyou_detail_004_kani=true&JigyosyoCd=0560190449-00&ServiceCd=130&Type=search" }, "geometry": { "type": "Point", "coordinates": [ 140.1139978, 39.6963695 ] } },
{ "type": "Feature", "properties": { "内容": "秋田赤十字病院【訪問看護】秋田市上北手猿田字苗代沢２２２－１", "url2": "https://www.kaigokensaku.mhlw.go.jp/05/index.php?action_kouhyou_detail_004_kani=true&JigyosyoCd=0510114093-00&ServiceCd=130&Type=search" }, "geometry": { "type": "Point", "coordinates": [ 140.153055600000016, 39.6869775 ] } },
{ "type": "Feature", "properties": { "内容": "訪問看護事業所あらや【訪問看護】秋田県秋田市新屋沖田町9-21-101", "url2": "https://www.kaigokensaku.mhlw.go.jp/05/index.php?action_kouhyou_detail_004_kani=true&JigyosyoCd=0560190563-00&ServiceCd=130&Type=search" }, "geometry": { "type": "Point", "coordinates": [ 140.0918919, 39.6736935 ] } },
{ "type": "Feature", "properties": { "内容": "ニコニコ訪問看護ステーション【訪問看護】秋田県秋田市下新城中野字琵琶沼124-1", "url2": "https://www.kaigokensaku.mhlw.go.jp/05/index.php?action_kouhyou_detail_004_kani=true&JigyosyoCd=0560190092-00&ServiceCd=130&Type=search" }, "geometry": { "type": "Point", "coordinates": [ 140.058660499999974, 39.8037255 ] } },
{ "type": "Feature", "properties": { "内容": "ごてんまり青い鳥訪問看護ステーション【訪問看護】秋田県秋田市仁井田新田二丁目2-23フェリーチェにいだ102", "url2": "https://www.kaigokensaku.mhlw.go.jp/05/index.php?action_kouhyou_detail_004_kani=true&JigyosyoCd=0560190753-00&ServiceCd=130&Type=search" }, "geometry": { "type": "Point", "coordinates": [ 140.1230692, 39.67979 ] } },
{ "type": "Feature", "properties": { "内容": "訪問看護ステーションにじいろ【訪問看護】秋田県秋田市大町1丁目2-7サンパティオ大町A棟2階A号室", "url2": "https://www.kaigokensaku.mhlw.go.jp/05/index.php?action_kouhyou_detail_004_kani=true&JigyosyoCd=0560190746-00&ServiceCd=130&Type=search" }, "geometry": { "type": "Point", "coordinates": [ 140.117422, 39.7196723 ] } },
{ "type": "Feature", "properties": { "内容": "ホームホスピス秋田訪問看護ステーション【訪問看護】秋田県秋田市広面字近藤堰添50-1あきた東内科クリニック２階", "url2": "https://www.kaigokensaku.mhlw.go.jp/05/index.php?action_kouhyou_detail_004_kani=true&JigyosyoCd=0560190522-00&ServiceCd=130&Type=search" }, "geometry": { "type": "Point", "coordinates": [ 140.145382471827702, 39.726704956973961 ] } },
{ "type": "Feature", "properties": { "内容": "プロケアあきた訪問看護ステーション【訪問看護】秋田県秋田市川尻町字大川反170-40　２FA", "url2": "https://www.kaigokensaku.mhlw.go.jp/05/index.php?action_kouhyou_detail_004_kani=true&JigyosyoCd=0560190662-00&ServiceCd=130&Type=search" }, "geometry": { "type": "Point", "coordinates": [ 140.080357350262432, 39.714819567531023 ] } },
{ "type": "Feature", "properties": { "内容": "医心館訪問看護ステーション秋田【訪問看護】秋田県秋田市広面字大巻59番", "url2": "https://www.kaigokensaku.mhlw.go.jp/05/index.php?action_kouhyou_detail_004_kani=true&JigyosyoCd=0560190571-00&ServiceCd=130&Type=search" }, "geometry": { "type": "Point", "coordinates": [ 140.1449317, 39.7215127 ] } },
{ "type": "Feature", "properties": { "内容": "ＳＯＭＰＯケア　秋田仁井田　訪問看護【訪問看護】秋田県秋田市仁井田新田一丁目5番15号ＫＳビル2階　206号室", "url2": "https://www.kaigokensaku.mhlw.go.jp/05/index.php?action_kouhyou_detail_004_kani=true&JigyosyoCd=0560190670-00&ServiceCd=130&Type=search" }, "geometry": { "type": "Point", "coordinates": [ 140.1253371, 39.6820928 ] } },
{ "type": "Feature", "properties": { "内容": "訪問看護ステーション彩【訪問看護】秋田県秋田市飯島字飯島水尻501-1", "url2": "https://www.kaigokensaku.mhlw.go.jp/05/index.php?action_kouhyou_detail_004_kani=true&JigyosyoCd=0560190431-00&ServiceCd=130&Type=search" }, "geometry": { "type": "Point", "coordinates": [ 140.080580756541849, 39.776417148080206 ] } },
{ "type": "Feature", "properties": { "内容": "訪問看護ステーションデューン秋田南【訪問看護】秋田県秋田市御所野湯本5丁目1番12号ヨコウンエステート秋田B棟1階103号室", "url2": "https://www.kaigokensaku.mhlw.go.jp/05/index.php?action_kouhyou_detail_004_kani=true&JigyosyoCd=0560190738-00&ServiceCd=130&Type=search" }, "geometry": { "type": "Point", "coordinates": [ 140.170153699999986, 39.6520033 ] } },
{ "type": "Feature", "properties": { "内容": "訪問看護ステーションシェアハート【訪問看護】秋田県秋田市土崎港中央5丁目1-13コーポけやき", "url2": "https://www.kaigokensaku.mhlw.go.jp/05/index.php?action_kouhyou_detail_004_kani=true&JigyosyoCd=0560190597-00&ServiceCd=130&Type=search" }, "geometry": { "type": "Point", "coordinates": [ 140.071125779744904, 39.757674136790321 ] } },
{ "type": "Feature", "properties": { "内容": "訪問看護ステーション　デューン秋田【訪問看護】秋田県秋田市中通一丁目2番3号リバーサイド秋田ビル301号室", "url2": "https://www.kaigokensaku.mhlw.go.jp/05/index.php?action_kouhyou_detail_004_kani=true&JigyosyoCd=0560190365-00&ServiceCd=130&Type=search" }, "geometry": { "type": "Point", "coordinates": [ 140.119485100000048, 39.7165785 ] } },
{ "type": "Feature", "properties": { "内容": "訪問看護ステーション　赤とんぼ【訪問看護】秋田県秋田市仁井田本町６丁目２－８レジデンス関B棟　１０１号室", "url2": "https://www.kaigokensaku.mhlw.go.jp/05/index.php?action_kouhyou_detail_004_kani=true&JigyosyoCd=0560190480-00&ServiceCd=130&Type=search" }, "geometry": { "type": "Point", "coordinates": [ 140.13017149999996, 39.675316 ] } },
{ "type": "Feature", "properties": { "内容": "訪問看護ステーションこころ【訪問看護】秋田県秋田市八橋イサノ一丁目9番21号キャッスル伊藤D棟", "url2": "https://www.kaigokensaku.mhlw.go.jp/05/index.php?action_kouhyou_detail_004_kani=true&JigyosyoCd=0560190548-00&ServiceCd=130&Type=search" }, "geometry": { "type": "Point", "coordinates": [ 140.0943428, 39.7315006 ] } },
{ "type": "Feature", "properties": { "内容": "らいく訪問看護ステーション【訪問看護】秋田県秋田市新屋扇町12番49号", "url2": "https://www.kaigokensaku.mhlw.go.jp/05/index.php?action_kouhyou_detail_004_kani=true&JigyosyoCd=0560190639-00&ServiceCd=130&Type=search" }, "geometry": { "type": "Point", "coordinates": [ 140.084087399999987, 39.6778565 ] } },
{ "type": "Feature", "properties": { "内容": "秋田緑ヶ丘訪問看護ステーション【訪問看護】秋田県秋田市飯島字堀川84番地", "url2": "https://www.kaigokensaku.mhlw.go.jp/05/index.php?action_kouhyou_detail_004_kani=true&JigyosyoCd=0560190100-00&ServiceCd=130&Type=search" }, "geometry": { "type": "Point", "coordinates": [ 140.060780600000044, 39.7903046 ] } },
{ "type": "Feature", "properties": { "内容": "訪問看護ステーション城南【訪問看護】秋田県秋田市楢山城南新町21-12", "url2": "https://www.kaigokensaku.mhlw.go.jp/05/index.php?action_kouhyou_detail_004_kani=true&JigyosyoCd=0560190589-00&ServiceCd=130&Type=search" }, "geometry": { "type": "Point", "coordinates": [ 140.132294435581969, 39.697399185533605 ] } },
{ "type": "Feature", "properties": { "内容": "パリケアあきた訪問看護ステーション【訪問看護】秋田県秋田市川元開和町1-35東和ビル2階", "url2": "https://www.kaigokensaku.mhlw.go.jp/05/index.php?action_kouhyou_detail_004_kani=true&JigyosyoCd=0560190456-00&ServiceCd=130&Type=search" }, "geometry": { "type": "Point", "coordinates": [ 140.10398680000003, 39.7121337 ] } },
{ "type": "Feature", "properties": { "内容": "彩の風訪問看護ステーション【訪問看護】秋田県秋田市川尻上野町1-56", "url2": "https://www.kaigokensaku.mhlw.go.jp/05/index.php?action_kouhyou_detail_004_kani=true&JigyosyoCd=0560190415-00&ServiceCd=130&Type=search" }, "geometry": { "type": "Point", "coordinates": [ 140.100485850866249, 39.709928364556163 ] } },
{ "type": "Feature", "properties": { "内容": "訪問看護ステーション城東【訪問看護】秋田県秋田市東通明田13-19コーポ二ツ屋202号", "url2": "https://www.kaigokensaku.mhlw.go.jp/05/index.php?action_kouhyou_detail_004_kani=true&JigyosyoCd=0560190712-00&ServiceCd=130&Type=search" }, "geometry": { "type": "Point", "coordinates": [ 140.1370078, 39.708359 ] } },
{ "type": "Feature", "properties": { "内容": "ごてんまりZ訪問看護ステーション【訪問看護】秋田県秋田市御所野湯本２丁目1-2秋田物流センターA-2", "url2": "https://www.kaigokensaku.mhlw.go.jp/05/index.php?action_kouhyou_detail_004_kani=true&JigyosyoCd=0560190647-00&ServiceCd=130&Type=search" }, "geometry": { "type": "Point", "coordinates": [ 140.169772431213346, 39.658266143535393 ] } },
{ "type": "Feature", "properties": { "内容": "虹の街訪問看護ステーション【訪問看護】秋田県秋田市牛島西１丁目３番８号", "url2": "https://www.kaigokensaku.mhlw.go.jp/05/index.php?action_kouhyou_detail_004_kani=true&JigyosyoCd=0560190266-00&ServiceCd=130&Type=search" }, "geometry": { "type": "Point", "coordinates": [ 140.116372500000011, 39.6979555 ] } },
{ "type": "Feature", "properties": { "内容": "SOMPOケア　秋田旭川　訪問看護【訪問看護】秋田県秋田市旭川清澄町16番17号", "url2": "https://www.kaigokensaku.mhlw.go.jp/05/index.php?action_kouhyou_detail_004_kani=true&JigyosyoCd=0560190613-00&ServiceCd=130&Type=search" }, "geometry": { "type": "Point", "coordinates": [ 140.125726, 39.7417682 ] } },
{ "type": "Feature", "properties": { "内容": "訪問看護ステーションみなと町【訪問看護】秋田県秋田市土崎港東２丁目１４－７", "url2": "https://www.kaigokensaku.mhlw.go.jp/05/index.php?action_kouhyou_detail_004_kani=true&JigyosyoCd=0560190530-00&ServiceCd=130&Type=search" }, "geometry": { "type": "Point", "coordinates": [ 140.080448199999978, 39.7517396 ] } },
{ "type": "Feature", "properties": { "内容": "中通訪問看護ステーション【訪問看護】秋田県秋田市中通五丁目９番２２号", "url2": "https://www.kaigokensaku.mhlw.go.jp/05/index.php?action_kouhyou_detail_004_kani=true&JigyosyoCd=0560190050-00&ServiceCd=130&Type=search" }, "geometry": { "type": "Point", "coordinates": [ 140.1214963, 39.7124402 ] } },
{ "type": "Feature", "properties": { "内容": "訪問看護ステーションすみれ【訪問看護】秋田県秋田市保戸野千代田町13番41号アイリフォームビル２Ｂ", "url2": "https://www.kaigokensaku.mhlw.go.jp/05/index.php?action_kouhyou_detail_004_kani=true&JigyosyoCd=0560190399-00&ServiceCd=130&Type=search" }, "geometry": { "type": "Point", "coordinates": [ 140.111865699999953, 39.7279685 ] } },
{ "type": "Feature", "properties": { "内容": "御野場訪問看護ステーション【訪問看護】秋田県秋田市仁井田新田3丁目14番17号", "url2": "https://www.kaigokensaku.mhlw.go.jp/05/index.php?action_kouhyou_detail_004_kani=true&JigyosyoCd=0560190225-00&ServiceCd=130&Type=search" }, "geometry": { "type": "Point", "coordinates": [ 140.119426329210853, 39.679099734661591 ] } },
{ "type": "Feature", "properties": { "内容": "黒子ケアラボ【訪問看護】秋田県秋田市御野場3丁目1－10", "url2": "https://www.kaigokensaku.mhlw.go.jp/05/index.php?action_kouhyou_detail_004_kani=true&JigyosyoCd=0560190720-00&ServiceCd=130&Type=search" }, "geometry": { "type": "Point", "coordinates": [ 140.1335689, 39.6713165 ] } },
{ "type": "Feature", "properties": { "内容": "こまめ訪問看護ステーション【訪問看護】秋田県秋田市手形からみでん7-13コーポマツダ202号", "url2": "https://www.kaigokensaku.mhlw.go.jp/05/index.php?action_kouhyou_detail_004_kani=true&JigyosyoCd=0560190654-00&ServiceCd=130&Type=search" }, "geometry": { "type": "Point", "coordinates": [ 140.128322200000014, 39.7332069 ] } },
{ "type": "Feature", "properties": { "内容": "ケアコンプレックス高清水　訪問看護ステーション【訪問看護】秋田県秋田市土崎港南３丁目１３番４４号", "url2": "https://www.kaigokensaku.mhlw.go.jp/05/index.php?action_kouhyou_detail_004_kani=true&JigyosyoCd=0560190555-00&ServiceCd=130&Type=search" }, "geometry": { "type": "Point", "coordinates": [ 140.07935296759797, 39.747339994415846 ] } },
{ "type": "Feature", "properties": { "内容": "秋田市医師会訪問看護ステーション【訪問看護】秋田県秋田市八橋南一丁目８－５", "url2": "https://www.kaigokensaku.mhlw.go.jp/05/index.php?action_kouhyou_detail_004_kani=true&JigyosyoCd=0560190217-00&ServiceCd=130&Type=search" }, "geometry": { "type": "Point", "coordinates": [ 140.0922151, 39.720965600000014 ] } },
{ "type": "Feature", "properties": { "内容": "訪問看護ステーション心音【訪問看護】秋田県秋田市広面字樋ノ沖35-2", "url2": "https://www.kaigokensaku.mhlw.go.jp/05/index.php?action_kouhyou_detail_004_kani=true&JigyosyoCd=0560190472-00&ServiceCd=130&Type=search" }, "geometry": { "type": "Point", "coordinates": [ 140.149918599999978, 39.7151685 ] } },
{ "type": "Feature", "properties": { "内容": "訪問看護ステーション幸【訪問看護】秋田県秋田市中通6丁目4-27", "url2": "https://www.kaigokensaku.mhlw.go.jp/05/index.php?action_kouhyou_detail_004_kani=true&JigyosyoCd=0560190316-00&ServiceCd=130&Type=search" }, "geometry": { "type": "Point", "coordinates": [ 140.124537700000019, 39.7122208 ] } },
{ "type": "Feature", "properties": { "内容": "ななかまどの街訪問看護ステーション【訪問看護】秋田県秋田市御所野堤台1丁目6‐95", "url2": "https://www.kaigokensaku.mhlw.go.jp/05/index.php?action_kouhyou_detail_004_kani=true&JigyosyoCd=0560190340-00&ServiceCd=130&Type=search" }, "geometry": { "type": "Point", "coordinates": [ 140.167489247885129, 39.668969183937705 ] } },
{ "type": "Feature", "properties": { "内容": "厚生連あきた訪問看護ステーション【訪問看護】秋田県秋田市飯島西袋一丁目1-1秋田厚生医療センター内　8番窓口", "url2": "https://www.kaigokensaku.mhlw.go.jp/05/index.php?action_kouhyou_detail_004_kani=true&JigyosyoCd=0560190258-00&ServiceCd=130&Type=search" }, "geometry": { "type": "Point", "coordinates": [ 140.092940799999923, 39.76775210000001 ] } },
{ "type": "Feature", "properties": { "内容": "リンデンバウム訪問看護ステーション【訪問看護】秋田県秋田市泉菅野二丁目17番11号", "url2": "https://www.kaigokensaku.mhlw.go.jp/05/index.php?action_kouhyou_detail_004_kani=true&JigyosyoCd=0560190621-00&ServiceCd=130&Type=search" }, "geometry": { "type": "Point", "coordinates": [ 140.1151738, 39.7359645 ] } },
{ "type": "Feature", "properties": { "内容": "訪問看護いずみ【訪問看護】秋田県秋田市外旭川字三千刈114-1複合施設ケアプラザあきた中央", "url2": "https://www.kaigokensaku.mhlw.go.jp/05/index.php?action_kouhyou_detail_004_kani=true&JigyosyoCd=0560190118-00&ServiceCd=130&Type=search" }, "geometry": { "type": "Point", "coordinates": [ 140.100673802655024, 39.739362095486655 ] } },
{ "type": "Feature", "properties": { "内容": "訪問看護ステーションあきた【訪問看護】秋田県秋田市保戸野千代田町16－16", "url2": "https://www.kaigokensaku.mhlw.go.jp/05/index.php?action_kouhyou_detail_004_kani=true&JigyosyoCd=0560190209-00&ServiceCd=130&Type=search" }, "geometry": { "type": "Point", "coordinates": [ 140.107585500000027, 39.7277989 ] } },
{ "type": "Feature", "properties": { "内容": "ネコロボ訪問看護秋田店【訪問看護】秋田県秋田市高陽青柳町3-40タウニィ高陽201号", "url2": "https://www.kaigokensaku.mhlw.go.jp/05/index.php?action_kouhyou_detail_004_kani=true&JigyosyoCd=0560190761-00&ServiceCd=130&Type=search" }, "geometry": { "type": "Point", "coordinates": [ 140.102691600000014, 39.72325080000001 ] } },
{ "type": "Feature", "properties": { "内容": "外旭川訪問看護ステーション【訪問看護】秋田県秋田市外旭川字中谷地４６", "url2": "https://www.kaigokensaku.mhlw.go.jp/05/index.php?action_kouhyou_detail_004_kani=true&JigyosyoCd=0560190241-00&ServiceCd=130&Type=search" }, "geometry": { "type": "Point", "coordinates": [ 140.099290500000052, 39.7555204 ] } },
{ "type": "Feature", "properties": { "内容": "訪問看護かえりえ秋田【訪問看護】秋田県秋田市川元むつみ町7-13", "url2": "https://www.kaigokensaku.mhlw.go.jp/05/index.php?action_kouhyou_detail_004_kani=true&JigyosyoCd=0560190696-00&ServiceCd=130&Type=search" }, "geometry": { "type": "Point", "coordinates": [ 140.1064883, 39.708543 ] } },
{ "type": "Feature", "properties": { "内容": "虹の街訪問看護ステーションいずみ【訪問看護】秋田県秋田市泉中央4丁目2-8T.Kビル1F", "url2": "https://www.kaigokensaku.mhlw.go.jp/05/index.php?action_kouhyou_detail_004_kani=true&JigyosyoCd=0560190787-00&ServiceCd=130&Type=search" }, "geometry": { "type": "Point", "coordinates": [ 140.1113274, 39.73435 ] } },
{ "type": "Feature", "properties": { "内容": "訪問看護ステーションおんぷ【訪問看護】秋田県秋田市飯島新町３丁目12-6", "url2": "https://www.kaigokensaku.mhlw.go.jp/05/index.php?action_kouhyou_detail_004_kani=true&JigyosyoCd=0560190688-00&ServiceCd=130&Type=search" }, "geometry": { "type": "Point", "coordinates": [ 140.0862635, 39.770676100000017 ] } },
{ "type": "Feature", "properties": { "内容": "訪問看護ステーションぴーす【訪問看護】秋田県秋田市桜２丁目２６—１９桜テナントB号室", "url2": "https://www.kaigokensaku.mhlw.go.jp/05/index.php?action_kouhyou_detail_004_kani=true&JigyosyoCd=0560190704-00&ServiceCd=130&Type=search" }, "geometry": { "type": "Point", "coordinates": [ 140.149269466270454, 39.705454495261279 ] } },
{ "type": "Feature", "properties": { "内容": "ツクイ秋田訪問看護ステーション【訪問看護】秋田県秋田市中通4丁目1-2秋田スクエア3F-A号室", "url2": "https://www.kaigokensaku.mhlw.go.jp/05/index.php?action_kouhyou_detail_004_kani=true&JigyosyoCd=0560190779-00&ServiceCd=130&Type=search" }, "geometry": { "type": "Point", "coordinates": [ 140.1223856, 39.7159764 ] } },
{ "type": "Feature", "properties": { "内容": "虹の街訪問看護ステーションのしろ【訪問看護】秋田県能代市河戸川字下大須賀40番", "url2": "https://www.kaigokensaku.mhlw.go.jp/05/index.php?action_kouhyou_detail_004_kani=true&JigyosyoCd=0560290611-00&ServiceCd=130&Type=search" }, "geometry": { "type": "Point", "coordinates": [ 140.021977725933851, 40.183633564395798 ] } },
{ "type": "Feature", "properties": { "内容": "訪問看護ステーション彩べえ【訪問看護】秋田県能代市落合字上釜谷地１８５", "url2": "https://www.kaigokensaku.mhlw.go.jp/05/index.php?action_kouhyou_detail_004_kani=true&JigyosyoCd=0560290181-00&ServiceCd=130&Type=search" }, "geometry": { "type": "Point", "coordinates": [ 140.021573799999942, 40.2280043 ] } },
{ "type": "Feature", "properties": { "内容": "独立行政法人地域医療機能推進機構秋田病院附属訪問看護ステーション【訪問看護】秋田県能代市緑町５番２２号", "url2": "https://www.kaigokensaku.mhlw.go.jp/05/index.php?action_kouhyou_detail_004_kani=true&JigyosyoCd=0560290215-00&ServiceCd=130&Type=search" }, "geometry": { "type": "Point", "coordinates": [ 140.035001400000027, 40.1981304 ] } },
{ "type": "Feature", "properties": { "内容": "訪問看護リハビリステーションわかば【訪問看護】秋田県能代市河戸川字下大須賀141番地1", "url2": "https://www.kaigokensaku.mhlw.go.jp/05/index.php?action_kouhyou_detail_004_kani=true&JigyosyoCd=0560290207-00&ServiceCd=130&Type=search" }, "geometry": { "type": "Point", "coordinates": [ 140.020877576539078, 40.181829559844623 ] } },
{ "type": "Feature", "properties": { "内容": "けやき訪問看護ステーション【訪問看護】秋田県能代市長崎２５番地５号コーポ　キモト102号室", "url2": "https://www.kaigokensaku.mhlw.go.jp/05/index.php?action_kouhyou_detail_004_kani=true&JigyosyoCd=0560290512-00&ServiceCd=130&Type=search" }, "geometry": { "type": "Point", "coordinates": [ 140.0236089, 40.1873227 ] } },
{ "type": "Feature", "properties": { "内容": "うるおい訪問ナースセンター【訪問看護】秋田県能代市落合字中大野台121番地1", "url2": "https://www.kaigokensaku.mhlw.go.jp/05/index.php?action_kouhyou_detail_004_kani=true&JigyosyoCd=0560290678-00&ServiceCd=130&Type=search" }, "geometry": { "type": "Point", "coordinates": [ 140.039421800000014, 40.2290827 ] } },
{ "type": "Feature", "properties": { "内容": "能代市山本郡医師会立能代山本訪問看護ステーション【訪問看護】秋田県能代市檜山字新田沢105", "url2": "https://www.kaigokensaku.mhlw.go.jp/05/index.php?action_kouhyou_detail_004_kani=true&JigyosyoCd=0560290173-00&ServiceCd=130&Type=search" }, "geometry": { "type": "Point", "coordinates": [ 140.07170450000001, 40.1781304 ] } },
{ "type": "Feature", "properties": { "内容": "雄物川クリニック【訪問看護】秋田県横手市雄物川町今宿字棒突44-1", "url2": "https://www.kaigokensaku.mhlw.go.jp/05/index.php?action_kouhyou_detail_004_kani=true&JigyosyoCd=0510311079-00&ServiceCd=130&Type=search" }, "geometry": { "type": "Point", "coordinates": [ 140.4310398, 39.2919305 ] } },
{ "type": "Feature", "properties": { "内容": "市立大森病院【訪問看護】秋田県横手市大森町字菅生田245番地205", "url2": "https://www.kaigokensaku.mhlw.go.jp/05/index.php?action_kouhyou_detail_004_kani=true&JigyosyoCd=0510311343-00&ServiceCd=130&Type=search" }, "geometry": { "type": "Point", "coordinates": [ 140.416392299999984, 39.3511003 ] } },
{ "type": "Feature", "properties": { "内容": "Ｃｃｏｌｏｒのごてんまり【訪問看護】秋田県横手市中央町6-231F", "url2": "https://www.kaigokensaku.mhlw.go.jp/05/index.php?action_kouhyou_detail_004_kani=true&JigyosyoCd=0560390551-00&ServiceCd=130&Type=search" }, "geometry": { "type": "Point", "coordinates": [ 140.566410800000028, 39.3143215 ] } },
{ "type": "Feature", "properties": { "内容": "ユアナス訪問看護ステーション【訪問看護】秋田県横手市安田字向田202ジニアル・ビューロー1-G号室", "url2": "https://www.kaigokensaku.mhlw.go.jp/05/index.php?action_kouhyou_detail_004_kani=true&JigyosyoCd=0560390569-00&ServiceCd=130&Type=search" }, "geometry": { "type": "Point", "coordinates": [ 140.551637852778583, 39.298497665915086 ] } },
{ "type": "Feature", "properties": { "内容": "訪問看護事業所LiB【訪問看護】秋田県横手市平鹿町浅舞字千刈田166番地ナーシングホームLiBひらか", "url2": "https://www.kaigokensaku.mhlw.go.jp/05/index.php?action_kouhyou_detail_004_kani=true&JigyosyoCd=0560390544-00&ServiceCd=130&Type=search" }, "geometry": { "type": "Point", "coordinates": [ 140.482015776512924, 39.265426890185047 ] } },
{ "type": "Feature", "properties": { "内容": "株式会社福分　コンパス訪問看護横手【訪問看護】秋田県横手市赤坂字大沼下90", "url2": "https://www.kaigokensaku.mhlw.go.jp/05/index.php?action_kouhyou_detail_004_kani=true&JigyosyoCd=0560390528-00&ServiceCd=130&Type=search" }, "geometry": { "type": "Point", "coordinates": [ 140.540374691492701, 39.302193789477137 ] } },
{ "type": "Feature", "properties": { "内容": "市立横手病院【訪問看護】秋田県横手市根岸町5番31号", "url2": "https://www.kaigokensaku.mhlw.go.jp/05/index.php?action_kouhyou_detail_004_kani=true&JigyosyoCd=0510311277-00&ServiceCd=130&Type=search" }, "geometry": { "type": "Point", "coordinates": [ 140.569203600000037, 39.3184421 ] } },
{ "type": "Feature", "properties": { "内容": "訪問看護リハビリステーション　あじさい【訪問看護】秋田県横手市安田字向田202番地ジニアル・ビューロー1ーJ", "url2": "https://www.kaigokensaku.mhlw.go.jp/05/index.php?action_kouhyou_detail_004_kani=true&JigyosyoCd=0560390197-00&ServiceCd=130&Type=search" }, "geometry": { "type": "Point", "coordinates": [ 140.551661378172412, 39.298508839154039 ] } },
{ "type": "Feature", "properties": { "内容": "訪問看護ステーション花むつみ【訪問看護】秋田県横手市十文字町睦合字川井川47番地", "url2": "https://www.kaigokensaku.mhlw.go.jp/05/index.php?action_kouhyou_detail_004_kani=true&JigyosyoCd=0560390536-00&ServiceCd=130&Type=search" }, "geometry": { "type": "Point", "coordinates": [ 140.5203478, 39.2328007 ] } },
{ "type": "Feature", "properties": { "内容": "ＪＡ秋田厚生連平鹿訪問看護ステーション【訪問看護】秋田県横手市前郷字八ツ口３番１", "url2": "https://www.kaigokensaku.mhlw.go.jp/05/index.php?action_kouhyou_detail_004_kani=true&JigyosyoCd=0560390155-00&ServiceCd=130&Type=search" }, "geometry": { "type": "Point", "coordinates": [ 140.550890100000061, 39.3112704 ] } },
{ "type": "Feature", "properties": { "内容": "株式会社　虹の街　訪問看護ステーション横手【訪問看護】秋田県横手市三本柳字寺田135番3号", "url2": "https://www.kaigokensaku.mhlw.go.jp/05/index.php?action_kouhyou_detail_004_kani=true&JigyosyoCd=0560390213-00&ServiceCd=130&Type=search" }, "geometry": { "type": "Point", "coordinates": [ 140.5461732, 39.3190581 ] } },
{ "type": "Feature", "properties": { "内容": "訪問看護ステーションくらす【訪問看護】秋田県大館市根下戸新町1番地15home暮らす", "url2": "https://www.kaigokensaku.mhlw.go.jp/05/index.php?action_kouhyou_detail_004_kani=true&JigyosyoCd=0560490666-00&ServiceCd=130&Type=search" }, "geometry": { "type": "Point", "coordinates": [ 140.538235, 40.272401 ] } },
{ "type": "Feature", "properties": { "内容": "訪問看護ステーション一心堂【訪問看護】秋田県大館市赤館町146-4", "url2": "https://www.kaigokensaku.mhlw.go.jp/05/index.php?action_kouhyou_detail_004_kani=true&JigyosyoCd=0560490575-00&ServiceCd=130&Type=search" }, "geometry": { "type": "Point", "coordinates": [ 140.573197016394062, 40.27047945325301 ] } },
{ "type": "Feature", "properties": { "内容": "大館市立総合病院訪問看護ステーション【訪問看護】秋田県大館市豊町3番1号", "url2": "https://www.kaigokensaku.mhlw.go.jp/05/index.php?action_kouhyou_detail_004_kani=true&JigyosyoCd=0560490625-00&ServiceCd=130&Type=search" }, "geometry": { "type": "Point", "coordinates": [ 140.554827100000011, 40.2730492 ] } },
{ "type": "Feature", "properties": { "内容": "訪問看護ステーションみらい【訪問看護】秋田県大館市字観音堂539番地1", "url2": "https://www.kaigokensaku.mhlw.go.jp/05/index.php?action_kouhyou_detail_004_kani=true&JigyosyoCd=0560490609-00&ServiceCd=130&Type=search" }, "geometry": { "type": "Point", "coordinates": [ 140.5775865, 40.279532200000041 ] } },
{ "type": "Feature", "properties": { "内容": "虹の街訪問看護ステーション　大館【訪問看護】大館市御成町2丁目18番31", "url2": "https://www.kaigokensaku.mhlw.go.jp/05/index.php?action_kouhyou_detail_004_kani=true&JigyosyoCd=0560490120-00&ServiceCd=130&Type=search" }, "geometry": { "type": "Point", "coordinates": [ 140.554224699999963, 40.279662100000017 ] } },
{ "type": "Feature", "properties": { "内容": "大館訪問看護ステーション【訪問看護】秋田県大館市片山町３丁目１４番１４号大館介護センター", "url2": "https://www.kaigokensaku.mhlw.go.jp/05/index.php?action_kouhyou_detail_004_kani=true&JigyosyoCd=0560490047-00&ServiceCd=130&Type=search" }, "geometry": { "type": "Point", "coordinates": [ 140.537348699999939, 40.2755593 ] } },
{ "type": "Feature", "properties": { "内容": "大館市立扇田病院【訪問看護】秋田県大館市比内町扇田字本道端７番地１", "url2": "https://www.kaigokensaku.mhlw.go.jp/05/index.php?action_kouhyou_detail_004_kani=true&JigyosyoCd=0510411119-00&ServiceCd=130&Type=search" }, "geometry": { "type": "Point", "coordinates": [ 140.59698149999997, 40.2245311 ] } },
{ "type": "Feature", "properties": { "内容": "すずらん訪問看護ステーション【訪問看護】秋田県大館市南神明町16-18サービス付き高齢者向け住宅たものき南神明館１階", "url2": "https://www.kaigokensaku.mhlw.go.jp/05/index.php?action_kouhyou_detail_004_kani=true&JigyosyoCd=0560490500-00&ServiceCd=130&Type=search" }, "geometry": { "type": "Point", "coordinates": [ 140.550700884655726, 40.263557104387267 ] } },
{ "type": "Feature", "properties": { "内容": "訪問看護リハビリステーションまごころ【訪問看護】秋田県大館市釈迦内字稲荷山下181-1", "url2": "https://www.kaigokensaku.mhlw.go.jp/05/index.php?action_kouhyou_detail_004_kani=true&JigyosyoCd=0560490112-00&ServiceCd=130&Type=search" }, "geometry": { "type": "Point", "coordinates": [ 140.562059810152817, 40.297758963876994 ] } },
{ "type": "Feature", "properties": { "内容": "男鹿みなと市民病院訪問看護センター【訪問看護】秋田県男鹿市船川港船川字海岸通り1号8番地6", "url2": "https://www.kaigokensaku.mhlw.go.jp/05/index.php?action_kouhyou_detail_004_kani=true&JigyosyoCd=0510610520-00&ServiceCd=130&Type=search" }, "geometry": { "type": "Point", "coordinates": [ 139.8529307, 39.8824903 ] } },
{ "type": "Feature", "properties": { "内容": "訪問看護おんぷ男鹿【訪問看護】秋田県男鹿市船越那場掛２３５−２", "url2": "https://www.kaigokensaku.mhlw.go.jp/05/index.php?action_kouhyou_detail_004_kani=true&JigyosyoCd=0560690034-00&ServiceCd=130&Type=search" }, "geometry": { "type": "Point", "coordinates": [ 139.948692599999987, 39.9044564 ] } },
{ "type": "Feature", "properties": { "内容": "訪問看護ステーションアイケアプラス【訪問看護】秋田県湯沢市表町一丁目1-29", "url2": "https://www.kaigokensaku.mhlw.go.jp/05/index.php?action_kouhyou_detail_004_kani=true&JigyosyoCd=0560790032-00&ServiceCd=130&Type=search" }, "geometry": { "type": "Point", "coordinates": [ 140.489479681441111, 39.16362479189133 ] } },
{ "type": "Feature", "properties": { "内容": "厚生連雄勝訪問看護ステーション【訪問看護】秋田県湯沢市山田字勇ケ岡25", "url2": "https://www.kaigokensaku.mhlw.go.jp/05/index.php?action_kouhyou_detail_004_kani=true&JigyosyoCd=0560790016-00&ServiceCd=130&Type=search" }, "geometry": { "type": "Point", "coordinates": [ 140.454835900000035, 39.1452329 ] } },
{ "type": "Feature", "properties": { "内容": "訪問看護ステーションうらら【訪問看護】秋田県湯沢市両神130-6", "url2": "https://www.kaigokensaku.mhlw.go.jp/05/index.php?action_kouhyou_detail_004_kani=true&JigyosyoCd=0560790024-00&ServiceCd=130&Type=search" }, "geometry": { "type": "Point", "coordinates": [ 140.476350599999932, 39.1720526 ] } },
{ "type": "Feature", "properties": { "内容": "秋田県厚生連　鹿角訪問看護ステーション【訪問看護】秋田県鹿角市花輪字向畑18番地", "url2": "https://www.kaigokensaku.mhlw.go.jp/05/index.php?action_kouhyou_detail_004_kani=true&JigyosyoCd=0560990186-00&ServiceCd=130&Type=search" }, "geometry": { "type": "Point", "coordinates": [ 140.785322299999962, 40.2190023 ] } },
{ "type": "Feature", "properties": { "内容": "看護小規模多機能わかばイースト【訪問看護】秋田県由利本荘市荒町字真城42‐2", "url2": "https://www.kaigokensaku.mhlw.go.jp/05/index.php?action_kouhyou_detail_004_kani=true&JigyosyoCd=0560590630-00&ServiceCd=130&Type=search" }, "geometry": { "type": "Point", "coordinates": [ 140.0792997, 39.3556536 ] } },
{ "type": "Feature", "properties": { "内容": "医療法人佐藤病院　訪問看護【訪問看護】秋田県由利本荘市小人町１１７番地３", "url2": "https://www.kaigokensaku.mhlw.go.jp/05/index.php?action_kouhyou_detail_004_kani=true&JigyosyoCd=0510510688-00&ServiceCd=130&Type=search" }, "geometry": { "type": "Point", "coordinates": [ 140.046968600000014, 39.380238 ] } },
{ "type": "Feature", "properties": { "内容": "ごてんまり訪問看護ステーション【訪問看護】秋田県由利本荘市岩城内道川築防潟５５−６", "url2": "https://www.kaigokensaku.mhlw.go.jp/05/index.php?action_kouhyou_detail_004_kani=true&JigyosyoCd=0560590499-00&ServiceCd=130&Type=search" }, "geometry": { "type": "Point", "coordinates": [ 140.056502127436943, 39.561383578731878 ] } },
{ "type": "Feature", "properties": { "内容": "医師会訪問看護ステーション【訪問看護】秋田県由利本荘市水林456番地4", "url2": "https://www.kaigokensaku.mhlw.go.jp/05/index.php?action_kouhyou_detail_004_kani=true&JigyosyoCd=0560590580-00&ServiceCd=130&Type=search" }, "geometry": { "type": "Point", "coordinates": [ 140.025583228836098, 39.377869500061529 ] } },
{ "type": "Feature", "properties": { "内容": "第一病院訪問看護ステーション【訪問看護】秋田県由利本荘市岩渕下110本荘第一病院　4階", "url2": "https://www.kaigokensaku.mhlw.go.jp/05/index.php?action_kouhyou_detail_004_kani=true&JigyosyoCd=0560590028-00&ServiceCd=130&Type=search" }, "geometry": { "type": "Point", "coordinates": [ 140.051472161652214, 39.392749318640526 ] } },
{ "type": "Feature", "properties": { "内容": "ほのぼの看護ステーション【訪問看護】秋田県由利本荘市東梵天95-2", "url2": "https://www.kaigokensaku.mhlw.go.jp/05/index.php?action_kouhyou_detail_004_kani=true&JigyosyoCd=0560590218-00&ServiceCd=130&Type=search" }, "geometry": { "type": "Point", "coordinates": [ 140.062123, 39.382974300000015 ] } },
{ "type": "Feature", "properties": { "内容": "社会医療法人　正和会　南秋田訪問看護ステーション【訪問看護】秋田県潟上市昭和大久保字街道下92-1", "url2": "https://www.kaigokensaku.mhlw.go.jp/05/index.php?action_kouhyou_detail_004_kani=true&JigyosyoCd=0562390039-00&ServiceCd=130&Type=search" }, "geometry": { "type": "Point", "coordinates": [ 140.060879600000021, 39.8710814 ] } },
{ "type": "Feature", "properties": { "内容": "訪問看護ステーション　すてっぷ【訪問看護】秋田県潟上市天王字追分西５０－４", "url2": "https://www.kaigokensaku.mhlw.go.jp/05/index.php?action_kouhyou_detail_004_kani=true&JigyosyoCd=0561090697-00&ServiceCd=130&Type=search" }, "geometry": { "type": "Point", "coordinates": [ 140.037362, 39.821851 ] } },
{ "type": "Feature", "properties": { "内容": "天王訪問看護ステーション【訪問看護】秋田県潟上市天王字北野３０７－５５", "url2": "https://www.kaigokensaku.mhlw.go.jp/05/index.php?action_kouhyou_detail_004_kani=true&JigyosyoCd=0562390047-00&ServiceCd=130&Type=search" }, "geometry": { "type": "Point", "coordinates": [ 140.025934900000038, 39.8438172 ] } },
{ "type": "Feature", "properties": { "内容": "訪問看護事業所おおまがり【訪問看護】秋田県大仙市大曲船場町1丁目13番10-2号ケイエムスリーパクトＢ103", "url2": "https://www.kaigokensaku.mhlw.go.jp/05/index.php?action_kouhyou_detail_004_kani=true&JigyosyoCd=0560890550-00&ServiceCd=130&Type=search" }, "geometry": { "type": "Point", "coordinates": [ 140.46923670000001, 39.4605043 ] } },
{ "type": "Feature", "properties": { "内容": "オオマガリライフ訪問看護ステーション【訪問看護】秋田県大仙市大曲丸の内町６番２４号", "url2": "https://www.kaigokensaku.mhlw.go.jp/05/index.php?action_kouhyou_detail_004_kani=true&JigyosyoCd=0560890659-00&ServiceCd=130&Type=search" }, "geometry": { "type": "Point", "coordinates": [ 140.476936599999988, 39.4623617 ] } },
{ "type": "Feature", "properties": { "内容": "厚生連仙北訪問看護ステーション【訪問看護】秋田県大仙市大曲通町8番65号大曲厚生医療センター　1階", "url2": "https://www.kaigokensaku.mhlw.go.jp/05/index.php?action_kouhyou_detail_004_kani=true&JigyosyoCd=0560890113-00&ServiceCd=130&Type=search" }, "geometry": { "type": "Point", "coordinates": [ 140.476308654353346, 39.465415755133911 ] } },
{ "type": "Feature", "properties": { "内容": "虹の街訪問看護ステーション大曲【訪問看護】秋田県大仙市大花町3番60-6", "url2": "https://www.kaigokensaku.mhlw.go.jp/05/index.php?action_kouhyou_detail_004_kani=true&JigyosyoCd=0560890543-00&ServiceCd=130&Type=search" }, "geometry": { "type": "Point", "coordinates": [ 140.484886670937271, 39.46418285271843 ] } },
{ "type": "Feature", "properties": { "内容": "大曲訪問看護ステーション【訪問看護】秋田県大仙市大曲上栄町４－３大曲中通病院　在宅総合ケアセンター内", "url2": "https://www.kaigokensaku.mhlw.go.jp/05/index.php?action_kouhyou_detail_004_kani=true&JigyosyoCd=0560890089-00&ServiceCd=130&Type=search" }, "geometry": { "type": "Point", "coordinates": [ 140.475857935581985, 39.451404311050176 ] } },
{ "type": "Feature", "properties": { "内容": "厚生連北秋訪問看護ステーション【訪問看護】秋田県北秋田市下杉字上清水沢16番29号", "url2": "https://www.kaigokensaku.mhlw.go.jp/05/index.php?action_kouhyou_detail_004_kani=true&JigyosyoCd=0562190140-00&ServiceCd=130&Type=search" }, "geometry": { "type": "Point", "coordinates": [ 140.356177480950919, 40.1670630476778 ] } },
{ "type": "Feature", "properties": { "内容": "訪問看護ステーション実【訪問看護】秋田県北秋田市下杉字上清水沢74番地1-2", "url2": "https://www.kaigokensaku.mhlw.go.jp/05/index.php?action_kouhyou_detail_004_kani=true&JigyosyoCd=0561190067-00&ServiceCd=130&Type=search" }, "geometry": { "type": "Point", "coordinates": [ 140.354087299999946, 40.1695137 ] } },
{ "type": "Feature", "properties": { "内容": "北秋田市社協訪問看護ステーション【訪問看護】秋田県北秋田市米内沢字寺の上85番地", "url2": "https://www.kaigokensaku.mhlw.go.jp/05/index.php?action_kouhyou_detail_004_kani=true&JigyosyoCd=0561190059-00&ServiceCd=130&Type=search" }, "geometry": { "type": "Point", "coordinates": [ 140.366237264345017, 40.117879955173201 ] } },
{ "type": "Feature", "properties": { "内容": "しあわせ訪問看護ステーション【訪問看護】秋田県にかほ市象潟町字４丁目塩越201番地", "url2": "https://www.kaigokensaku.mhlw.go.jp/05/index.php?action_kouhyou_detail_004_kani=true&JigyosyoCd=0561390568-00&ServiceCd=130&Type=search" }, "geometry": { "type": "Point", "coordinates": [ 139.898568399999988, 39.2069982 ] } },
{ "type": "Feature", "properties": { "内容": "訪問看護ステーションハルモニア・にかほ【訪問看護】秋田県にかほ市院内字嶋田４２番地１", "url2": "https://www.kaigokensaku.mhlw.go.jp/05/index.php?action_kouhyou_detail_004_kani=true&JigyosyoCd=0561390014-00&ServiceCd=130&Type=search" }, "geometry": { "type": "Point", "coordinates": [ 139.963853381506397, 39.282227112407568 ] } },
{ "type": "Feature", "properties": { "内容": "市立田沢湖病院【訪問看護】秋田県仙北市田沢湖生保内字浮世坂１７番地１", "url2": "https://www.kaigokensaku.mhlw.go.jp/05/index.php?action_kouhyou_detail_004_kani=true&JigyosyoCd=0511210189-00&ServiceCd=130&Type=search" }, "geometry": { "type": "Point", "coordinates": [ 140.7214444, 39.6986191 ] } },
{ "type": "Feature", "properties": { "内容": "訪問看護ステーション　かくのだて【訪問看護】秋田県仙北市角館町勝楽123-1", "url2": "https://www.kaigokensaku.mhlw.go.jp/05/index.php?action_kouhyou_detail_004_kani=true&JigyosyoCd=0561290016-00&ServiceCd=130&Type=search" }, "geometry": { "type": "Point", "coordinates": [ 140.565366, 39.5866782 ] } },
{ "type": "Feature", "properties": { "内容": "五城目訪問看護ステーション【訪問看護】秋田県南秋田郡五城目町西磯ノ目一丁目6－10", "url2": "https://www.kaigokensaku.mhlw.go.jp/05/index.php?action_kouhyou_detail_004_kani=true&JigyosyoCd=0562390070-00&ServiceCd=130&Type=search" }, "geometry": { "type": "Point", "coordinates": [ 140.109581299999945, 39.9436891 ] } },
{ "type": "Feature", "properties": { "内容": "秋田県厚生連　湖東訪問看護ステーション【訪問看護】秋田県南秋田郡八郎潟町川崎字貝保98番1", "url2": "https://www.kaigokensaku.mhlw.go.jp/05/index.php?action_kouhyou_detail_004_kani=true&JigyosyoCd=0562390062-00&ServiceCd=130&Type=search" }, "geometry": { "type": "Point", "coordinates": [ 140.10270260594325, 39.945617455691107 ] } },
{ "type": "Feature", "properties": { "内容": "訪問看護ステーション　ひだまりの郷【訪問看護】秋田県仙北郡美郷町野中字宮崎58番地1", "url2": "https://www.kaigokensaku.mhlw.go.jp/05/index.php?action_kouhyou_detail_004_kani=true&JigyosyoCd=0562690057-00&ServiceCd=130&Type=search" }, "geometry": { "type": "Point", "coordinates": [ 140.558175931582582, 39.418283706684896 ] } },
{ "type": "Feature", "properties": { "内容": "ごてんまりα訪問看護ステーション【訪問看護】秋田県仙北郡美郷町六郷字古館南6サテライト六郷", "url2": "https://www.kaigokensaku.mhlw.go.jp/05/index.php?action_kouhyou_detail_004_kani=true&JigyosyoCd=0563990597-00&ServiceCd=130&Type=search" }, "geometry": { "type": "Point", "coordinates": [ 140.534015900000014, 39.4220319 ] } },
{ "type": "Feature", "properties": { "内容": "にこにこごてん訪問看護ステーション【訪問看護】秋田県雄勝郡羽後町西馬音内字中野32-3サンフラワー憩", "url2": "https://www.kaigokensaku.mhlw.go.jp/05/index.php?action_kouhyou_detail_004_kani=true&JigyosyoCd=0562890046-00&ServiceCd=130&Type=search" }, "geometry": { "type": "Point", "coordinates": [ 140.4115057, 39.1981377 ] } }
]
}
