{
"type": "FeatureCollection",
"name": "geo_05_認知症対応型通所介護",
"crs": { "type": "name", "properties": { "name": "urn:ogc:def:crs:OGC:1.3:CRS84" } },
"features": [
{ "type": "Feature", "properties": { "内容": "認知症対応型デイサービスひなた【認知症対応型通所介護】秋田県秋田市土崎港中央四丁目4-16", "url": "https://www.kaigokensaku.mhlw.go.jp/05/index.php?action_kouhyou_detail_004_kani=true&JigyosyoCd=0590100814-00&ServiceCd=720&Type=search", "url2": "https://www.reiwafukushikai.com/index.html" }, "geometry": { "type": "Point", "coordinates": [ 140.071779200000037, 39.752608800000012 ] } },
{ "type": "Feature", "properties": { "内容": "大学病院前認知症デイサービス【認知症対応型通所介護】秋田市広面字二階堤２０－１", "url": "https://www.kaigokensaku.mhlw.go.jp/05/index.php?action_kouhyou_detail_004_kani=true&JigyosyoCd=0590100509-00&ServiceCd=720&Type=search", "url2": "http://www.fukinotou-akita.jp" }, "geometry": { "type": "Point", "coordinates": [ 140.146567900000036, 39.7321024 ] } },
{ "type": "Feature", "properties": { "内容": "特定非営利活動法人　結いの里【認知症対応型通所介護】能代市二ツ井町種字萩ノ台178", "url": "https://www.kaigokensaku.mhlw.go.jp/05/index.php?action_kouhyou_detail_004_kani=true&JigyosyoCd=0572208668-00&ServiceCd=720&Type=search", "url2": "http://n-yuinosato.com/" }, "geometry": { "type": "Point", "coordinates": [ 140.223640400000022, 40.2202075 ] } },
{ "type": "Feature", "properties": { "内容": "菜康苑デイサービス南館【認知症対応型通所介護】秋田県横手市平鹿町醍醐字道中５６－２", "url": "https://www.kaigokensaku.mhlw.go.jp/05/index.php?action_kouhyou_detail_004_kani=true&JigyosyoCd=0590300117-00&ServiceCd=720&Type=search", "url2": "http://gl-saikouen.jp/" }, "geometry": { "type": "Point", "coordinates": [ 140.5424246, 39.2491022 ] } },
{ "type": "Feature", "properties": { "内容": "木立の舎【認知症対応型通所介護】秋田県横手市赤坂字仁坂105番の2", "url": "https://www.kaigokensaku.mhlw.go.jp/05/index.php?action_kouhyou_detail_004_kani=true&JigyosyoCd=0590300224-00&ServiceCd=720&Type=search", "url2": "http://sowakai.jp/" }, "geometry": { "type": "Point", "coordinates": [ 140.5332118, 39.2975495 ] } },
{ "type": "Feature", "properties": { "内容": "デイサービス慈照庵【認知症対応型通所介護】秋田県横手市朝倉町5-19", "url": "https://www.kaigokensaku.mhlw.go.jp/05/index.php?action_kouhyou_detail_004_kani=true&JigyosyoCd=0590300364-00&ServiceCd=720&Type=search", "url2": null }, "geometry": { "type": "Point", "coordinates": [ 140.560036599999989, 39.3231988 ] } },
{ "type": "Feature", "properties": { "内容": "デイサービス　縁ゆくり【認知症対応型通所介護】秋田県大館市字桜町35", "url": "https://www.kaigokensaku.mhlw.go.jp/05/index.php?action_kouhyou_detail_004_kani=true&JigyosyoCd=0590400248-00&ServiceCd=720&Type=search", "url2": "https://nursing-agency-1723.business.site/?m=true" }, "geometry": { "type": "Point", "coordinates": [ 140.563704599999937, 40.2689336 ] } },
{ "type": "Feature", "properties": { "内容": "デイサービスゆいまーるの家まり【認知症対応型通所介護】秋田県大館市東台2丁目6-33", "url": "https://www.kaigokensaku.mhlw.go.jp/05/index.php?action_kouhyou_detail_004_kani=true&JigyosyoCd=0590400370-00&ServiceCd=720&Type=search", "url2": "https://www.mari-etp.com" }, "geometry": { "type": "Point", "coordinates": [ 140.575811263483985, 40.267895908599726 ] } },
{ "type": "Feature", "properties": { "内容": "でいさーびすおたっしゃくらぶ【認知症対応型通所介護】秋田県男鹿市北浦北浦表町字表町52-2", "url": "https://www.kaigokensaku.mhlw.go.jp/05/index.php?action_kouhyou_detail_004_kani=true&JigyosyoCd=0590600136-00&ServiceCd=720&Type=search", "url2": null }, "geometry": { "type": "Point", "coordinates": [ 139.779675700000013, 39.9664175 ] } },
{ "type": "Feature", "properties": { "内容": "グループホームかつら【認知症対応型通所介護】秋田県湯沢市川連町字大舘屋布前124", "url": "https://www.kaigokensaku.mhlw.go.jp/05/index.php?action_kouhyou_detail_004_kani=true&JigyosyoCd=0570714295-00&ServiceCd=720&Type=search", "url2": "https://yuzawa-katsura.co.jp" }, "geometry": { "type": "Point", "coordinates": [ 140.563648699999931, 39.1454394 ] } },
{ "type": "Feature", "properties": { "内容": "ディサービスセンター　こもれび【認知症対応型通所介護】秋田県潟上市天王字上江川47-130", "url": "https://www.kaigokensaku.mhlw.go.jp/05/index.php?action_kouhyou_detail_004_kani=true&JigyosyoCd=0591000120-00&ServiceCd=720&Type=search", "url2": "http://www.komorebi-kaigo.com" }, "geometry": { "type": "Point", "coordinates": [ 139.9928725, 39.8754504 ] } },
{ "type": "Feature", "properties": { "内容": "デイサービス昭和【認知症対応型通所介護】秋田県潟上市昭和大久保字北野街道上56番地15", "url": "https://www.kaigokensaku.mhlw.go.jp/05/index.php?action_kouhyou_detail_004_kani=true&JigyosyoCd=0591000096-00&ServiceCd=720&Type=search", "url2": null }, "geometry": { "type": "Point", "coordinates": [ 140.043822699999964, 39.8486115 ] } },
{ "type": "Feature", "properties": { "内容": "デイサービス　ホプシー【認知症対応型通所介護】秋田県潟上市天王字上北野71-8", "url": "https://www.kaigokensaku.mhlw.go.jp/05/index.php?action_kouhyou_detail_004_kani=true&JigyosyoCd=0591000088-00&ServiceCd=720&Type=search", "url2": "http://www.hoopsii.com/" }, "geometry": { "type": "Point", "coordinates": [ 140.041849299999967, 39.8211674 ] } },
{ "type": "Feature", "properties": { "内容": "えがお神宮寺【認知症対応型通所介護】秋田県大仙市神宮寺字上栗谷田67番5", "url": "https://www.kaigokensaku.mhlw.go.jp/05/index.php?action_kouhyou_detail_004_kani=true&JigyosyoCd=0590800488-00&ServiceCd=720&Type=search", "url2": "http://egao.main.jp" }, "geometry": { "type": "Point", "coordinates": [ 140.427172500000012, 39.4970855 ] } },
{ "type": "Feature", "properties": { "内容": "フレンデイ大曲【認知症対応型通所介護】秋田県大仙市飯田字堰東２３５番地", "url": "https://www.kaigokensaku.mhlw.go.jp/05/index.php?action_kouhyou_detail_004_kani=true&JigyosyoCd=0570804898-00&ServiceCd=720&Type=search", "url2": "https://www.kennanfukusi.jp/" }, "geometry": { "type": "Point", "coordinates": [ 140.485339, 39.440395 ] } },
{ "type": "Feature", "properties": { "内容": "デイサービスセンターひびき愛【認知症対応型通所介護】秋田県大仙市大曲上大町１０番１８号", "url": "https://www.kaigokensaku.mhlw.go.jp/05/index.php?action_kouhyou_detail_004_kani=true&JigyosyoCd=0590800058-00&ServiceCd=720&Type=search", "url2": "http://egao.main.jp/" }, "geometry": { "type": "Point", "coordinates": [ 140.477909847885144, 39.458328755182364 ] } },
{ "type": "Feature", "properties": { "内容": "一番星きらら【認知症対応型通所介護】秋田県北秋田市脇神字高村岱131番地", "url": "https://www.kaigokensaku.mhlw.go.jp/05/index.php?action_kouhyou_detail_004_kani=true&JigyosyoCd=0572106136-00&ServiceCd=720&Type=search", "url2": null }, "geometry": { "type": "Point", "coordinates": [ 140.382869300000038, 40.2116505 ] } },
{ "type": "Feature", "properties": { "内容": "心春【認知症対応型通所介護】鹿角郡小坂町小坂字上田表４３－１", "url": "https://www.kaigokensaku.mhlw.go.jp/05/index.php?action_kouhyou_detail_004_kani=true&JigyosyoCd=0592000020-00&ServiceCd=720&Type=search", "url2": "http://kosaka-syakyo.net/" }, "geometry": { "type": "Point", "coordinates": [ 140.737486200000035, 40.3290811 ] } },
{ "type": "Feature", "properties": { "内容": "グループホーム松峰園【認知症対応型通所介護】秋田県山本郡八峰町峰浜水沢字下カッチキ台41-58", "url": "https://www.kaigokensaku.mhlw.go.jp/05/index.php?action_kouhyou_detail_004_kani=true&JigyosyoCd=0592200075-00&ServiceCd=720&Type=search", "url2": "http://www.shouhouen.co.jp/about/" }, "geometry": { "type": "Point", "coordinates": [ 140.02995020000003, 40.2988951 ] } },
{ "type": "Feature", "properties": { "内容": "グループホーム　けやき【認知症対応型通所介護】秋田県南秋田郡八郎潟町夜叉袋字中羽立７４番地の１０", "url": "https://www.kaigokensaku.mhlw.go.jp/05/index.php?action_kouhyou_detail_004_kani=true&JigyosyoCd=0592300016-00&ServiceCd=720&Type=search", "url2": "http://www.facebook.com/ghkeyaki/" }, "geometry": { "type": "Point", "coordinates": [ 140.07718449999993, 39.9518211 ] } },
{ "type": "Feature", "properties": { "内容": "グループホームみわディ【認知症対応型通所介護】秋田県雄勝郡羽後町貝沢字拾三本塚55番地５", "url": "https://www.kaigokensaku.mhlw.go.jp/05/index.php?action_kouhyou_detail_004_kani=true&JigyosyoCd=0592800056-00&ServiceCd=720&Type=search", "url2": "http://yumoko.web.fc2.com/" }, "geometry": { "type": "Point", "coordinates": [ 140.440698200000043, 39.1948077 ] } },
{ "type": "Feature", "properties": { "内容": "デイサービスやまびこ【認知症対応型通所介護】秋田県雄勝郡羽後町下仙道字風平９７-１", "url": "https://www.kaigokensaku.mhlw.go.jp/05/index.php?action_kouhyou_detail_004_kani=true&JigyosyoCd=0594000119-00&ServiceCd=720&Type=search", "url2": null }, "geometry": { "type": "Point", "coordinates": [ 140.319976, 39.168979 ] } },
{ "type": "Feature", "properties": { "内容": "株式会社　福わらい　デイサービス西の森【認知症対応型通所介護】秋田県雄勝郡羽後町西馬音内字本町102", "url": "https://www.kaigokensaku.mhlw.go.jp/05/index.php?action_kouhyou_detail_004_kani=true&JigyosyoCd=0592800106-00&ServiceCd=720&Type=search", "url2": "http://www.fukuwarai8.jp/" }, "geometry": { "type": "Point", "coordinates": [ 140.405335199999968, 39.1992702 ] } }
]
}
