{
"type": "FeatureCollection",
"name": "geo_05_特定福祉用具販売",
"crs": { "type": "name", "properties": { "name": "urn:ogc:def:crs:OGC:1.3:CRS84" } },
"features": [
{ "type": "Feature", "properties": { "内容": "くりえいてぃぶらいふ和み【特定福祉用具販売】秋田市外旭川字三後田87-6", "url2": "https://www.kaigokensaku.mhlw.go.jp/05/index.php?action_kouhyou_detail_004_kani=true&JigyosyoCd=0570118984-00&ServiceCd=410&Type=search" }, "geometry": { "type": "Point", "coordinates": [ 140.09558, 39.749971 ] } },
{ "type": "Feature", "properties": { "内容": "フレンヅあきた【特定福祉用具販売】秋田県秋田市広面字谷地田46番地1フォレスト2005　101号", "url2": "https://www.kaigokensaku.mhlw.go.jp/05/index.php?action_kouhyou_detail_004_kani=true&JigyosyoCd=0570126888-00&ServiceCd=410&Type=search" }, "geometry": { "type": "Point", "coordinates": [ 140.1464758, 39.7190929 ] } },
{ "type": "Feature", "properties": { "内容": "用具のひばり【特定福祉用具販売】秋田県秋田市卸町5丁目14-10", "url2": "https://www.kaigokensaku.mhlw.go.jp/05/index.php?action_kouhyou_detail_004_kani=true&JigyosyoCd=0570126607-00&ServiceCd=410&Type=search" }, "geometry": { "type": "Point", "coordinates": [ 140.1080034, 39.6946625 ] } },
{ "type": "Feature", "properties": { "内容": "株式会社かんきょう　秋田南支店【特定福祉用具販売】秋田県秋田市仁井田緑町８６番１号", "url2": "https://www.kaigokensaku.mhlw.go.jp/05/index.php?action_kouhyou_detail_004_kani=true&JigyosyoCd=0570124669-00&ServiceCd=410&Type=search" }, "geometry": { "type": "Point", "coordinates": [ 140.123819300000036, 39.6883403 ] } },
{ "type": "Feature", "properties": { "内容": "秋田基準寝具株式会社【特定福祉用具販売】秋田県秋田市八橋字イサノ６－１", "url2": "https://www.kaigokensaku.mhlw.go.jp/05/index.php?action_kouhyou_detail_004_kani=true&JigyosyoCd=0570103960-00&ServiceCd=410&Type=search" }, "geometry": { "type": "Point", "coordinates": [ 140.091961399999946, 39.7379418 ] } },
{ "type": "Feature", "properties": { "内容": "有限会社クリーンサプライ【特定福祉用具販売】秋田県秋田市八橋字下八橋191-11", "url2": "https://www.kaigokensaku.mhlw.go.jp/05/index.php?action_kouhyou_detail_004_kani=true&JigyosyoCd=0570104943-00&ServiceCd=410&Type=search" }, "geometry": { "type": "Point", "coordinates": [ 140.084115500000053, 39.7253705 ] } },
{ "type": "Feature", "properties": { "内容": "シルバーサポートサンショウ店【特定福祉用具販売】秋田市山王沼田町6番29号カルディア山王1階", "url2": "https://www.kaigokensaku.mhlw.go.jp/05/index.php?action_kouhyou_detail_004_kani=true&JigyosyoCd=0570126813-00&ServiceCd=410&Type=search" }, "geometry": { "type": "Point", "coordinates": [ 140.0913726, 39.715507 ] } },
{ "type": "Feature", "properties": { "内容": "株式会社　ジェー・シー・アイ　秋田支店【特定福祉用具販売】秋田県秋田市八橋本町４丁目１番２２号", "url2": "https://www.kaigokensaku.mhlw.go.jp/05/index.php?action_kouhyou_detail_004_kani=true&JigyosyoCd=0570101071-00&ServiceCd=410&Type=search" }, "geometry": { "type": "Point", "coordinates": [ 140.0976339, 39.7240628 ] } },
{ "type": "Feature", "properties": { "内容": "有限会社ケアポート秋田福祉用具事業所【特定福祉用具販売】秋田県秋田市山王沼田町2-41", "url2": "https://www.kaigokensaku.mhlw.go.jp/05/index.php?action_kouhyou_detail_004_kani=true&JigyosyoCd=0570104919-00&ServiceCd=410&Type=search" }, "geometry": { "type": "Point", "coordinates": [ 140.0929516, 39.7138802 ] } },
{ "type": "Feature", "properties": { "内容": "福祉用具センター虹の街【特定福祉用具販売】秋田県秋田市牛島西１丁目3-8", "url2": "https://www.kaigokensaku.mhlw.go.jp/05/index.php?action_kouhyou_detail_004_kani=true&JigyosyoCd=0570123638-00&ServiceCd=410&Type=search" }, "geometry": { "type": "Point", "coordinates": [ 140.11636662864305, 39.697940662750817 ] } },
{ "type": "Feature", "properties": { "内容": "きらら福祉用具事業所竿燈通り【特定福祉用具販売】秋田県秋田市大町一丁目5-9朝日プラザ秋田中央102号室", "url2": "https://www.kaigokensaku.mhlw.go.jp/05/index.php?action_kouhyou_detail_004_kani=true&JigyosyoCd=0570119057-00&ServiceCd=410&Type=search" }, "geometry": { "type": "Point", "coordinates": [ 140.114316, 39.7205573 ] } },
{ "type": "Feature", "properties": { "内容": "ダスキンヘルスレント秋田ステーション【特定福祉用具販売】秋田県秋田市川尻若葉町１－４１", "url2": "https://www.kaigokensaku.mhlw.go.jp/05/index.php?action_kouhyou_detail_004_kani=true&JigyosyoCd=0570109959-00&ServiceCd=410&Type=search" }, "geometry": { "type": "Point", "coordinates": [ 140.093310100000053, 39.7106056 ] } },
{ "type": "Feature", "properties": { "内容": "株式会社サンメディカル　秋田店【特定福祉用具販売】秋田県秋田市土崎港中央1丁目15-21", "url2": "https://www.kaigokensaku.mhlw.go.jp/05/index.php?action_kouhyou_detail_004_kani=true&JigyosyoCd=0570119271-00&ServiceCd=410&Type=search" }, "geometry": { "type": "Point", "coordinates": [ 140.0670493, 39.752728500000011 ] } },
{ "type": "Feature", "properties": { "内容": "かもめケアサービス【特定福祉用具販売】秋田県秋田市八橋大沼町15-12", "url2": "https://www.kaigokensaku.mhlw.go.jp/05/index.php?action_kouhyou_detail_004_kani=true&JigyosyoCd=0570109330-00&ServiceCd=410&Type=search" }, "geometry": { "type": "Point", "coordinates": [ 140.095016900000019, 39.7329146 ] } },
{ "type": "Feature", "properties": { "内容": "ほっと・サポート有限会社【特定福祉用具販売】秋田県秋田市外旭川八柳３丁目１０番６号", "url2": "https://www.kaigokensaku.mhlw.go.jp/05/index.php?action_kouhyou_detail_004_kani=true&JigyosyoCd=0570106955-00&ServiceCd=410&Type=search" }, "geometry": { "type": "Point", "coordinates": [ 140.096469, 39.745291 ] } },
{ "type": "Feature", "properties": { "内容": "バイタルケア秋田レンタルサービス【特定福祉用具販売】秋田県秋田市泉字登木221-1", "url2": "https://www.kaigokensaku.mhlw.go.jp/05/index.php?action_kouhyou_detail_004_kani=true&JigyosyoCd=0570124552-00&ServiceCd=410&Type=search" }, "geometry": { "type": "Point", "coordinates": [ 140.100702299999966, 39.737356 ] } },
{ "type": "Feature", "properties": { "内容": "株式会社　セスタ【特定福祉用具販売】秋田県秋田市泉中央二丁目１番１２号", "url2": "https://www.kaigokensaku.mhlw.go.jp/05/index.php?action_kouhyou_detail_004_kani=true&JigyosyoCd=0570109868-00&ServiceCd=410&Type=search" }, "geometry": { "type": "Point", "coordinates": [ 140.101574600000049, 39.7327676 ] } },
{ "type": "Feature", "properties": { "内容": "株式会社　かんきょう【特定福祉用具販売】秋田県秋田市土崎港東四丁目６番６１号", "url2": "https://www.kaigokensaku.mhlw.go.jp/05/index.php?action_kouhyou_detail_004_kani=true&JigyosyoCd=0570100297-00&ServiceCd=410&Type=search" }, "geometry": { "type": "Point", "coordinates": [ 140.076367552114903, 39.731632201464841 ] } },
{ "type": "Feature", "properties": { "内容": "みらい工房【特定福祉用具販売】秋田県秋田市川尻上野町1番19号", "url2": "https://www.kaigokensaku.mhlw.go.jp/05/index.php?action_kouhyou_detail_004_kani=true&JigyosyoCd=0570116285-00&ServiceCd=410&Type=search" }, "geometry": { "type": "Point", "coordinates": [ 140.101745060713284, 39.709191717094235 ] } },
{ "type": "Feature", "properties": { "内容": "株式会社小田島アクティ介護用品部秋田営業所【特定福祉用具販売】秋田市御所野下堤2丁目1番7号", "url2": "https://www.kaigokensaku.mhlw.go.jp/05/index.php?action_kouhyou_detail_004_kani=true&JigyosyoCd=0570109207-00&ServiceCd=410&Type=search" }, "geometry": { "type": "Point", "coordinates": [ 140.16689473097685, 39.666247662681904 ] } },
{ "type": "Feature", "properties": { "内容": "パナソニックエイジフリーショップ秋田【特定福祉用具販売】秋田県秋田市広面字鍋沼33-2", "url2": "https://www.kaigokensaku.mhlw.go.jp/05/index.php?action_kouhyou_detail_004_kani=true&JigyosyoCd=0570119073-00&ServiceCd=410&Type=search" }, "geometry": { "type": "Point", "coordinates": [ 140.146973579724175, 39.717372775488165 ] } },
{ "type": "Feature", "properties": { "内容": "バリアフリーアート【特定福祉用具販売】秋田県秋田市新屋渋谷町１－３８", "url2": "https://www.kaigokensaku.mhlw.go.jp/05/index.php?action_kouhyou_detail_004_kani=true&JigyosyoCd=0570114041-00&ServiceCd=410&Type=search" }, "geometry": { "type": "Point", "coordinates": [ 140.095883099163757, 39.672928358099369 ] } },
{ "type": "Feature", "properties": { "内容": "株式会社アミック　福祉事業部【特定福祉用具販売】秋田県秋田市中通六丁目１番５５号", "url2": "https://www.kaigokensaku.mhlw.go.jp/05/index.php?action_kouhyou_detail_004_kani=true&JigyosyoCd=0570112854-00&ServiceCd=410&Type=search" }, "geometry": { "type": "Point", "coordinates": [ 140.121846199999936, 39.713204 ] } },
{ "type": "Feature", "properties": { "内容": "福祉用具センター虹の街能代【特定福祉用具販売】秋田県能代市河戸川字下大須賀40番", "url2": "https://www.kaigokensaku.mhlw.go.jp/05/index.php?action_kouhyou_detail_004_kani=true&JigyosyoCd=0570223834-00&ServiceCd=410&Type=search" }, "geometry": { "type": "Point", "coordinates": [ 140.022042980155078, 40.184052499137806 ] } },
{ "type": "Feature", "properties": { "内容": "株式会社かんきょう　能代支店【特定福祉用具販売】秋田県能代市河戸川字大須賀１番地２", "url2": "https://www.kaigokensaku.mhlw.go.jp/05/index.php?action_kouhyou_detail_004_kani=true&JigyosyoCd=0570224709-00&ServiceCd=410&Type=search" }, "geometry": { "type": "Point", "coordinates": [ 140.020515, 40.1785685 ] } },
{ "type": "Feature", "properties": { "内容": "ダスキンヘルスレント秋田白神ステーション【特定福祉用具販売】秋田県能代市寿域長根５４－７", "url2": "https://www.kaigokensaku.mhlw.go.jp/05/index.php?action_kouhyou_detail_004_kani=true&JigyosyoCd=0570223719-00&ServiceCd=410&Type=search" }, "geometry": { "type": "Point", "coordinates": [ 140.026305399999956, 40.1908644 ] } },
{ "type": "Feature", "properties": { "内容": "福祉用具のなかよし【特定福祉用具販売】秋田県能代市浅内字横道5-1", "url2": "https://www.kaigokensaku.mhlw.go.jp/05/index.php?action_kouhyou_detail_004_kani=true&JigyosyoCd=0570222851-00&ServiceCd=410&Type=search" }, "geometry": { "type": "Point", "coordinates": [ 140.020078784636553, 40.163673345129638 ] } },
{ "type": "Feature", "properties": { "内容": "福祉用具センターつむぎ【特定福祉用具販売】秋田県能代市字町後31番地1", "url2": "https://www.kaigokensaku.mhlw.go.jp/05/index.php?action_kouhyou_detail_004_kani=true&JigyosyoCd=0570290650-00&ServiceCd=410&Type=search" }, "geometry": { "type": "Point", "coordinates": [ 140.120541300000014, 40.2039733 ] } },
{ "type": "Feature", "properties": { "内容": "ＪＡふるさと　福祉レンタルサービス【特定福祉用具販売】秋田県横手市平鹿町醍醐字道中後28番地1", "url2": "https://www.kaigokensaku.mhlw.go.jp/05/index.php?action_kouhyou_detail_004_kani=true&JigyosyoCd=0570326561-00&ServiceCd=410&Type=search" }, "geometry": { "type": "Point", "coordinates": [ 140.5390212, 39.2508373 ] } },
{ "type": "Feature", "properties": { "内容": "シルバーサポートよこて店【特定福祉用具販売】秋田県横手市朝日が丘3丁目４－６", "url2": "https://www.kaigokensaku.mhlw.go.jp/05/index.php?action_kouhyou_detail_004_kani=true&JigyosyoCd=0570325308-00&ServiceCd=410&Type=search" }, "geometry": { "type": "Point", "coordinates": [ 140.5367958, 39.297040300000013 ] } },
{ "type": "Feature", "properties": { "内容": "あったかいんどレンタル【特定福祉用具販売】秋田県横手市婦気大堤下久保１９２−１", "url2": "https://www.kaigokensaku.mhlw.go.jp/05/index.php?action_kouhyou_detail_004_kani=true&JigyosyoCd=0570323600-00&ServiceCd=410&Type=search" }, "geometry": { "type": "Point", "coordinates": [ 140.549060048209498, 39.307759190289296 ] } },
{ "type": "Feature", "properties": { "内容": "横手福祉レンタルサービス【特定福祉用具販売】秋田県横手市平鹿町中吉田字竹原100-1", "url2": "https://www.kaigokensaku.mhlw.go.jp/05/index.php?action_kouhyou_detail_004_kani=true&JigyosyoCd=0570326108-00&ServiceCd=410&Type=search" }, "geometry": { "type": "Point", "coordinates": [ 140.495930199999947, 39.2694101 ] } },
{ "type": "Feature", "properties": { "内容": "有限会社　いわしや佐東器械店【特定福祉用具販売】秋田県横手市幸町3-47", "url2": "https://www.kaigokensaku.mhlw.go.jp/05/index.php?action_kouhyou_detail_004_kani=true&JigyosyoCd=0570304477-00&ServiceCd=410&Type=search" }, "geometry": { "type": "Point", "coordinates": [ 140.565478699999971, 39.3247938 ] } },
{ "type": "Feature", "properties": { "内容": "オレンジ福祉用具センター【特定福祉用具販売】秋田県横手市十文字町字海道下56-2", "url2": "https://www.kaigokensaku.mhlw.go.jp/05/index.php?action_kouhyou_detail_004_kani=true&JigyosyoCd=0570326488-00&ServiceCd=410&Type=search" }, "geometry": { "type": "Point", "coordinates": [ 140.522189065520962, 39.228623983166784 ] } },
{ "type": "Feature", "properties": { "内容": "株式会社かんきょう　横手支店【特定福祉用具販売】秋田県横手市横手町字上真山３２番地１", "url2": "https://www.kaigokensaku.mhlw.go.jp/05/index.php?action_kouhyou_detail_004_kani=true&JigyosyoCd=0570324681-00&ServiceCd=410&Type=search" }, "geometry": { "type": "Point", "coordinates": [ 140.554558499999985, 39.3197637 ] } },
{ "type": "Feature", "properties": { "内容": "株式会社小田島アクティ介護用品部横手営業所【特定福祉用具販売】秋田県横手市婦気大堤字谷地添99番地2１階-1", "url2": "https://www.kaigokensaku.mhlw.go.jp/05/index.php?action_kouhyou_detail_004_kani=true&JigyosyoCd=0570309211-00&ServiceCd=410&Type=search" }, "geometry": { "type": "Point", "coordinates": [ 140.55163946341554, 39.307298648455593 ] } },
{ "type": "Feature", "properties": { "内容": "福祉用具センター虹の街横手【特定福祉用具販売】秋田県横手市三本柳字寺田１３５番地３", "url2": "https://www.kaigokensaku.mhlw.go.jp/05/index.php?action_kouhyou_detail_004_kani=true&JigyosyoCd=0570324228-00&ServiceCd=410&Type=search" }, "geometry": { "type": "Point", "coordinates": [ 140.5440261, 39.319516300000011 ] } },
{ "type": "Feature", "properties": { "内容": "ダスキンヘルスレント横手ステーション【特定福祉用具販売】秋田県横手市柳田1-14", "url2": "https://www.kaigokensaku.mhlw.go.jp/05/index.php?action_kouhyou_detail_004_kani=true&JigyosyoCd=0570310680-00&ServiceCd=410&Type=search" }, "geometry": { "type": "Point", "coordinates": [ 140.544683296689641, 39.274085235232896 ] } },
{ "type": "Feature", "properties": { "内容": "すずらん福祉用具販売【特定福祉用具販売】秋田県大館市南神明町15-14", "url2": "https://www.kaigokensaku.mhlw.go.jp/05/index.php?action_kouhyou_detail_004_kani=true&JigyosyoCd=0570414631-00&ServiceCd=410&Type=search" }, "geometry": { "type": "Point", "coordinates": [ 140.551728576129506, 40.264401449610304 ] } },
{ "type": "Feature", "properties": { "内容": "タカハシ薬局【特定福祉用具販売】秋田県大館市有浦六丁目2番22号", "url2": "https://www.kaigokensaku.mhlw.go.jp/05/index.php?action_kouhyou_detail_004_kani=true&JigyosyoCd=0570427062-00&ServiceCd=410&Type=search" }, "geometry": { "type": "Point", "coordinates": [ 140.5705955, 40.2804264 ] } },
{ "type": "Feature", "properties": { "内容": "株式会社かんきょう　大館支店【特定福祉用具販売】秋田県大館市住吉町１番２０号", "url2": "https://www.kaigokensaku.mhlw.go.jp/05/index.php?action_kouhyou_detail_004_kani=true&JigyosyoCd=0570424697-00&ServiceCd=410&Type=search" }, "geometry": { "type": "Point", "coordinates": [ 140.543245599999977, 40.2728431 ] } },
{ "type": "Feature", "properties": { "内容": "福祉用具センター虹の街大館【特定福祉用具販売】秋田県大館市御成町二丁目18-31大館酒造ビル２階", "url2": "https://www.kaigokensaku.mhlw.go.jp/05/index.php?action_kouhyou_detail_004_kani=true&JigyosyoCd=0570425439-00&ServiceCd=410&Type=search" }, "geometry": { "type": "Point", "coordinates": [ 140.554224699999963, 40.279662100000017 ] } },
{ "type": "Feature", "properties": { "内容": "株式会社小田島アクティ介護用品部大館営業所【特定福祉用具販売】秋田県大館市有浦4丁目4-28", "url2": "https://www.kaigokensaku.mhlw.go.jp/05/index.php?action_kouhyou_detail_004_kani=true&JigyosyoCd=0570409193-00&ServiceCd=410&Type=search" }, "geometry": { "type": "Point", "coordinates": [ 140.570475699999946, 40.2855007 ] } },
{ "type": "Feature", "properties": { "内容": "福祉用具ステーション一心堂【特定福祉用具販売】秋田県大館市水門町９－３８", "url2": "https://www.kaigokensaku.mhlw.go.jp/05/index.php?action_kouhyou_detail_004_kani=true&JigyosyoCd=0570426809-00&ServiceCd=410&Type=search" }, "geometry": { "type": "Point", "coordinates": [ 140.404219899999987, 37.3831548 ] } },
{ "type": "Feature", "properties": { "内容": "ＯＧＡ福祉用具レンタルセンター【特定福祉用具販売】秋田県男鹿市船川港船川字元浜町209-1", "url2": "https://www.kaigokensaku.mhlw.go.jp/05/index.php?action_kouhyou_detail_004_kani=true&JigyosyoCd=0570612689-00&ServiceCd=410&Type=search" }, "geometry": { "type": "Point", "coordinates": [ 139.846179177770978, 39.884000883603825 ] } },
{ "type": "Feature", "properties": { "内容": "介護ショップ　エミエル【特定福祉用具販売】秋田県男鹿市船越字船越４０１番地２３", "url2": "https://www.kaigokensaku.mhlw.go.jp/05/index.php?action_kouhyou_detail_004_kani=true&JigyosyoCd=0570616540-00&ServiceCd=410&Type=search" }, "geometry": { "type": "Point", "coordinates": [ 139.9552453, 39.9028005 ] } },
{ "type": "Feature", "properties": { "内容": "介護プラザすずらん【特定福祉用具販売】秋田県湯沢市愛宕町二丁目６番２２号", "url2": "https://www.kaigokensaku.mhlw.go.jp/05/index.php?action_kouhyou_detail_004_kani=true&JigyosyoCd=0570701532-00&ServiceCd=410&Type=search" }, "geometry": { "type": "Point", "coordinates": [ 140.4899471, 39.1534969 ] } },
{ "type": "Feature", "properties": { "内容": "秋田基準寝具株式会社　湯沢営業所【特定福祉用具販売】秋田県湯沢市岩崎字壇ノ上8-5", "url2": "https://www.kaigokensaku.mhlw.go.jp/05/index.php?action_kouhyou_detail_004_kani=true&JigyosyoCd=0570726471-00&ServiceCd=410&Type=search" }, "geometry": { "type": "Point", "coordinates": [ 140.4973282, 39.2085369 ] } },
{ "type": "Feature", "properties": { "内容": "県南福祉レンタルセンター【特定福祉用具販売】秋田県湯沢市倉内字下川原52-3", "url2": "https://www.kaigokensaku.mhlw.go.jp/05/index.php?action_kouhyou_detail_004_kani=true&JigyosyoCd=0570708545-00&ServiceCd=410&Type=search" }, "geometry": { "type": "Point", "coordinates": [ 140.466154299999971, 39.1814598 ] } },
{ "type": "Feature", "properties": { "内容": "アムールケアレンタルサービス【特定福祉用具販売】秋田県湯沢市岩崎字千年86", "url2": "https://www.kaigokensaku.mhlw.go.jp/05/index.php?action_kouhyou_detail_004_kani=true&JigyosyoCd=0570700062-00&ServiceCd=410&Type=search" }, "geometry": { "type": "Point", "coordinates": [ 140.511586672646899, 39.2043403546081 ] } },
{ "type": "Feature", "properties": { "内容": "本荘福祉レンタルサービス【特定福祉用具販売】秋田県由利本荘市一番堰31番地2", "url2": "https://www.kaigokensaku.mhlw.go.jp/05/index.php?action_kouhyou_detail_004_kani=true&JigyosyoCd=0570526111-00&ServiceCd=410&Type=search" }, "geometry": { "type": "Point", "coordinates": [ 140.055426200000056, 39.3775384 ] } },
{ "type": "Feature", "properties": { "内容": "福祉用具センター虹の街本荘【特定福祉用具販売】秋田県由利本荘市川口字下野173番地1号", "url2": "https://www.kaigokensaku.mhlw.go.jp/05/index.php?action_kouhyou_detail_004_kani=true&JigyosyoCd=0570526483-00&ServiceCd=410&Type=search" }, "geometry": { "type": "Point", "coordinates": [ 140.0597434, 39.4021782 ] } },
{ "type": "Feature", "properties": { "内容": "福祉用具貸与「わかば」【特定福祉用具販売】秋田県由利本荘市川口字八幡前262番地1わかばライフケアステーション", "url2": "https://www.kaigokensaku.mhlw.go.jp/05/index.php?action_kouhyou_detail_004_kani=true&JigyosyoCd=0570523399-00&ServiceCd=410&Type=search" }, "geometry": { "type": "Point", "coordinates": [ 140.060627836257567, 39.400152580390248 ] } },
{ "type": "Feature", "properties": { "内容": "秋田しんせい農業協同組合【特定福祉用具販売】秋田県由利本荘市三条字前田75番地", "url2": "https://www.kaigokensaku.mhlw.go.jp/05/index.php?action_kouhyou_detail_004_kani=true&JigyosyoCd=0570506246-00&ServiceCd=410&Type=search" }, "geometry": { "type": "Point", "coordinates": [ 140.076106399999958, 39.3593906 ] } },
{ "type": "Feature", "properties": { "内容": "ライナ【特定福祉用具販売】秋田県潟上市天王字二田79番地1", "url2": "https://www.kaigokensaku.mhlw.go.jp/05/index.php?action_kouhyou_detail_004_kani=true&JigyosyoCd=0571026665-00&ServiceCd=410&Type=search" }, "geometry": { "type": "Point", "coordinates": [ 139.9999483, 39.8765722 ] } },
{ "type": "Feature", "properties": { "内容": "有限会社クリーンサプライ県南【特定福祉用具販売】秋田県大仙市高梨字水里133－2", "url2": "https://www.kaigokensaku.mhlw.go.jp/05/index.php?action_kouhyou_detail_004_kani=true&JigyosyoCd=0570807248-00&ServiceCd=410&Type=search" }, "geometry": { "type": "Point", "coordinates": [ 140.49912920916745, 39.461454310705626 ] } },
{ "type": "Feature", "properties": { "内容": "かいんど指定福祉用具貸与事業所【特定福祉用具販売】秋田県大仙市払田字宝龍117-4", "url2": "https://www.kaigokensaku.mhlw.go.jp/05/index.php?action_kouhyou_detail_004_kani=true&JigyosyoCd=0572602217-00&ServiceCd=410&Type=search" }, "geometry": { "type": "Point", "coordinates": [ 140.536868199999958, 39.4645569 ] } },
{ "type": "Feature", "properties": { "内容": "シルバーサポートサンショウ大曲店【特定福祉用具販売】秋田県大仙市大曲田町29番地38", "url2": "https://www.kaigokensaku.mhlw.go.jp/05/index.php?action_kouhyou_detail_004_kani=true&JigyosyoCd=0570826883-00&ServiceCd=410&Type=search" }, "geometry": { "type": "Point", "coordinates": [ 140.4856251, 39.4517049 ] } },
{ "type": "Feature", "properties": { "内容": "有限会社　共栄メディカル【特定福祉用具販売】秋田県大仙市四ツ屋字水木田33", "url2": "https://www.kaigokensaku.mhlw.go.jp/05/index.php?action_kouhyou_detail_004_kani=true&JigyosyoCd=0570801910-00&ServiceCd=410&Type=search" }, "geometry": { "type": "Point", "coordinates": [ 140.512217722090099, 39.513272493513114 ] } },
{ "type": "Feature", "properties": { "内容": "株式会社　虹の街　福祉用具センター虹の街大曲【特定福祉用具販売】秋田県大仙市戸蒔字谷地中14-1", "url2": "https://www.kaigokensaku.mhlw.go.jp/05/index.php?action_kouhyou_detail_004_kani=true&JigyosyoCd=0570823849-00&ServiceCd=410&Type=search" }, "geometry": { "type": "Point", "coordinates": [ 140.505916800000023, 39.4503778 ] } },
{ "type": "Feature", "properties": { "内容": "北秋田市社協福祉用具センター【特定福祉用具販売】秋田県北秋田市脇神字南陣場岱１０番地", "url2": "https://www.kaigokensaku.mhlw.go.jp/05/index.php?action_kouhyou_detail_004_kani=true&JigyosyoCd=0571114495-00&ServiceCd=410&Type=search" }, "geometry": { "type": "Point", "coordinates": [ 140.369569500000011, 40.2272345 ] } },
{ "type": "Feature", "properties": { "内容": "しあわせ福祉用具レンタル【特定福祉用具販売】秋田県にかほ市象潟町字４丁目塩越２０１番", "url2": "https://www.kaigokensaku.mhlw.go.jp/05/index.php?action_kouhyou_detail_004_kani=true&JigyosyoCd=0571326644-00&ServiceCd=410&Type=search" }, "geometry": { "type": "Point", "coordinates": [ 139.903751199999988, 39.20885710000001 ] } },
{ "type": "Feature", "properties": { "内容": "春風生活サポートセンター【特定福祉用具販売】秋田県南秋田郡五城目町大川下樋口字屋敷下72-1", "url2": "https://www.kaigokensaku.mhlw.go.jp/05/index.php?action_kouhyou_detail_004_kani=true&JigyosyoCd=0572318756-00&ServiceCd=410&Type=search" }, "geometry": { "type": "Point", "coordinates": [ 140.083792655158959, 39.935985569686046 ] } },
{ "type": "Feature", "properties": { "内容": "株式会社ユウメディカル【特定福祉用具販売】秋田県仙北郡美郷町六郷字遠槻154-1番地", "url2": "https://www.kaigokensaku.mhlw.go.jp/05/index.php?action_kouhyou_detail_004_kani=true&JigyosyoCd=0572604486-00&ServiceCd=410&Type=search" }, "geometry": { "type": "Point", "coordinates": [ 140.515049399999924, 39.4354435 ] } }
]
}
