{
"type": "FeatureCollection",
"name": "geo_5_4",
"crs": { "type": "name", "properties": { "name": "urn:ogc:def:crs:OGC:1.3:CRS84" } },
"features": [
{ "type": "Feature", "properties": { "ID": 544050100010, "正式名称": "助産院　イスキア", "機関区分": 4, "都道府県コード": 5, "市区町村コード": 204, "所在地": "秋田県大館市比内町笹館中清水１９", "緯度": 40.203535, "経度": 140.569183, "url": "https://www.iryou.teikyouseido.mhlw.go.jp/znk-web/juminkanja/S2430/initialize?prefCd=05&kikanCd=44050100010&kikanKbn=4", "url2": "http://isukia-odate.info", "内容": "助産院　イスキア【4:助産院】秋田県大館市比内町笹館中清水１９" }, "geometry": { "type": "Point", "coordinates": [ 140.569183, 40.203535 ] } },
{ "type": "Feature", "properties": { "ID": 544050100020, "正式名称": "ふわっこ助産院", "機関区分": 4, "都道府県コード": 5, "市区町村コード": 204, "所在地": "秋田県大館市橋桁字橋桁６３", "緯度": 40.329855, "経度": 140.582565, "url": "https://www.iryou.teikyouseido.mhlw.go.jp/znk-web/juminkanja/S2430/initialize?prefCd=05&kikanCd=44050100020&kikanKbn=4", "url2": "https://fuwakko-josanin.com/", "内容": "ふわっこ助産院【4:助産院】秋田県大館市橋桁字橋桁６３" }, "geometry": { "type": "Point", "coordinates": [ 140.582565, 40.329855 ] } },
{ "type": "Feature", "properties": { "ID": 544050300010, "正式名称": "助産院こころ", "機関区分": 4, "都道府県コード": 5, "市区町村コード": 348, "所在地": "秋田県山本郡三種町", "緯度": 40.101568, "経度": 140.004967, "url": "https://www.iryou.teikyouseido.mhlw.go.jp/znk-web/juminkanja/S2430/initialize?prefCd=05&kikanCd=44050300010&kikanKbn=4", "url2": "https://peraichi.com/landing_pages/view/6s3li/", "内容": "助産院こころ【4:助産院】秋田県山本郡三種町" }, "geometry": { "type": "Point", "coordinates": [ 140.004967, 40.101568 ] } },
{ "type": "Feature", "properties": { "ID": 544050400020, "正式名称": "たま助産院", "機関区分": 4, "都道府県コード": 5, "市区町村コード": 368, "所在地": "秋田県南秋田郡大潟村", "緯度": 40.018315, "経度": 139.960537, "url": "https://www.iryou.teikyouseido.mhlw.go.jp/znk-web/juminkanja/S2430/initialize?prefCd=05&kikanCd=44050400020&kikanKbn=4", "url2": "https://ameblo.jp/manmatsu/", "内容": "たま助産院【4:助産院】秋田県南秋田郡大潟村" }, "geometry": { "type": "Point", "coordinates": [ 139.960537, 40.018315 ] } },
{ "type": "Feature", "properties": { "ID": 544050500010, "正式名称": "ゆみっこ助産院", "機関区分": 4, "都道府県コード": 5, "市区町村コード": 201, "所在地": "秋田県秋田市", "緯度": 39.719288, "経度": 140.10425, "url": "https://www.iryou.teikyouseido.mhlw.go.jp/znk-web/juminkanja/S2430/initialize?prefCd=05&kikanCd=44050500010&kikanKbn=4", "url2": "http://www.cna.ne.jp/~yumikko", "内容": "ゆみっこ助産院【4:助産院】秋田県秋田市" }, "geometry": { "type": "Point", "coordinates": [ 140.10425, 39.719288 ] } },
{ "type": "Feature", "properties": { "ID": 544050500030, "正式名称": "たかはし助産院", "機関区分": 4, "都道府県コード": 5, "市区町村コード": 201, "所在地": "秋田県秋田市", "緯度": 39.719288, "経度": 140.10425, "url": "https://www.iryou.teikyouseido.mhlw.go.jp/znk-web/juminkanja/S2430/initialize?prefCd=05&kikanCd=44050500030&kikanKbn=4", "url2": null, "内容": "たかはし助産院【4:助産院】秋田県秋田市" }, "geometry": { "type": "Point", "coordinates": [ 140.10425, 39.719288 ] } },
{ "type": "Feature", "properties": { "ID": 544050500040, "正式名称": "産前産後ケアハウス　助産院ばーす", "機関区分": 4, "都道府県コード": 5, "市区町村コード": 201, "所在地": "秋田県秋田市", "緯度": 39.719288, "経度": 140.10425, "url": "https://www.iryou.teikyouseido.mhlw.go.jp/znk-web/juminkanja/S2430/initialize?prefCd=05&kikanCd=44050500040&kikanKbn=4", "url2": "https://josaninba-su.amebaownd.com/", "内容": "産前産後ケアハウス　助産院ばーす【4:助産院】秋田県秋田市" }, "geometry": { "type": "Point", "coordinates": [ 140.10425, 39.719288 ] } },
{ "type": "Feature", "properties": { "ID": 544050500050, "正式名称": "いわま助産院", "機関区分": 4, "都道府県コード": 5, "市区町村コード": 201, "所在地": "秋田県秋田市", "緯度": 39.701406, "経度": 140.088622, "url": "https://www.iryou.teikyouseido.mhlw.go.jp/znk-web/juminkanja/S2430/initialize?prefCd=05&kikanCd=44050500050&kikanKbn=4", "url2": null, "内容": "いわま助産院【4:助産院】秋田県秋田市" }, "geometry": { "type": "Point", "coordinates": [ 140.088622, 39.701406 ] } },
{ "type": "Feature", "properties": { "ID": 544050500060, "正式名称": "出産・育児・母乳アドバイザー助産師　佐藤由紀", "機関区分": 4, "都道府県コード": 5, "市区町村コード": 201, "所在地": "秋田県秋田市飯島道東１－２－３３", "緯度": 39.774145, "経度": 140.068197, "url": "https://www.iryou.teikyouseido.mhlw.go.jp/znk-web/juminkanja/S2430/initialize?prefCd=05&kikanCd=44050500060&kikanKbn=4", "url2": null, "内容": "出産・育児・母乳アドバイザー助産師　佐藤由紀【4:助産院】秋田県秋田市飯島道東１－２－３３" }, "geometry": { "type": "Point", "coordinates": [ 140.068197, 39.774145 ] } },
{ "type": "Feature", "properties": { "ID": 544050500070, "正式名称": "出張　赤ちゃん・おっぱい相談Ｌｉｒｏｉ", "機関区分": 4, "都道府県コード": 5, "市区町村コード": 201, "所在地": "秋田県秋田市", "緯度": 39.719288, "経度": 140.10425, "url": "https://www.iryou.teikyouseido.mhlw.go.jp/znk-web/juminkanja/S2430/initialize?prefCd=05&kikanCd=44050500070&kikanKbn=4", "url2": null, "内容": "出張　赤ちゃん・おっぱい相談Ｌｉｒｏｉ【4:助産院】秋田県秋田市" }, "geometry": { "type": "Point", "coordinates": [ 140.10425, 39.719288 ] } },
{ "type": "Feature", "properties": { "ID": 544050500080, "正式名称": "赤ちゃんとママの相談室　びるかわ", "機関区分": 4, "都道府県コード": 5, "市区町村コード": 201, "所在地": "秋田県秋田市", "緯度": 39.76075, "経度": 140.070167, "url": "https://www.iryou.teikyouseido.mhlw.go.jp/znk-web/juminkanja/S2430/initialize?prefCd=05&kikanCd=44050500080&kikanKbn=4", "url2": null, "内容": "赤ちゃんとママの相談室　びるかわ【4:助産院】秋田県秋田市" }, "geometry": { "type": "Point", "coordinates": [ 140.070167, 39.76075 ] } },
{ "type": "Feature", "properties": { "ID": 544050500090, "正式名称": "和助産院", "機関区分": 4, "都道府県コード": 5, "市区町村コード": 201, "所在地": "秋田県秋田市雄和相川字高野１８", "緯度": 39.583151, "経度": 140.177193, "url": "https://www.iryou.teikyouseido.mhlw.go.jp/znk-web/juminkanja/S2430/initialize?prefCd=05&kikanCd=44050500090&kikanKbn=4", "url2": null, "内容": "和助産院【4:助産院】秋田県秋田市雄和相川字高野１８" }, "geometry": { "type": "Point", "coordinates": [ 140.177193, 39.583151 ] } },
{ "type": "Feature", "properties": { "ID": 544050500100, "正式名称": "母乳育児相談室まどか", "機関区分": 4, "都道府県コード": 5, "市区町村コード": 201, "所在地": "秋田県秋田市", "緯度": 39.719288, "経度": 140.10425, "url": "https://www.iryou.teikyouseido.mhlw.go.jp/znk-web/juminkanja/S2430/initialize?prefCd=05&kikanCd=44050500100&kikanKbn=4", "url2": null, "内容": "母乳育児相談室まどか【4:助産院】秋田県秋田市" }, "geometry": { "type": "Point", "coordinates": [ 140.10425, 39.719288 ] } },
{ "type": "Feature", "properties": { "ID": 544050600010, "正式名称": "遠山助産院", "機関区分": 4, "都道府県コード": 5, "市区町村コード": 210, "所在地": "秋田県由利本荘市", "緯度": 39.387188, "経度": 140.05533, "url": "https://www.iryou.teikyouseido.mhlw.go.jp/znk-web/juminkanja/S2430/initialize?prefCd=05&kikanCd=44050600010&kikanKbn=4", "url2": null, "内容": "遠山助産院【4:助産院】秋田県由利本荘市" }, "geometry": { "type": "Point", "coordinates": [ 140.05533, 39.387188 ] } },
{ "type": "Feature", "properties": { "ID": 544050600020, "正式名称": "Ｍ　ａｎｄ　Ｂ　あい助産院", "機関区分": 4, "都道府県コード": 5, "市区町村コード": 210, "所在地": "秋田県由利本荘市", "緯度": 39.387188, "経度": 140.05533, "url": "https://www.iryou.teikyouseido.mhlw.go.jp/znk-web/juminkanja/S2430/initialize?prefCd=05&kikanCd=44050600020&kikanKbn=4", "url2": null, "内容": "Ｍ　ａｎｄ　Ｂ　あい助産院【4:助産院】秋田県由利本荘市" }, "geometry": { "type": "Point", "coordinates": [ 140.05533, 39.387188 ] } },
{ "type": "Feature", "properties": { "ID": 544050700010, "正式名称": "産前産後ケアハウス　ＰＯＣＯ　Ａ　ＰＯＣＯ", "機関区分": 4, "都道府県コード": 5, "市区町村コード": 212, "所在地": "秋田県大仙市幸町１－５３", "緯度": 39.470148, "経度": 140.48038, "url": "https://www.iryou.teikyouseido.mhlw.go.jp/znk-web/juminkanja/S2430/initialize?prefCd=05&kikanCd=44050700010&kikanKbn=4", "url2": "https://pocoapoco-2024-saiwai.com/", "内容": "産前産後ケアハウス　ＰＯＣＯ　Ａ　ＰＯＣＯ【4:助産院】秋田県大仙市幸町１－５３" }, "geometry": { "type": "Point", "coordinates": [ 140.48038, 39.470148 ] } },
{ "type": "Feature", "properties": { "ID": 544050900010, "正式名称": "ひろっこ　母乳と育児の相談室", "機関区分": 4, "都道府県コード": 5, "市区町村コード": 463, "所在地": "秋田県雄勝郡羽後町新町字上鵜巣４８", "緯度": 39.251662, "経度": 140.399657, "url": "https://www.iryou.teikyouseido.mhlw.go.jp/znk-web/juminkanja/S2430/initialize?prefCd=05&kikanCd=44050900010&kikanKbn=4", "url2": null, "内容": "ひろっこ　母乳と育児の相談室【4:助産院】秋田県雄勝郡羽後町新町字上鵜巣４８" }, "geometry": { "type": "Point", "coordinates": [ 140.399657, 39.251662 ] } }
]
}
