{
"type": "FeatureCollection",
"name": "geo_05_認知症対応型共同生活介護",
"crs": { "type": "name", "properties": { "name": "urn:ogc:def:crs:OGC:1.3:CRS84" } },
"features": [
{ "type": "Feature", "properties": { "内容": "そんぽの家ＧＨ秋田旭川【認知症対応型共同生活介護】秋田県秋田市旭川清澄町16-17", "url": "https://www.kaigokensaku.mhlw.go.jp/05/index.php?action_kouhyou_detail_004_kani=true&JigyosyoCd=0590100921-00&ServiceCd=320&Type=search", "url2": "https://www.sompocare.com/" }, "geometry": { "type": "Point", "coordinates": [ 140.125616400000013, 39.741834 ] } },
{ "type": "Feature", "properties": { "内容": "グループホームかんとう【認知症対応型共同生活介護】秋田市楢山川口境11番17号グループホームかんとう", "url": "https://www.kaigokensaku.mhlw.go.jp/05/index.php?action_kouhyou_detail_004_kani=true&JigyosyoCd=0590100483-00&ServiceCd=320&Type=search", "url2": "https://www.ochiai-cs.com" }, "geometry": { "type": "Point", "coordinates": [ 140.1130392, 39.7043295 ] } },
{ "type": "Feature", "properties": { "内容": "愛の家グループホーム秋田外旭川【認知症対応型共同生活介護】秋田県秋田市外旭川字堂ノ前174-1", "url": "https://www.kaigokensaku.mhlw.go.jp/05/index.php?action_kouhyou_detail_004_kani=true&JigyosyoCd=0590101291-00&ServiceCd=320&Type=search", "url2": "https://mcs-ainoie.com/" }, "geometry": { "type": "Point", "coordinates": [ 140.1123087, 39.7510999 ] } },
{ "type": "Feature", "properties": { "内容": "愛の家グループホーム秋田千秋中島町【認知症対応型共同生活介護】秋田県秋田市千秋中島町１２番４号", "url": "https://www.kaigokensaku.mhlw.go.jp/05/index.php?action_kouhyou_detail_004_kani=true&JigyosyoCd=0590101358-00&ServiceCd=320&Type=search", "url2": "https://mcs-ainoie.com/search/akita/akitashi/gh323/" }, "geometry": { "type": "Point", "coordinates": [ 140.123839299999986, 39.7279707 ] } },
{ "type": "Feature", "properties": { "内容": "グループホーム保戸野【認知症対応型共同生活介護】秋田市保戸野中町6番15号グループホーム保戸野", "url": "https://www.kaigokensaku.mhlw.go.jp/05/index.php?action_kouhyou_detail_004_kani=true&JigyosyoCd=0590100491-00&ServiceCd=320&Type=search", "url2": "https://www.kyukokai.com/kyukokai/gs-hodono/" }, "geometry": { "type": "Point", "coordinates": [ 140.1178959, 39.7235915 ] } },
{ "type": "Feature", "properties": { "内容": "グループホーム赤とんぼ【認知症対応型共同生活介護】秋田県秋田市雄和新波字竹ノ花１２番地", "url": "https://www.kaigokensaku.mhlw.go.jp/05/index.php?action_kouhyou_detail_004_kani=true&JigyosyoCd=0590100665-00&ServiceCd=320&Type=search", "url2": "http://www.kankyowebtown.com/akatonbo/" }, "geometry": { "type": "Point", "coordinates": [ 140.231192549737557, 39.528688108251522 ] } },
{ "type": "Feature", "properties": { "内容": "けあビジョンホーム秋田新屋扇町【認知症対応型共同生活介護】秋田県秋田市新屋扇町11-30", "url": "https://www.kaigokensaku.mhlw.go.jp/05/index.php?action_kouhyou_detail_004_kani=true&JigyosyoCd=0590101317-00&ServiceCd=320&Type=search", "url2": null }, "geometry": { "type": "Point", "coordinates": [ 140.085530299999988, 39.6785061 ] } },
{ "type": "Feature", "properties": { "内容": "愛の家グループホーム秋田桜【認知症対応型共同生活介護】秋田県秋田市桜一丁目１３番３６号", "url": "https://www.kaigokensaku.mhlw.go.jp/05/index.php?action_kouhyou_detail_004_kani=true&JigyosyoCd=0590101168-00&ServiceCd=320&Type=search", "url2": "https://mcs-ainoie.com/search/akita/akitashi/gh290/" }, "geometry": { "type": "Point", "coordinates": [ 140.1495262, 39.7111065 ] } },
{ "type": "Feature", "properties": { "内容": "グループホームソフトハンド四ツ小屋【認知症対応型共同生活介護】秋田県秋田市四ツ小屋字街道東367番地グループホームソフトハンド四ツ小屋", "url": "https://www.kaigokensaku.mhlw.go.jp/05/index.php?action_kouhyou_detail_004_kani=true&JigyosyoCd=0590101226-00&ServiceCd=320&Type=search", "url2": "https://akitanavi.net/site/softhand/" }, "geometry": { "type": "Point", "coordinates": [ 140.138566357383183, 39.670681521225205 ] } },
{ "type": "Feature", "properties": { "内容": "株式会社KSFカンパニー　グループホームPlus【認知症対応型共同生活介護】秋田県秋田市飯島字長山下15番グループホームPlus", "url": "https://www.kaigokensaku.mhlw.go.jp/05/index.php?action_kouhyou_detail_004_kani=true&JigyosyoCd=0590101176-00&ServiceCd=320&Type=search", "url2": "https://www.ghplus1.com" }, "geometry": { "type": "Point", "coordinates": [ 140.0832781, 39.7732433 ] } },
{ "type": "Feature", "properties": { "内容": "ケアコンプレックス高清水　認知症対応型グループホーム【認知症対応型共同生活介護】秋田県秋田市土崎港南3丁目13－44", "url": "https://www.kaigokensaku.mhlw.go.jp/05/index.php?action_kouhyou_detail_004_kani=true&JigyosyoCd=0590101093-00&ServiceCd=320&Type=search", "url2": null }, "geometry": { "type": "Point", "coordinates": [ 140.0786395, 39.7470554 ] } },
{ "type": "Feature", "properties": { "内容": "グループホームふれ愛の里牛島【認知症対応型共同生活介護】秋田県秋田市牛島東五丁目４番２３号", "url": "https://www.kaigokensaku.mhlw.go.jp/05/index.php?action_kouhyou_detail_004_kani=true&JigyosyoCd=0590100772-00&ServiceCd=320&Type=search", "url2": "http://www.fureainosato.or.jp/" }, "geometry": { "type": "Point", "coordinates": [ 140.122751658335915, 39.695660829715891 ] } },
{ "type": "Feature", "properties": { "内容": "グループホーム　幸樹【認知症対応型共同生活介護】秋田市泉南一丁目4番20号", "url": "https://www.kaigokensaku.mhlw.go.jp/05/index.php?action_kouhyou_detail_004_kani=true&JigyosyoCd=0590100392-00&ServiceCd=320&Type=search", "url2": null }, "geometry": { "type": "Point", "coordinates": [ 140.105465385108118, 39.729768639601353 ] } },
{ "type": "Feature", "properties": { "内容": "グループホーム・つばき苑【認知症対応型共同生活介護】秋田県秋田市雄和椿川字小鹿野戸３９－２", "url": "https://www.kaigokensaku.mhlw.go.jp/05/index.php?action_kouhyou_detail_004_kani=true&JigyosyoCd=0572409464-00&ServiceCd=320&Type=search", "url2": null }, "geometry": { "type": "Point", "coordinates": [ 140.1522848, 39.6269817 ] } },
{ "type": "Feature", "properties": { "内容": "グループホーム　音符【認知症対応型共同生活介護】秋田県秋田市土崎港北1丁目13-43", "url": "https://www.kaigokensaku.mhlw.go.jp/05/index.php?action_kouhyou_detail_004_kani=true&JigyosyoCd=0590100400-00&ServiceCd=320&Type=search", "url2": "https://onpu.akita.jp" }, "geometry": { "type": "Point", "coordinates": [ 140.079336600000033, 39.7618552 ] } },
{ "type": "Feature", "properties": { "内容": "グループホームソフトハンド浜田【認知症対応型共同生活介護】秋田県秋田市浜田自在山４７番地９", "url": "https://www.kaigokensaku.mhlw.go.jp/05/index.php?action_kouhyou_detail_004_kani=true&JigyosyoCd=0590100574-00&ServiceCd=320&Type=search", "url2": "http://www.akitanavi.net/site/softhand/" }, "geometry": { "type": "Point", "coordinates": [ 140.066334500000039, 39.667002300000028 ] } },
{ "type": "Feature", "properties": { "内容": "グループホームゆず【認知症対応型共同生活介護】秋田県秋田市仁井田本町三丁目１０－１８", "url": "https://www.kaigokensaku.mhlw.go.jp/05/index.php?action_kouhyou_detail_004_kani=true&JigyosyoCd=0590100673-00&ServiceCd=320&Type=search", "url2": "https://akita-bling.com/" }, "geometry": { "type": "Point", "coordinates": [ 140.131234452778585, 39.676689512266357 ] } },
{ "type": "Feature", "properties": { "内容": "グループホームさくら【認知症対応型共同生活介護】秋田県秋田市下北手梨平字登館８", "url": "https://www.kaigokensaku.mhlw.go.jp/05/index.php?action_kouhyou_detail_004_kani=true&JigyosyoCd=0570108076-00&ServiceCd=320&Type=search", "url2": "http://www.oukyukai.net/" }, "geometry": { "type": "Point", "coordinates": [ 140.161590499999988, 39.7021176 ] } },
{ "type": "Feature", "properties": { "内容": "グループホーム　つばき大住【認知症対応型共同生活介護】秋田県秋田市仁井田潟中町２－３５グループホーム・つばき大住", "url": "https://www.kaigokensaku.mhlw.go.jp/05/index.php?action_kouhyou_detail_004_kani=true&JigyosyoCd=0590100806-00&ServiceCd=320&Type=search", "url2": null }, "geometry": { "type": "Point", "coordinates": [ 140.122572200000036, 39.6879737 ] } },
{ "type": "Feature", "properties": { "内容": "正和会グループホームゆかり【認知症対応型共同生活介護】秋田市将軍野東3丁目3-27", "url": "https://www.kaigokensaku.mhlw.go.jp/05/index.php?action_kouhyou_detail_004_kani=true&JigyosyoCd=0590100350-00&ServiceCd=320&Type=search", "url2": "https://www.akita-seiwakai.jp/" }, "geometry": { "type": "Point", "coordinates": [ 140.086155700000063, 39.7563449 ] } },
{ "type": "Feature", "properties": { "内容": "有限会社　フラット　グループホームかぞく【認知症対応型共同生活介護】秋田県秋田市新屋比内町26番1号グループホームかぞく", "url": "https://www.kaigokensaku.mhlw.go.jp/05/index.php?action_kouhyou_detail_004_kani=true&JigyosyoCd=0570109611-00&ServiceCd=320&Type=search", "url2": null }, "geometry": { "type": "Point", "coordinates": [ 140.08453540000005, 39.672268800000019 ] } },
{ "type": "Feature", "properties": { "内容": "秋田ひまわりの家グループホーム【認知症対応型共同生活介護】秋田市下北手桜字新桜谷地８５番地", "url": "https://www.kaigokensaku.mhlw.go.jp/05/index.php?action_kouhyou_detail_004_kani=true&JigyosyoCd=0570112201-00&ServiceCd=320&Type=search", "url2": "http://www.himawarinoie.co.jp" }, "geometry": { "type": "Point", "coordinates": [ 140.163636699999984, 39.7165076 ] } },
{ "type": "Feature", "properties": { "内容": "グループホームやばせ翔裕館【認知症対応型共同生活介護】秋田県秋田市八橋本町3丁目14番18号", "url": "https://www.kaigokensaku.mhlw.go.jp/05/index.php?action_kouhyou_detail_004_kani=true&JigyosyoCd=0590101101-00&ServiceCd=320&Type=search", "url2": "https://sangajapan.jp/product/yabase/" }, "geometry": { "type": "Point", "coordinates": [ 140.1010288, 39.7261234 ] } },
{ "type": "Feature", "properties": { "内容": "グループホーム　ソフトハンド茨島【認知症対応型共同生活介護】秋田県秋田市茨島４丁目１番６号", "url": "https://www.kaigokensaku.mhlw.go.jp/05/index.php?action_kouhyou_detail_004_kani=true&JigyosyoCd=0590100335-00&ServiceCd=320&Type=search", "url2": "http://www.akitanavi.net/site/softhand/" }, "geometry": { "type": "Point", "coordinates": [ 140.103282, 39.6989435 ] } },
{ "type": "Feature", "properties": { "内容": "グループホーム国見ノ里【認知症対応型共同生活介護】秋田県秋田市豊岩小山字前田表158-3グループホーム国見ノ里", "url": "https://www.kaigokensaku.mhlw.go.jp/05/index.php?action_kouhyou_detail_004_kani=true&JigyosyoCd=0570108365-00&ServiceCd=320&Type=search", "url2": "http://lifein.client.jp" }, "geometry": { "type": "Point", "coordinates": [ 140.1324548, 39.6304614 ] } },
{ "type": "Feature", "properties": { "内容": "認知症高齢者グループホーム「ひふみ」【認知症対応型共同生活介護】秋田県秋田市上北手百崎字二タ子沢1番地6", "url": "https://www.kaigokensaku.mhlw.go.jp/05/index.php?action_kouhyou_detail_004_kani=true&JigyosyoCd=0570107664-00&ServiceCd=320&Type=search", "url2": "http://www.kaminosato.or.jp/" }, "geometry": { "type": "Point", "coordinates": [ 140.154372100000046, 39.6895439 ] } },
{ "type": "Feature", "properties": { "内容": "認知症対応型共同生活介護　　グループホーム・サラ【認知症対応型共同生活介護】秋田県秋田市新屋北浜町２１番４７号", "url": "https://www.kaigokensaku.mhlw.go.jp/05/index.php?action_kouhyou_detail_004_kani=true&JigyosyoCd=0570106898-00&ServiceCd=320&Type=search", "url2": "http://www.jkk-sotohp.or.jp/gh/" }, "geometry": { "type": "Point", "coordinates": [ 140.069771, 39.702155500000011 ] } },
{ "type": "Feature", "properties": { "内容": "けあビジョンホーム秋田【認知症対応型共同生活介護】秋田県秋田市太平山谷字中山谷149-7", "url": "https://www.kaigokensaku.mhlw.go.jp/05/index.php?action_kouhyou_detail_004_kani=true&JigyosyoCd=0590101150-00&ServiceCd=320&Type=search", "url2": null }, "geometry": { "type": "Point", "coordinates": [ 140.2669484, 39.728939 ] } },
{ "type": "Feature", "properties": { "内容": "グループホーム　ソフトハンド【認知症対応型共同生活介護】秋田県秋田市新屋勝平町１０番３０号", "url": "https://www.kaigokensaku.mhlw.go.jp/05/index.php?action_kouhyou_detail_004_kani=true&JigyosyoCd=0570110957-00&ServiceCd=320&Type=search", "url2": "http://www.akitanavi.net/site/softhand/" }, "geometry": { "type": "Point", "coordinates": [ 140.0826452, 39.6963179 ] } },
{ "type": "Feature", "properties": { "内容": "グループホーム野崎【認知症対応型共同生活介護】秋田県秋田市河辺三内字野崎35－4東棟、西棟、南棟１号室～11号室まで（4.9号は除く）", "url": "https://www.kaigokensaku.mhlw.go.jp/05/index.php?action_kouhyou_detail_004_kani=true&JigyosyoCd=0590100616-00&ServiceCd=320&Type=search", "url2": null }, "geometry": { "type": "Point", "coordinates": [ 140.293850199999952, 39.7130804 ] } },
{ "type": "Feature", "properties": { "内容": "グループホームひなた【認知症対応型共同生活介護】秋田県秋田市土崎港中央四丁目４－１６", "url": "https://www.kaigokensaku.mhlw.go.jp/05/index.php?action_kouhyou_detail_004_kani=true&JigyosyoCd=0570108217-00&ServiceCd=320&Type=search", "url2": "https://www.reiwafukushikai.com/index.html" }, "geometry": { "type": "Point", "coordinates": [ 140.071779200000037, 39.7526088 ] } },
{ "type": "Feature", "properties": { "内容": "社会福祉法人みその　みそのホームグループホーム【認知症対応型共同生活介護】秋田県秋田市寺内蛭根２丁目６番３４号", "url": "https://www.kaigokensaku.mhlw.go.jp/05/index.php?action_kouhyou_detail_004_kani=true&JigyosyoCd=0570102814-00&ServiceCd=320&Type=search", "url2": "http://misono-f.com" }, "geometry": { "type": "Point", "coordinates": [ 140.086903900000038, 39.730259 ] } },
{ "type": "Feature", "properties": { "内容": "グループホームうららか【認知症対応型共同生活介護】秋田県秋田市御所野元町四丁目２－３", "url": "https://www.kaigokensaku.mhlw.go.jp/05/index.php?action_kouhyou_detail_004_kani=true&JigyosyoCd=0570112342-00&ServiceCd=320&Type=search", "url2": "https://uraraka-akita.com" }, "geometry": { "type": "Point", "coordinates": [ 140.166801150926176, 39.662763836863206 ] } },
{ "type": "Feature", "properties": { "内容": "のしろケアセンターそよ風【認知症対応型共同生活介護】秋田県能代市落合字古悪土1-228", "url": "https://www.kaigokensaku.mhlw.go.jp/05/index.php?action_kouhyou_detail_004_kani=true&JigyosyoCd=0570206748-00&ServiceCd=320&Type=search", "url2": "http://www.sykz.co.jp" }, "geometry": { "type": "Point", "coordinates": [ 140.010385700000029, 40.226035 ] } },
{ "type": "Feature", "properties": { "内容": "グループホーム　まつ風【認知症対応型共同生活介護】秋田県能代市浜通町４番５２号", "url": "https://www.kaigokensaku.mhlw.go.jp/05/index.php?action_kouhyou_detail_004_kani=true&JigyosyoCd=0570207639-00&ServiceCd=320&Type=search", "url2": null }, "geometry": { "type": "Point", "coordinates": [ 140.019210499999986, 40.215408500000017 ] } },
{ "type": "Feature", "properties": { "内容": "グループホーム和み【認知症対応型共同生活介護】秋田県能代市二ツ井町飛根字高清水２６５", "url": "https://www.kaigokensaku.mhlw.go.jp/05/index.php?action_kouhyou_detail_004_kani=true&JigyosyoCd=0590200085-00&ServiceCd=320&Type=search", "url2": "http://www.shirakami.or.jp/~nagomi/" }, "geometry": { "type": "Point", "coordinates": [ 140.166691, 40.220228 ] } },
{ "type": "Feature", "properties": { "内容": "グループホーム母恵夢【認知症対応型共同生活介護】秋田県能代市能代町字中川原２６－９８４", "url": "https://www.kaigokensaku.mhlw.go.jp/05/index.php?action_kouhyou_detail_004_kani=true&JigyosyoCd=0570207530-00&ServiceCd=320&Type=search", "url2": null }, "geometry": { "type": "Point", "coordinates": [ 140.038500800000065, 40.201744 ] } },
{ "type": "Feature", "properties": { "内容": "グループホーム　まつかさ園【認知症対応型共同生活介護】能代市二ツ井町字下野家後９５－１９", "url": "https://www.kaigokensaku.mhlw.go.jp/05/index.php?action_kouhyou_detail_004_kani=true&JigyosyoCd=0572207496-00&ServiceCd=320&Type=search", "url2": "http://kaigo-rindou.jp/gh/index.html" }, "geometry": { "type": "Point", "coordinates": [ 140.237776509262062, 40.208832903212958 ] } },
{ "type": "Feature", "properties": { "内容": "グループホーム公園【認知症対応型共同生活介護】秋田県能代市落合字上前田１４０－２", "url": "https://www.kaigokensaku.mhlw.go.jp/05/index.php?action_kouhyou_detail_004_kani=true&JigyosyoCd=0570206755-00&ServiceCd=320&Type=search", "url2": null }, "geometry": { "type": "Point", "coordinates": [ 140.025220699999977, 40.2277711 ] } },
{ "type": "Feature", "properties": { "内容": "グループホーム　せせらぎ【認知症対応型共同生活介護】秋田県能代市落合字下谷地251-6", "url": "https://www.kaigokensaku.mhlw.go.jp/05/index.php?action_kouhyou_detail_004_kani=true&JigyosyoCd=0570207779-00&ServiceCd=320&Type=search", "url2": "http://seseragiyunosato.com" }, "geometry": { "type": "Point", "coordinates": [ 140.028443141139178, 40.227247450415042 ] } },
{ "type": "Feature", "properties": { "内容": "グループホームおちあい【認知症対応型共同生活介護】秋田県能代市落合字上釜谷地187-2", "url": "https://www.kaigokensaku.mhlw.go.jp/05/index.php?action_kouhyou_detail_004_kani=true&JigyosyoCd=0570209015-00&ServiceCd=320&Type=search", "url2": "https://ochiai-cs.com/" }, "geometry": { "type": "Point", "coordinates": [ 140.02067379999994, 40.2277432 ] } },
{ "type": "Feature", "properties": { "内容": "グループホーム椛【認知症対応型共同生活介護】秋田県能代市二ツ井町字下野10番3", "url": "https://www.kaigokensaku.mhlw.go.jp/05/index.php?action_kouhyou_detail_004_kani=true&JigyosyoCd=0590200184-00&ServiceCd=320&Type=search", "url2": "https://www.cedar-care.com" }, "geometry": { "type": "Point", "coordinates": [ 140.233363233100505, 40.205973078671832 ] } },
{ "type": "Feature", "properties": { "内容": "グループホーム　しゃぼん玉【認知症対応型共同生活介護】秋田県能代市追分町2-36", "url": "https://www.kaigokensaku.mhlw.go.jp/05/index.php?action_kouhyou_detail_004_kani=true&JigyosyoCd=0570207951-00&ServiceCd=320&Type=search", "url2": null }, "geometry": { "type": "Point", "coordinates": [ 140.030288855190662, 40.203736619324467 ] } },
{ "type": "Feature", "properties": { "内容": "グループホーム　集い【認知症対応型共同生活介護】秋田県能代市高塙56番地1グループホーム集い", "url": "https://www.kaigokensaku.mhlw.go.jp/05/index.php?action_kouhyou_detail_004_kani=true&JigyosyoCd=0570206789-00&ServiceCd=320&Type=search", "url2": null }, "geometry": { "type": "Point", "coordinates": [ 140.049892686998419, 40.183472874286785 ] } },
{ "type": "Feature", "properties": { "内容": "能代市緑町グループホーム【認知症対応型共同生活介護】秋田県能代市緑町７番１７号", "url": "https://www.kaigokensaku.mhlw.go.jp/05/index.php?action_kouhyou_detail_004_kani=true&JigyosyoCd=0590200069-00&ServiceCd=320&Type=search", "url2": "http://www.noshiroshakyo.jp/" }, "geometry": { "type": "Point", "coordinates": [ 140.036143, 40.1971111 ] } },
{ "type": "Feature", "properties": { "内容": "グループホーム　つなぎの里【認知症対応型共同生活介護】秋田県能代市二ツ井町小繋字麻生道端87-3", "url": "https://www.kaigokensaku.mhlw.go.jp/05/index.php?action_kouhyou_detail_004_kani=true&JigyosyoCd=0570214304-00&ServiceCd=320&Type=search", "url2": null }, "geometry": { "type": "Point", "coordinates": [ 140.260699135581945, 40.208858229347896 ] } },
{ "type": "Feature", "properties": { "内容": "グループホーム菜康苑【認知症対応型共同生活介護】秋田県横手市平鹿町醍醐字道中５７番地１０", "url": "https://www.kaigokensaku.mhlw.go.jp/05/index.php?action_kouhyou_detail_004_kani=true&JigyosyoCd=0572713121-00&ServiceCd=320&Type=search", "url2": "http://gl-saikouen.jp" }, "geometry": { "type": "Point", "coordinates": [ 140.542405199999962, 39.2493605 ] } },
{ "type": "Feature", "properties": { "内容": "有限会社　わかば会　グループホーム　きらら浅舞【認知症対応型共同生活介護】秋田県横手市平鹿町浅舞字道川南７７－７", "url": "https://www.kaigokensaku.mhlw.go.jp/05/index.php?action_kouhyou_detail_004_kani=true&JigyosyoCd=0570313627-00&ServiceCd=320&Type=search", "url2": "http://wakabakai.wixsite.com/wakabakai-kilala" }, "geometry": { "type": "Point", "coordinates": [ 140.507529300000016, 39.2577645 ] } },
{ "type": "Feature", "properties": { "内容": "ビハーラ横手　グループホームぬくもり【認知症対応型共同生活介護】秋田県横手市上境字谷地中136番地", "url": "https://www.kaigokensaku.mhlw.go.jp/05/index.php?action_kouhyou_detail_004_kani=true&JigyosyoCd=0590300018-00&ServiceCd=320&Type=search", "url2": "http://sowakai.jp/" }, "geometry": { "type": "Point", "coordinates": [ 140.528787599999987, 39.3421159 ] } },
{ "type": "Feature", "properties": { "内容": "グループホーム雅【認知症対応型共同生活介護】秋田県横手市山内土渕字茂竹97-3", "url": "https://www.kaigokensaku.mhlw.go.jp/05/index.php?action_kouhyou_detail_004_kani=true&JigyosyoCd=0590300125-00&ServiceCd=320&Type=search", "url2": null }, "geometry": { "type": "Point", "coordinates": [ 140.607280100000054, 39.286047600000032 ] } },
{ "type": "Feature", "properties": { "内容": "グループホーム　樹の里おおもり【認知症対応型共同生活介護】秋田県横手市大森町字町田39番地1号", "url": "https://www.kaigokensaku.mhlw.go.jp/05/index.php?action_kouhyou_detail_004_kani=true&JigyosyoCd=0590300059-00&ServiceCd=320&Type=search", "url2": null }, "geometry": { "type": "Point", "coordinates": [ 140.4228948, 39.33943 ] } },
{ "type": "Feature", "properties": { "内容": "有限会社クリーンマジック　グループホーム大雄【認知症対応型共同生活介護】秋田県横手市大雄字上田村東38番地", "url": "https://www.kaigokensaku.mhlw.go.jp/05/index.php?action_kouhyou_detail_004_kani=true&JigyosyoCd=0572709541-00&ServiceCd=320&Type=search", "url2": "https://ssminn15.wixsite.com/my-site" }, "geometry": { "type": "Point", "coordinates": [ 140.48466, 39.330519099999982 ] } },
{ "type": "Feature", "properties": { "内容": "大森ケア、コミュニテー　はる風【認知症対応型共同生活介護】秋田県横手市大森町字菅生田２４５－２２６", "url": "https://www.kaigokensaku.mhlw.go.jp/05/index.php?action_kouhyou_detail_004_kani=true&JigyosyoCd=0572709566-00&ServiceCd=320&Type=search", "url2": null }, "geometry": { "type": "Point", "coordinates": [ 140.415251162565596, 39.350758406206616 ] } },
{ "type": "Feature", "properties": { "内容": "悠々庵花ごよみ【認知症対応型共同生活介護】横手市大雄字西館合７５番地", "url": "https://www.kaigokensaku.mhlw.go.jp/05/index.php?action_kouhyou_detail_004_kani=true&JigyosyoCd=0572710424-00&ServiceCd=320&Type=search", "url2": "http://kyotaku.wixsite.com/website" }, "geometry": { "type": "Point", "coordinates": [ 140.450512325165931, 39.339031631986856 ] } },
{ "type": "Feature", "properties": { "内容": "グループホーム康々園【認知症対応型共同生活介護】秋田県横手市平鹿町浅舞字伊勢堂84-1", "url": "https://www.kaigokensaku.mhlw.go.jp/05/index.php?action_kouhyou_detail_004_kani=true&JigyosyoCd=0572709582-00&ServiceCd=320&Type=search", "url2": null }, "geometry": { "type": "Point", "coordinates": [ 140.492564200000061, 39.255858500000016 ] } },
{ "type": "Feature", "properties": { "内容": "グループホーム寿敬庵（寿敬庵棟・江洋館棟）【認知症対応型共同生活介護】秋田県横手市十文字町腕越字山道端79番地11・12", "url": "https://www.kaigokensaku.mhlw.go.jp/05/index.php?action_kouhyou_detail_004_kani=true&JigyosyoCd=0572709558-00&ServiceCd=320&Type=search", "url2": "http://www.wako-group.net" }, "geometry": { "type": "Point", "coordinates": [ 140.537224196958988, 39.222328767414815 ] } },
{ "type": "Feature", "properties": { "内容": "グループホームおものがわ【認知症対応型共同生活介護】秋田県横手市雄物川町沼館字佐田10-1", "url": "https://www.kaigokensaku.mhlw.go.jp/05/index.php?action_kouhyou_detail_004_kani=true&JigyosyoCd=0590300240-00&ServiceCd=320&Type=search", "url2": null }, "geometry": { "type": "Point", "coordinates": [ 140.43200360000003, 39.291802700000034 ] } },
{ "type": "Feature", "properties": { "内容": "グループホームおものがわⅭ棟【認知症対応型共同生活介護】秋田県横手市雄物川町沼館字高畑394", "url": "https://www.kaigokensaku.mhlw.go.jp/05/index.php?action_kouhyou_detail_004_kani=true&JigyosyoCd=0590300257-00&ServiceCd=320&Type=search", "url2": null }, "geometry": { "type": "Point", "coordinates": [ 140.430470199999945, 39.2989324 ] } },
{ "type": "Feature", "properties": { "内容": "認知症対応型共同生活介護　グループホーム　ひなたの家【認知症対応型共同生活介護】秋田県横手市増田町吉野字梨木塚95－2番地", "url": "https://www.kaigokensaku.mhlw.go.jp/05/index.php?action_kouhyou_detail_004_kani=true&JigyosyoCd=0590300109-00&ServiceCd=320&Type=search", "url2": "http://yokote-fukuzyukai.jp" }, "geometry": { "type": "Point", "coordinates": [ 140.58162470000002, 39.2012996 ] } },
{ "type": "Feature", "properties": { "内容": "グループホームりんご村【認知症対応型共同生活介護】秋田県横手市大屋新町字平林46-1", "url": "https://www.kaigokensaku.mhlw.go.jp/05/index.php?action_kouhyou_detail_004_kani=true&JigyosyoCd=0570309260-00&ServiceCd=320&Type=search", "url2": "https://akita-shabon.com/" }, "geometry": { "type": "Point", "coordinates": [ 140.562813600000027, 39.2862125 ] } },
{ "type": "Feature", "properties": { "内容": "グループホームはなみずき【認知症対応型共同生活介護】秋田県大館市比内町新館字真館21番地3", "url": "https://www.kaigokensaku.mhlw.go.jp/05/index.php?action_kouhyou_detail_004_kani=true&JigyosyoCd=0590400313-00&ServiceCd=320&Type=search", "url2": "http://www.hinai-fukushikai.jp" }, "geometry": { "type": "Point", "coordinates": [ 140.586708, 40.2152208 ] } },
{ "type": "Feature", "properties": { "内容": "グループホームいずみ【認知症対応型共同生活介護】秋田県大館市泉町９番１９号泉町地域ふくしセンター　２階", "url": "https://www.kaigokensaku.mhlw.go.jp/05/index.php?action_kouhyou_detail_004_kani=true&JigyosyoCd=0590400214-00&ServiceCd=320&Type=search", "url2": "http://www.fukuokf.jp" }, "geometry": { "type": "Point", "coordinates": [ 140.556572499999987, 40.2641446 ] } },
{ "type": "Feature", "properties": { "内容": "グループホーム有浦【認知症対応型共同生活介護】秋田県大館市有浦１丁目４－８", "url": "https://www.kaigokensaku.mhlw.go.jp/05/index.php?action_kouhyou_detail_004_kani=true&JigyosyoCd=0590400073-00&ServiceCd=320&Type=search", "url2": "http://kk-tact.com/" }, "geometry": { "type": "Point", "coordinates": [ 140.563337499999989, 40.2849589 ] } },
{ "type": "Feature", "properties": { "内容": "グループホーム長根山【認知症対応型共同生活介護】秋田県大館市東台6丁目4-17", "url": "https://www.kaigokensaku.mhlw.go.jp/05/index.php?action_kouhyou_detail_004_kani=true&JigyosyoCd=0590400149-00&ServiceCd=320&Type=search", "url2": "http://kk-tact.com/ghnaganeyama" }, "geometry": { "type": "Point", "coordinates": [ 140.583558499999981, 40.2752107 ] } },
{ "type": "Feature", "properties": { "内容": "グループホームかみやま【認知症対応型共同生活介護】秋田県大館市花岡町字前田１６２番地３９", "url": "https://www.kaigokensaku.mhlw.go.jp/05/index.php?action_kouhyou_detail_004_kani=true&JigyosyoCd=0570408575-00&ServiceCd=320&Type=search", "url2": "http://www.fukuokf.jp/" }, "geometry": { "type": "Point", "coordinates": [ 140.552536700000019, 40.3248177 ] } },
{ "type": "Feature", "properties": { "内容": "グループホームおおだて【認知症対応型共同生活介護】秋田県大館市片山町三丁目１４番１４号大館介護センター", "url": "https://www.kaigokensaku.mhlw.go.jp/05/index.php?action_kouhyou_detail_004_kani=true&JigyosyoCd=0570406207-00&ServiceCd=320&Type=search", "url2": "http://www.kochikai.jp/" }, "geometry": { "type": "Point", "coordinates": [ 140.537348699999939, 40.2755593 ] } },
{ "type": "Feature", "properties": { "内容": "グループホーム　かけはし【認知症対応型共同生活介護】秋田県大館市松木字大上122番地5", "url": "https://www.kaigokensaku.mhlw.go.jp/05/index.php?action_kouhyou_detail_004_kani=true&JigyosyoCd=0590400255-00&ServiceCd=320&Type=search", "url2": null }, "geometry": { "type": "Point", "coordinates": [ 140.553142280950937, 40.288773504334671 ] } },
{ "type": "Feature", "properties": { "内容": "グループホームやまぼうし【認知症対応型共同生活介護】秋田県大館市比内町新館字真館２１番地７", "url": "https://www.kaigokensaku.mhlw.go.jp/05/index.php?action_kouhyou_detail_004_kani=true&JigyosyoCd=0572104297-00&ServiceCd=320&Type=search", "url2": "https://www.hinai-fukushikai.jp" }, "geometry": { "type": "Point", "coordinates": [ 140.587169600622701, 40.215884947041886 ] } },
{ "type": "Feature", "properties": { "内容": "グループホーム山王台【認知症対応型共同生活介護】秋田県大館市池内字上野２３４番地１", "url": "https://www.kaigokensaku.mhlw.go.jp/05/index.php?action_kouhyou_detail_004_kani=true&JigyosyoCd=0590400081-00&ServiceCd=320&Type=search", "url2": "http://www.hinai-fukushikai.jp" }, "geometry": { "type": "Point", "coordinates": [ 140.578651400000012, 40.2556546 ] } },
{ "type": "Feature", "properties": { "内容": "グループホーム　らいふ【認知症対応型共同生活介護】秋田県大館市字長木川南343番地", "url": "https://www.kaigokensaku.mhlw.go.jp/05/index.php?action_kouhyou_detail_004_kani=true&JigyosyoCd=0570408054-00&ServiceCd=320&Type=search", "url2": null }, "geometry": { "type": "Point", "coordinates": [ 140.563512488221676, 40.276323165663428 ] } },
{ "type": "Feature", "properties": { "内容": "グループホーム　ほのぼの【認知症対応型共同生活介護】秋田県大館市早口字弥五郎沢2-25", "url": "https://www.kaigokensaku.mhlw.go.jp/05/index.php?action_kouhyou_detail_004_kani=true&JigyosyoCd=0572109684-00&ServiceCd=320&Type=search", "url2": null }, "geometry": { "type": "Point", "coordinates": [ 140.4490743, 40.2707905 ] } },
{ "type": "Feature", "properties": { "内容": "グループホーム　バンドー大館【認知症対応型共同生活介護】秋田県大館市御成町４丁目７－３０", "url": "https://www.kaigokensaku.mhlw.go.jp/05/index.php?action_kouhyou_detail_004_kani=true&JigyosyoCd=0570407932-00&ServiceCd=320&Type=search", "url2": "http://www.bwfg.co.jp/" }, "geometry": { "type": "Point", "coordinates": [ 140.561175468478268, 40.279676573957197 ] } },
{ "type": "Feature", "properties": { "内容": "グループホーム　縁　ゆくり【認知症対応型共同生活介護】秋田県大館市字桜町35番地", "url": "https://www.kaigokensaku.mhlw.go.jp/05/index.php?action_kouhyou_detail_004_kani=true&JigyosyoCd=0590400248-00&ServiceCd=320&Type=search", "url2": null }, "geometry": { "type": "Point", "coordinates": [ 140.56377180000004, 40.2687303 ] } },
{ "type": "Feature", "properties": { "内容": "グループホーム観音堂【認知症対応型共同生活介護】秋田県大館市字観音堂391", "url": "https://www.kaigokensaku.mhlw.go.jp/05/index.php?action_kouhyou_detail_004_kani=true&JigyosyoCd=0590400180-00&ServiceCd=320&Type=search", "url2": "http://kk-tact.com/" }, "geometry": { "type": "Point", "coordinates": [ 140.579262703627023, 40.280002635972792 ] } },
{ "type": "Feature", "properties": { "内容": "グループホームお達者倶楽部【認知症対応型共同生活介護】秋田県男鹿市北浦北浦表町字表町52-2", "url": "https://www.kaigokensaku.mhlw.go.jp/05/index.php?action_kouhyou_detail_004_kani=true&JigyosyoCd=0590600136-00&ServiceCd=320&Type=search", "url2": null }, "geometry": { "type": "Point", "coordinates": [ 139.779675700000013, 39.9664175 ] } },
{ "type": "Feature", "properties": { "内容": "グループホームおがの憩【認知症対応型共同生活介護】秋田県男鹿市脇本脇本字向山１６６－１２", "url": "https://www.kaigokensaku.mhlw.go.jp/05/index.php?action_kouhyou_detail_004_kani=true&JigyosyoCd=0590600144-00&ServiceCd=320&Type=search", "url2": null }, "geometry": { "type": "Point", "coordinates": [ 139.900418100000024, 39.907873 ] } },
{ "type": "Feature", "properties": { "内容": "グループホーム朗らか【認知症対応型共同生活介護】秋田県男鹿市　払戸字川向47番地２", "url": "https://www.kaigokensaku.mhlw.go.jp/05/index.php?action_kouhyou_detail_004_kani=true&JigyosyoCd=0572307676-00&ServiceCd=320&Type=search", "url2": null }, "geometry": { "type": "Point", "coordinates": [ 139.94731, 39.9259201 ] } },
{ "type": "Feature", "properties": { "内容": "グループホーム　うめの木園【認知症対応型共同生活介護】秋田県男鹿市五里合箱井字町屋田4番地3", "url": "https://www.kaigokensaku.mhlw.go.jp/05/index.php?action_kouhyou_detail_004_kani=true&JigyosyoCd=0570614313-00&ServiceCd=320&Type=search", "url2": "https://www.umenokimizuki.com" }, "geometry": { "type": "Point", "coordinates": [ 139.875282500000026, 39.9716787 ] } },
{ "type": "Feature", "properties": { "内容": "グループホーム　こかげ【認知症対応型共同生活介護】秋田県男鹿市脇本脇本字頭名地73-1", "url": "https://www.kaigokensaku.mhlw.go.jp/05/index.php?action_kouhyou_detail_004_kani=true&JigyosyoCd=0570609065-00&ServiceCd=320&Type=search", "url2": null }, "geometry": { "type": "Point", "coordinates": [ 139.918124, 39.9087145 ] } },
{ "type": "Feature", "properties": { "内容": "グループホーム寿郷【認知症対応型共同生活介護】秋田県湯沢市皆瀬字小野１８８－１", "url": "https://www.kaigokensaku.mhlw.go.jp/05/index.php?action_kouhyou_detail_004_kani=true&JigyosyoCd=0590700241-00&ServiceCd=320&Type=search", "url2": "http://shinetopia.com/" }, "geometry": { "type": "Point", "coordinates": [ 140.589504, 39.0747889 ] } },
{ "type": "Feature", "properties": { "内容": "グループホーム夕陽の丘山田【認知症対応型共同生活介護】秋田県湯沢市山田字中屋敷１４番地", "url": "https://www.kaigokensaku.mhlw.go.jp/05/index.php?action_kouhyou_detail_004_kani=true&JigyosyoCd=0570707174-00&ServiceCd=320&Type=search", "url2": "https://jinkeikai.jp/yamada/" }, "geometry": { "type": "Point", "coordinates": [ 140.458727299999964, 39.1533848 ] } },
{ "type": "Feature", "properties": { "内容": "グループホーム夕陽の丘柳田【認知症対応型共同生活介護】秋田県湯沢市柳田字中嶋２２７番地の１", "url": "https://www.kaigokensaku.mhlw.go.jp/05/index.php?action_kouhyou_detail_004_kani=true&JigyosyoCd=0570706606-00&ServiceCd=320&Type=search", "url2": "http://jinkeikai.jp/yanagida/" }, "geometry": { "type": "Point", "coordinates": [ 140.460807599999953, 39.1845288 ] } },
{ "type": "Feature", "properties": { "内容": "グループホームすずらん稲川【認知症対応型共同生活介護】秋田県湯沢市川連町字大舘川原１２０番地", "url": "https://www.kaigokensaku.mhlw.go.jp/05/index.php?action_kouhyou_detail_004_kani=true&JigyosyoCd=0572809382-00&ServiceCd=320&Type=search", "url2": null }, "geometry": { "type": "Point", "coordinates": [ 140.561172199999987, 39.148133 ] } },
{ "type": "Feature", "properties": { "内容": "グループホーム　しゃくやく【認知症対応型共同生活介護】秋田県湯沢市小野字諏訪23-6", "url": "https://www.kaigokensaku.mhlw.go.jp/05/index.php?action_kouhyou_detail_004_kani=true&JigyosyoCd=0572808749-00&ServiceCd=320&Type=search", "url2": null }, "geometry": { "type": "Point", "coordinates": [ 140.462653600000067, 39.0788512 ] } },
{ "type": "Feature", "properties": { "内容": "グループホームしゃくやく３号館【認知症対応型共同生活介護】秋田県湯沢市杉沢字森道下８７-２０", "url": "https://www.kaigokensaku.mhlw.go.jp/05/index.php?action_kouhyou_detail_004_kani=true&JigyosyoCd=0590700076-00&ServiceCd=320&Type=search", "url2": null }, "geometry": { "type": "Point", "coordinates": [ 140.498261729659276, 39.188212453596087 ] } },
{ "type": "Feature", "properties": { "内容": "グループホームかつら【認知症対応型共同生活介護】秋田県湯沢市川連町字大舘屋布前124", "url": "https://www.kaigokensaku.mhlw.go.jp/05/index.php?action_kouhyou_detail_004_kani=true&JigyosyoCd=0570714295-00&ServiceCd=320&Type=search", "url2": "https://yuzawa-katsura.co.jp" }, "geometry": { "type": "Point", "coordinates": [ 140.563213158196959, 39.144777749480305 ] } },
{ "type": "Feature", "properties": { "内容": "グループホーム湯沢四季の里【認知症対応型共同生活介護】秋田県湯沢市西新町９－７", "url": "https://www.kaigokensaku.mhlw.go.jp/05/index.php?action_kouhyou_detail_004_kani=true&JigyosyoCd=0570708297-00&ServiceCd=320&Type=search", "url2": "http://www.itokenyu.com" }, "geometry": { "type": "Point", "coordinates": [ 140.485166599999957, 39.1648231 ] } },
{ "type": "Feature", "properties": { "内容": "グループホームすずらん湯沢【認知症対応型共同生活介護】秋田県湯沢市元清水二丁目５番２０号", "url": "https://www.kaigokensaku.mhlw.go.jp/05/index.php?action_kouhyou_detail_004_kani=true&JigyosyoCd=0570706671-00&ServiceCd=320&Type=search", "url2": null }, "geometry": { "type": "Point", "coordinates": [ 140.4825945, 39.1692197 ] } },
{ "type": "Feature", "properties": { "内容": "グループホーム　くおん【認知症対応型共同生活介護】秋田県鹿角市八幡平字堰の下１０８番地", "url": "https://www.kaigokensaku.mhlw.go.jp/05/index.php?action_kouhyou_detail_004_kani=true&JigyosyoCd=0570909416-00&ServiceCd=320&Type=search", "url2": "https://ghkuon.com/" }, "geometry": { "type": "Point", "coordinates": [ 140.785388199999943, 40.1097015 ] } },
{ "type": "Feature", "properties": { "内容": "社会福祉法人ぐるーぷほーむ「せきがみ」【認知症対応型共同生活介護】秋田県鹿角市十和田大湯字前田29", "url": "https://www.kaigokensaku.mhlw.go.jp/05/index.php?action_kouhyou_detail_004_kani=true&JigyosyoCd=0590900205-00&ServiceCd=320&Type=search", "url2": null }, "geometry": { "type": "Point", "coordinates": [ 140.79393730000001, 40.2732184 ] } },
{ "type": "Feature", "properties": { "内容": "グループホームなでしこ【認知症対応型共同生活介護】秋田県鹿角市花輪字下花輪１２４－１", "url": "https://www.kaigokensaku.mhlw.go.jp/05/index.php?action_kouhyou_detail_004_kani=true&JigyosyoCd=0570911024-00&ServiceCd=320&Type=search", "url2": null }, "geometry": { "type": "Point", "coordinates": [ 140.789350900000045, 40.1932027 ] } },
{ "type": "Feature", "properties": { "内容": "医療法人楽山会　グループホーム温泉保養館おおゆ【認知症対応型共同生活介護】秋田県鹿角市十和田大湯字川原の湯9番地3", "url": "https://www.kaigokensaku.mhlw.go.jp/05/index.php?action_kouhyou_detail_004_kani=true&JigyosyoCd=0570909507-00&ServiceCd=320&Type=search", "url2": "http://www.ink.or.jp/~hoyokan/" }, "geometry": { "type": "Point", "coordinates": [ 140.8229106, 40.292739 ] } },
{ "type": "Feature", "properties": { "内容": "医療法人　恵愛会　グループホーム仁愛【認知症対応型共同生活介護】秋田県鹿角市花輪字六月田７８－５", "url": "https://www.kaigokensaku.mhlw.go.jp/05/index.php?action_kouhyou_detail_004_kani=true&JigyosyoCd=0570907840-00&ServiceCd=320&Type=search", "url2": "http://www.ink.or.jp/~keiai/" }, "geometry": { "type": "Point", "coordinates": [ 140.789750700000013, 40.1999436 ] } },
{ "type": "Feature", "properties": { "内容": "グループホーム誠愛【認知症対応型共同生活介護】秋田県鹿角市花輪字六月田７３-１", "url": "https://www.kaigokensaku.mhlw.go.jp/05/index.php?action_kouhyou_detail_004_kani=true&JigyosyoCd=0590900197-00&ServiceCd=320&Type=search", "url2": null }, "geometry": { "type": "Point", "coordinates": [ 140.789616099999989, 40.2001021 ] } },
{ "type": "Feature", "properties": { "内容": "グループホームみさと【認知症対応型共同生活介護】秋田県鹿角市花輪字寺ノ後４２番地１０", "url": "https://www.kaigokensaku.mhlw.go.jp/05/index.php?action_kouhyou_detail_004_kani=true&JigyosyoCd=0590900023-00&ServiceCd=320&Type=search", "url2": null }, "geometry": { "type": "Point", "coordinates": [ 140.784387400000014, 40.1968882 ] } },
{ "type": "Feature", "properties": { "内容": "ピアホーム福ふく【認知症対応型共同生活介護】秋田県由利本荘市岩谷町字西野209", "url": "https://www.kaigokensaku.mhlw.go.jp/05/index.php?action_kouhyou_detail_004_kani=true&JigyosyoCd=0590500294-00&ServiceCd=320&Type=search", "url2": null }, "geometry": { "type": "Point", "coordinates": [ 140.084808318879709, 39.440247287258472 ] } },
{ "type": "Feature", "properties": { "内容": "グループホーム望海の家【認知症対応型共同生活介護】秋田県由利本荘市浜三川字小山口20番地", "url": "https://www.kaigokensaku.mhlw.go.jp/05/index.php?action_kouhyou_detail_004_kani=true&JigyosyoCd=0570508523-00&ServiceCd=320&Type=search", "url2": "http://honjo-kyujyukai.net/" }, "geometry": { "type": "Point", "coordinates": [ 140.034424376721176, 39.416221992651643 ] } },
{ "type": "Feature", "properties": { "内容": "指定認知症対応型共同生活介護事業所　安心サポート矢島【認知症対応型共同生活介護】秋田県由利本荘市矢島町城内字八森下481-1", "url": "https://www.kaigokensaku.mhlw.go.jp/05/index.php?action_kouhyou_detail_004_kani=true&JigyosyoCd=0572505709-00&ServiceCd=320&Type=search", "url2": "http://www.chuoukai.com/03-furusatoyashima.html" }, "geometry": { "type": "Point", "coordinates": [ 140.136414400000035, 39.2344906 ] } },
{ "type": "Feature", "properties": { "内容": "グループホームきざくら【認知症対応型共同生活介護】秋田県由利本荘市東由利老方字後田70-3", "url": "https://www.kaigokensaku.mhlw.go.jp/05/index.php?action_kouhyou_detail_004_kani=true&JigyosyoCd=0590500047-00&ServiceCd=320&Type=search", "url2": "http://www.yurihonjo-shakyo.jp" }, "geometry": { "type": "Point", "coordinates": [ 140.288267200000064, 39.3058561 ] } },
{ "type": "Feature", "properties": { "内容": "グループホーム鳥海【認知症対応型共同生活介護】秋田県由利本荘市鳥海町下笹子字田中６１-２", "url": "https://www.kaigokensaku.mhlw.go.jp/05/index.php?action_kouhyou_detail_004_kani=true&JigyosyoCd=0572510618-00&ServiceCd=320&Type=search", "url2": "http://www.fukuwarai8.jp/contact/" }, "geometry": { "type": "Point", "coordinates": [ 140.2855955, 39.1198448 ] } },
{ "type": "Feature", "properties": { "内容": "グループホーム　田園【認知症対応型共同生活介護】秋田県由利本荘市岩城冨田字根本１０−２２", "url": "https://www.kaigokensaku.mhlw.go.jp/05/index.php?action_kouhyou_detail_004_kani=true&JigyosyoCd=0570512632-00&ServiceCd=320&Type=search", "url2": null }, "geometry": { "type": "Point", "coordinates": [ 140.087070899999958, 39.5060482 ] } },
{ "type": "Feature", "properties": { "内容": "虹の街グループホーム本荘【認知症対応型共同生活介護】秋田県由利本荘市川口字下野173-1", "url": "https://www.kaigokensaku.mhlw.go.jp/05/index.php?action_kouhyou_detail_004_kani=true&JigyosyoCd=0590500195-00&ServiceCd=320&Type=search", "url2": "https://www.saint-care.com/niji/" }, "geometry": { "type": "Point", "coordinates": [ 140.05990224337765, 39.402099198196645 ] } },
{ "type": "Feature", "properties": { "内容": "グループホーム本荘やすらぎ苑【認知症対応型共同生活介護】秋田県由利本荘市石脇字山の神11-383", "url": "https://www.kaigokensaku.mhlw.go.jp/05/index.php?action_kouhyou_detail_004_kani=true&JigyosyoCd=0570507806-00&ServiceCd=320&Type=search", "url2": "http://www.itokenyu.com/" }, "geometry": { "type": "Point", "coordinates": [ 140.035802800000056, 39.4033751 ] } },
{ "type": "Feature", "properties": { "内容": "グループホームしんざんの里【認知症対応型共同生活介護】秋田県由利本荘市石脇字山の神11-714", "url": "https://www.kaigokensaku.mhlw.go.jp/05/index.php?action_kouhyou_detail_004_kani=true&JigyosyoCd=0590500070-00&ServiceCd=320&Type=search", "url2": "http://www.itokenyu.com/" }, "geometry": { "type": "Point", "coordinates": [ 140.035769499999986, 39.40317240000001 ] } },
{ "type": "Feature", "properties": { "内容": "グループホーム夕なぎ【認知症対応型共同生活介護】秋田県由利本荘市岩城内道川字水呑場28-30", "url": "https://www.kaigokensaku.mhlw.go.jp/05/index.php?action_kouhyou_detail_004_kani=true&JigyosyoCd=0590500187-00&ServiceCd=320&Type=search", "url2": "http://www.kitahamanokaze.com/" }, "geometry": { "type": "Point", "coordinates": [ 140.0544023, 39.5468448 ] } },
{ "type": "Feature", "properties": { "内容": "グループホーム　たんぽぽ西目【認知症対応型共同生活介護】秋田県由利本荘市西目町沼田字新道下２－６", "url": "https://www.kaigokensaku.mhlw.go.jp/05/index.php?action_kouhyou_detail_004_kani=true&JigyosyoCd=0572510659-00&ServiceCd=320&Type=search", "url2": "http://www.honjodaiichihp.com/tanpopo/index.html" }, "geometry": { "type": "Point", "coordinates": [ 140.017420499999957, 39.3531278 ] } },
{ "type": "Feature", "properties": { "内容": "グループホームわかばイースト【認知症対応型共同生活介護】秋田県由利本荘市荒町字真城42-2", "url": "https://www.kaigokensaku.mhlw.go.jp/05/index.php?action_kouhyou_detail_004_kani=true&JigyosyoCd=0590500302-00&ServiceCd=320&Type=search", "url2": "https://life.ikeyaku.co.jp/wakaba/sisetu/" }, "geometry": { "type": "Point", "coordinates": [ 140.079299700000036, 39.355653600000018 ] } },
{ "type": "Feature", "properties": { "内容": "グループホームたいよう【認知症対応型共同生活介護】秋田県由利本荘市岩谷町字ハケノ下８０－２", "url": "https://www.kaigokensaku.mhlw.go.jp/05/index.php?action_kouhyou_detail_004_kani=true&JigyosyoCd=0572510667-00&ServiceCd=320&Type=search", "url2": "http://www.oouchi-satsukikai.or.jp/" }, "geometry": { "type": "Point", "coordinates": [ 140.106618199999957, 39.4480723 ] } },
{ "type": "Feature", "properties": { "内容": "グループホームいなほ【認知症対応型共同生活介護】秋田県由利本荘市大浦字八走123番地7", "url": "https://www.kaigokensaku.mhlw.go.jp/05/index.php?action_kouhyou_detail_004_kani=true&JigyosyoCd=0590500138-00&ServiceCd=320&Type=search", "url2": null }, "geometry": { "type": "Point", "coordinates": [ 140.054168954001966, 39.402630772933506 ] } },
{ "type": "Feature", "properties": { "内容": "グループホームしらさぎ苑【認知症対応型共同生活介護】秋田県潟上市飯田川飯塚字塞ノ神143番地3", "url": "https://www.kaigokensaku.mhlw.go.jp/05/index.php?action_kouhyou_detail_004_kani=true&JigyosyoCd=0591000138-00&ServiceCd=320&Type=search", "url2": "https://www.seiwakai-net.com/shirasagien" }, "geometry": { "type": "Point", "coordinates": [ 140.075886, 39.90251 ] } },
{ "type": "Feature", "properties": { "内容": "グループホーム　ホプシー【認知症対応型共同生活介護】潟上市天王字上北野71-8", "url": "https://www.kaigokensaku.mhlw.go.jp/05/index.php?action_kouhyou_detail_004_kani=true&JigyosyoCd=0572308005-00&ServiceCd=320&Type=search", "url2": "http://www.hoopsii.com" }, "geometry": { "type": "Point", "coordinates": [ 140.041849299999967, 39.8211674 ] } },
{ "type": "Feature", "properties": { "内容": "グループホーム恵の里【認知症対応型共同生活介護】秋田県潟上市天王字棒沼台２８７－１１", "url": "https://www.kaigokensaku.mhlw.go.jp/05/index.php?action_kouhyou_detail_004_kani=true&JigyosyoCd=0572307999-00&ServiceCd=320&Type=search", "url2": "http://megumino-sato.net" }, "geometry": { "type": "Point", "coordinates": [ 140.012484399999948, 39.8602567 ] } },
{ "type": "Feature", "properties": { "内容": "グループホーム　まめだすか【認知症対応型共同生活介護】秋田県潟上市昭和大久保字街道下１１９", "url": "https://www.kaigokensaku.mhlw.go.jp/05/index.php?action_kouhyou_detail_004_kani=true&JigyosyoCd=0572306934-00&ServiceCd=320&Type=search", "url2": "http://www.seiwakai-net.com" }, "geometry": { "type": "Point", "coordinates": [ 140.060299, 39.8714008 ] } },
{ "type": "Feature", "properties": { "内容": "グループホーム　昭和【認知症対応型共同生活介護】秋田県潟上市昭和大久保字北野街道上56番地15グループホーム昭和", "url": "https://www.kaigokensaku.mhlw.go.jp/05/index.php?action_kouhyou_detail_004_kani=true&JigyosyoCd=0591000047-00&ServiceCd=320&Type=search", "url2": null }, "geometry": { "type": "Point", "coordinates": [ 140.043822699999964, 39.848611499999983 ] } },
{ "type": "Feature", "properties": { "内容": "グループホーム　梅の里【認知症対応型共同生活介護】秋田県潟上市飯田川下虻川字八ツ口49番地2", "url": "https://www.kaigokensaku.mhlw.go.jp/05/index.php?action_kouhyou_detail_004_kani=true&JigyosyoCd=0591000054-00&ServiceCd=320&Type=search", "url2": null }, "geometry": { "type": "Point", "coordinates": [ 140.072134099999971, 39.8840663 ] } },
{ "type": "Feature", "properties": { "内容": "グループホームハートライフ【認知症対応型共同生活介護】秋田県大仙市大曲日の出町１丁目４２番２２号", "url": "https://www.kaigokensaku.mhlw.go.jp/05/index.php?action_kouhyou_detail_004_kani=true&JigyosyoCd=0590800512-00&ServiceCd=320&Type=search", "url2": null }, "geometry": { "type": "Point", "coordinates": [ 140.4758946, 39.4440159 ] } },
{ "type": "Feature", "properties": { "内容": "グループホームありす刈和野【認知症対応型共同生活介護】秋田県大仙市刈和野字愛宕下　８５番地", "url": "https://www.kaigokensaku.mhlw.go.jp/05/index.php?action_kouhyou_detail_004_kani=true&JigyosyoCd=0572607380-00&ServiceCd=320&Type=search", "url2": "http://hakuzinkai.jp/" }, "geometry": { "type": "Point", "coordinates": [ 140.374171199999978, 39.544799 ] } },
{ "type": "Feature", "properties": { "内容": "グループホーム　仙北ふくし苑【認知症対応型共同生活介護】秋田県大仙市堀見内字穴沢１６番地", "url": "https://www.kaigokensaku.mhlw.go.jp/05/index.php?action_kouhyou_detail_004_kani=true&JigyosyoCd=0572608834-00&ServiceCd=320&Type=search", "url2": "https://r.goope.jp/fukusien/" }, "geometry": { "type": "Point", "coordinates": [ 140.539467, 39.4861379 ] } },
{ "type": "Feature", "properties": { "内容": "えがお上大町【認知症対応型共同生活介護】秋田県大仙市大曲上大町10番12号えがお上大町", "url": "https://www.kaigokensaku.mhlw.go.jp/05/index.php?action_kouhyou_detail_004_kani=true&JigyosyoCd=0590800397-00&ServiceCd=320&Type=search", "url2": "http://egao.main.jp/" }, "geometry": { "type": "Point", "coordinates": [ 140.477596400000039, 39.4582286 ] } },
{ "type": "Feature", "properties": { "内容": "グループホーム　大仙ふくし苑【認知症対応型共同生活介護】秋田県大仙市福田字穴沢97番地1", "url": "https://www.kaigokensaku.mhlw.go.jp/05/index.php?action_kouhyou_detail_004_kani=true&JigyosyoCd=0590800256-00&ServiceCd=320&Type=search", "url2": "https://r.goope.jp/fukusien/photo" }, "geometry": { "type": "Point", "coordinates": [ 140.5363784, 39.4871961 ] } },
{ "type": "Feature", "properties": { "内容": "グループホームひかり【認知症対応型共同生活介護】大仙市藤木字東八圭２１－１", "url": "https://www.kaigokensaku.mhlw.go.jp/05/index.php?action_kouhyou_detail_004_kani=true&JigyosyoCd=0570807859-00&ServiceCd=320&Type=search", "url2": "http://www.fine-care.co.jp/" }, "geometry": { "type": "Point", "coordinates": [ 140.48498440000003, 39.41012 ] } },
{ "type": "Feature", "properties": { "内容": "グループホーム西仙【認知症対応型共同生活介護】秋田県大仙市刈和野字愛宕下54番地１", "url": "https://www.kaigokensaku.mhlw.go.jp/05/index.php?action_kouhyou_detail_004_kani=true&JigyosyoCd=0590800264-00&ServiceCd=320&Type=search", "url2": "http://www.warmheart-akita.com/" }, "geometry": { "type": "Point", "coordinates": [ 140.375447247885148, 39.544844679183157 ] } },
{ "type": "Feature", "properties": { "内容": "グループホームおおた【認知症対応型共同生活介護】秋田県大仙市太田町斉内字中田201", "url": "https://www.kaigokensaku.mhlw.go.jp/05/index.php?action_kouhyou_detail_004_kani=true&JigyosyoCd=0572610129-00&ServiceCd=320&Type=search", "url2": "https://kaigosien-kitaura.jimdofree.com/" }, "geometry": { "type": "Point", "coordinates": [ 140.608474200000046, 39.5333503 ] } },
{ "type": "Feature", "properties": { "内容": "グループホーム　すまいる中仙【認知症対応型共同生活介護】秋田県大仙市下鶯野字大谷１５１番地", "url": "https://www.kaigokensaku.mhlw.go.jp/05/index.php?action_kouhyou_detail_004_kani=true&JigyosyoCd=0570812644-00&ServiceCd=320&Type=search", "url2": "http://www.kennan-cs.co.jp" }, "geometry": { "type": "Point", "coordinates": [ 140.4754481, 39.4530882 ] } },
{ "type": "Feature", "properties": { "内容": "グループホーム　やまゆりの家【認知症対応型共同生活介護】秋田県大仙市南外字下木直５１９番地４", "url": "https://www.kaigokensaku.mhlw.go.jp/05/index.php?action_kouhyou_detail_004_kani=true&JigyosyoCd=0572608230-00&ServiceCd=320&Type=search", "url2": null }, "geometry": { "type": "Point", "coordinates": [ 140.393650200000025, 39.4801186 ] } },
{ "type": "Feature", "properties": { "内容": "グループホームさんぽみち中仙【認知症対応型共同生活介護】秋田県大仙市長野字太田袋１－１", "url": "https://www.kaigokensaku.mhlw.go.jp/05/index.php?action_kouhyou_detail_004_kani=true&JigyosyoCd=0570812610-00&ServiceCd=320&Type=search", "url2": null }, "geometry": { "type": "Point", "coordinates": [ 140.5354486, 39.5352318 ] } },
{ "type": "Feature", "properties": { "内容": "認知症対応型共同生活介護　グループホーム星宮【認知症対応型共同生活介護】秋田県大仙市横堀字星宮66-3グループホーム星宮", "url": "https://www.kaigokensaku.mhlw.go.jp/05/index.php?action_kouhyou_detail_004_kani=true&JigyosyoCd=0590800447-00&ServiceCd=320&Type=search", "url2": "https://www.fukuju-2910.com/" }, "geometry": { "type": "Point", "coordinates": [ 140.5325391, 39.491661 ] } },
{ "type": "Feature", "properties": { "内容": "グループホーム太田ふくし苑【認知症対応型共同生活介護】秋田県大仙市太田町横沢字久保関北716番地1", "url": "https://www.kaigokensaku.mhlw.go.jp/05/index.php?action_kouhyou_detail_004_kani=true&JigyosyoCd=0570811349-00&ServiceCd=320&Type=search", "url2": null }, "geometry": { "type": "Point", "coordinates": [ 140.598851, 39.5118442 ] } },
{ "type": "Feature", "properties": { "内容": "グループホーム福寿草【認知症対応型共同生活介護】秋田県大仙市福田字川原道下５５－１", "url": "https://www.kaigokensaku.mhlw.go.jp/05/index.php?action_kouhyou_detail_004_kani=true&JigyosyoCd=0572609105-00&ServiceCd=320&Type=search", "url2": "https://www.fukuju-2910.com/" }, "geometry": { "type": "Point", "coordinates": [ 140.543055500000037, 39.4861019 ] } },
{ "type": "Feature", "properties": { "内容": "えがお杉矢崎　上大町館【認知症対応型共同生活介護】秋田県大仙市大曲上大町１０番11号", "url": "https://www.kaigokensaku.mhlw.go.jp/05/index.php?action_kouhyou_detail_004_kani=true&JigyosyoCd=0570813519-00&ServiceCd=320&Type=search", "url2": "http://egao.main.jp/" }, "geometry": { "type": "Point", "coordinates": [ 140.477334104468554, 39.458541518511169 ] } },
{ "type": "Feature", "properties": { "内容": "グループホーム元気の家【認知症対応型共同生活介護】秋田県大仙市大曲上栄町5番1号グループホーム元気の家", "url": "https://www.kaigokensaku.mhlw.go.jp/05/index.php?action_kouhyou_detail_004_kani=true&JigyosyoCd=0590800496-00&ServiceCd=320&Type=search", "url2": "https://www.genkidenet.co.jp" }, "geometry": { "type": "Point", "coordinates": [ 140.475761439425639, 39.450667903166064 ] } },
{ "type": "Feature", "properties": { "内容": "グループホーム大仙大曲【認知症対応型共同生活介護】秋田県大仙市大曲字福辺内３番地１", "url": "https://www.kaigokensaku.mhlw.go.jp/05/index.php?action_kouhyou_detail_004_kani=true&JigyosyoCd=0570809822-00&ServiceCd=320&Type=search", "url2": null }, "geometry": { "type": "Point", "coordinates": [ 140.491393400000021, 39.453477300000017 ] } },
{ "type": "Feature", "properties": { "内容": "グループホームほほえみの家【認知症対応型共同生活介護】秋田県大仙市戸地谷字川前２０９番地２", "url": "https://www.kaigokensaku.mhlw.go.jp/05/index.php?action_kouhyou_detail_004_kani=true&JigyosyoCd=0572608479-00&ServiceCd=320&Type=search", "url2": null }, "geometry": { "type": "Point", "coordinates": [ 140.4931623, 39.4646346 ] } },
{ "type": "Feature", "properties": { "内容": "グループホーム　ふぁみりぃ【認知症対応型共同生活介護】秋田県大仙市四ツ屋字上古道199-1", "url": "https://www.kaigokensaku.mhlw.go.jp/05/index.php?action_kouhyou_detail_004_kani=true&JigyosyoCd=0570812461-00&ServiceCd=320&Type=search", "url2": null }, "geometry": { "type": "Point", "coordinates": [ 140.50083189999998, 39.4958332 ] } },
{ "type": "Feature", "properties": { "内容": "グループホームのぞみ【認知症対応型共同生活介護】秋田県大仙市大曲西根字鳥居５７－１", "url": "https://www.kaigokensaku.mhlw.go.jp/05/index.php?action_kouhyou_detail_004_kani=true&JigyosyoCd=0570807644-00&ServiceCd=320&Type=search", "url2": null }, "geometry": { "type": "Point", "coordinates": [ 140.448626200000035, 39.454604300000014 ] } },
{ "type": "Feature", "properties": { "内容": "グループホーム　大花【認知症対応型共同生活介護】秋田県大仙市大花町5-26", "url": "https://www.kaigokensaku.mhlw.go.jp/05/index.php?action_kouhyou_detail_004_kani=true&JigyosyoCd=0590800355-00&ServiceCd=320&Type=search", "url2": "http://www.fine-care.co.jp/" }, "geometry": { "type": "Point", "coordinates": [ 140.483385994967648, 39.46763802405529 ] } },
{ "type": "Feature", "properties": { "内容": "えがお大曲【認知症対応型共同生活介護】秋田県大仙市大曲花園町21番19号", "url": "https://www.kaigokensaku.mhlw.go.jp/05/index.php?action_kouhyou_detail_004_kani=true&JigyosyoCd=0570809723-00&ServiceCd=320&Type=search", "url2": "http://egao.main.jp/" }, "geometry": { "type": "Point", "coordinates": [ 140.472249530441331, 39.454269295830976 ] } },
{ "type": "Feature", "properties": { "内容": "えがお神宮寺【認知症対応型共同生活介護】秋田県大仙市神宮寺字上栗谷田６７番５", "url": "https://www.kaigokensaku.mhlw.go.jp/05/index.php?action_kouhyou_detail_004_kani=true&JigyosyoCd=0572609246-00&ServiceCd=320&Type=search", "url2": "http://egao.main.jp/" }, "geometry": { "type": "Point", "coordinates": [ 140.427153699999963, 39.4971993 ] } },
{ "type": "Feature", "properties": { "内容": "グループホーム大曲はなぞの【認知症対応型共同生活介護】秋田県大仙市大曲花園町２５－２８", "url": "https://www.kaigokensaku.mhlw.go.jp/05/index.php?action_kouhyou_detail_004_kani=true&JigyosyoCd=0570809160-00&ServiceCd=320&Type=search", "url2": null }, "geometry": { "type": "Point", "coordinates": [ 140.470768099999987, 39.4528798 ] } },
{ "type": "Feature", "properties": { "内容": "グループホーム　あったか荘【認知症対応型共同生活介護】秋田県大仙市角間川町字前田1-2", "url": "https://www.kaigokensaku.mhlw.go.jp/05/index.php?action_kouhyou_detail_004_kani=true&JigyosyoCd=0590800298-00&ServiceCd=320&Type=search", "url2": "https://www.akita-yuai.jp/" }, "geometry": { "type": "Point", "coordinates": [ 140.48233193558201, 39.399321926534128 ] } },
{ "type": "Feature", "properties": { "内容": "グループホーム桜木荘【認知症対応型共同生活介護】秋田県大仙市協和船岡字上宇津野249番地1", "url": "https://www.kaigokensaku.mhlw.go.jp/05/index.php?action_kouhyou_detail_004_kani=true&JigyosyoCd=0570812362-00&ServiceCd=320&Type=search", "url2": null }, "geometry": { "type": "Point", "coordinates": [ 140.3467071, 39.6554697 ] } },
{ "type": "Feature", "properties": { "内容": "グループホーム　バンドー北欧の里【認知症対応型共同生活介護】秋田県北秋田市下杉字上清水沢１５－１", "url": "https://www.kaigokensaku.mhlw.go.jp/05/index.php?action_kouhyou_detail_004_kani=true&JigyosyoCd=0572108645-00&ServiceCd=320&Type=search", "url2": "http://www.bwfg.co.jp/" }, "geometry": { "type": "Point", "coordinates": [ 140.359211800000026, 40.1726661 ] } },
{ "type": "Feature", "properties": { "内容": "グループホーム　もりの家【認知症対応型共同生活介護】秋田県北秋田市米内沢字柳原14番地4号", "url": "https://www.kaigokensaku.mhlw.go.jp/05/index.php?action_kouhyou_detail_004_kani=true&JigyosyoCd=0572108926-00&ServiceCd=320&Type=search", "url2": "http://www.akita-kouraku.jp/" }, "geometry": { "type": "Point", "coordinates": [ 140.374668499999984, 40.1267799 ] } },
{ "type": "Feature", "properties": { "内容": "グループホームあいかわ【認知症対応型共同生活介護】秋田県北秋田市新田目字大野5番地1", "url": "https://www.kaigokensaku.mhlw.go.jp/05/index.php?action_kouhyou_detail_004_kani=true&JigyosyoCd=0591100078-00&ServiceCd=320&Type=search", "url2": null }, "geometry": { "type": "Point", "coordinates": [ 140.326601500000038, 40.1591669 ] } },
{ "type": "Feature", "properties": { "内容": "グループホーム　あにの里【認知症対応型共同生活介護】秋田県北秋田市阿仁銀山字上新町80-7", "url": "https://www.kaigokensaku.mhlw.go.jp/05/index.php?action_kouhyou_detail_004_kani=true&JigyosyoCd=0591100060-00&ServiceCd=320&Type=search", "url2": null }, "geometry": { "type": "Point", "coordinates": [ 140.402941100000021, 39.9971937 ] } },
{ "type": "Feature", "properties": { "内容": "たかのすケアセンターそよ風　認知症対応型共同生活介護【認知症対応型共同生活介護】秋田県北秋田市米代町5-4", "url": "https://www.kaigokensaku.mhlw.go.jp/05/index.php?action_kouhyou_detail_004_kani=true&JigyosyoCd=0591100045-00&ServiceCd=320&Type=search", "url2": null }, "geometry": { "type": "Point", "coordinates": [ 140.366203400000018, 40.223446 ] } },
{ "type": "Feature", "properties": { "内容": "グループホーム桂寿あに【認知症対応型共同生活介護】秋田県北秋田市阿仁水無字宮後４", "url": "https://www.kaigokensaku.mhlw.go.jp/05/index.php?action_kouhyou_detail_004_kani=true&JigyosyoCd=0572108041-00&ServiceCd=320&Type=search", "url2": "http://ani-fukushi.jp/" }, "geometry": { "type": "Point", "coordinates": [ 140.405182909262038, 40.002217010140519 ] } },
{ "type": "Feature", "properties": { "内容": "グループホームすいーだ【認知症対応型共同生活介護】秋田県北秋田市綴子字太田屋敷後90", "url": "https://www.kaigokensaku.mhlw.go.jp/05/index.php?action_kouhyou_detail_004_kani=true&JigyosyoCd=0591100151-00&ServiceCd=320&Type=search", "url2": "https://www.cedar-care.com/company/furniture.html" }, "geometry": { "type": "Point", "coordinates": [ 140.392139305557293, 40.239720086851769 ] } },
{ "type": "Feature", "properties": { "内容": "グループホームふなみ【認知症対応型共同生活介護】秋田県北秋田市鷹巣字本屋敷１１４番地３", "url": "https://www.kaigokensaku.mhlw.go.jp/05/index.php?action_kouhyou_detail_004_kani=true&JigyosyoCd=0591100011-00&ServiceCd=320&Type=search", "url2": "http://www.kitaakita-shakyo.or.jp" }, "geometry": { "type": "Point", "coordinates": [ 140.363567699999976, 40.2201907 ] } },
{ "type": "Feature", "properties": { "内容": "たかのす社協つづれこ認知症対応型共同生活介護事業所【認知症対応型共同生活介護】秋田県北秋田市綴子字大堤家後２６番地３", "url": "https://www.kaigokensaku.mhlw.go.jp/05/index.php?action_kouhyou_detail_004_kani=true&JigyosyoCd=0571111244-00&ServiceCd=320&Type=search", "url2": "https://kitaakita-shakyo.jp/" }, "geometry": { "type": "Point", "coordinates": [ 140.383205778712409, 40.254612948106114 ] } },
{ "type": "Feature", "properties": { "内容": "安心サポート仁賀保指定認知症対応型共同生活介護事業所【認知症対応型共同生活介護】秋田県にかほ市平沢字宝田32", "url": "https://www.kaigokensaku.mhlw.go.jp/05/index.php?action_kouhyou_detail_004_kani=true&JigyosyoCd=0572509008-00&ServiceCd=320&Type=search", "url2": null }, "geometry": { "type": "Point", "coordinates": [ 139.9622018, 39.2832571 ] } },
{ "type": "Feature", "properties": { "内容": "グループホームかがやき【認知症対応型共同生活介護】秋田県にかほ市三森字午ノ浜126-1", "url": "https://www.kaigokensaku.mhlw.go.jp/05/index.php?action_kouhyou_detail_004_kani=true&JigyosyoCd=0590500088-00&ServiceCd=320&Type=search", "url2": "https://hinatabokko-kg.com" }, "geometry": { "type": "Point", "coordinates": [ 139.943267099999957, 39.2856287 ] } },
{ "type": "Feature", "properties": { "内容": "グループホーム花みづき【認知症対応型共同生活介護】秋田県仙北市角館町白岩新西野202番地2", "url": "https://www.kaigokensaku.mhlw.go.jp/05/index.php?action_kouhyou_detail_004_kani=true&JigyosyoCd=0591200126-00&ServiceCd=320&Type=search", "url2": null }, "geometry": { "type": "Point", "coordinates": [ 140.608347400000014, 39.5875645 ] } },
{ "type": "Feature", "properties": { "内容": "グループホームたんぽぽ【認知症対応型共同生活介護】仙北市角館町薗田別当村211", "url": "https://www.kaigokensaku.mhlw.go.jp/05/index.php?action_kouhyou_detail_004_kani=true&JigyosyoCd=0572607448-00&ServiceCd=320&Type=search", "url2": null }, "geometry": { "type": "Point", "coordinates": [ 140.589347099999941, 39.5876426 ] } },
{ "type": "Feature", "properties": { "内容": "認知症対応型共同生活介護事業所　田沢の家【認知症対応型共同生活介護】秋田県仙北市田沢湖生保内字上清水698番地", "url": "https://www.kaigokensaku.mhlw.go.jp/05/index.php?action_kouhyou_detail_004_kani=true&JigyosyoCd=0571213958-00&ServiceCd=320&Type=search", "url2": "http://www.tazawanosato.jp" }, "geometry": { "type": "Point", "coordinates": [ 140.715391822615061, 39.698886160872306 ] } },
{ "type": "Feature", "properties": { "内容": "グループホーム　ふれあい【認知症対応型共同生活介護】秋田県仙北市田沢湖神代字街道南237", "url": "https://www.kaigokensaku.mhlw.go.jp/05/index.php?action_kouhyou_detail_004_kani=true&JigyosyoCd=0572612877-00&ServiceCd=320&Type=search", "url2": null }, "geometry": { "type": "Point", "coordinates": [ 140.603497282556191, 39.614239234011805 ] } },
{ "type": "Feature", "properties": { "内容": "グループホーム優優【認知症対応型共同生活介護】秋田県仙北市田沢湖生保内字街道の上３６－８", "url": "https://www.kaigokensaku.mhlw.go.jp/05/index.php?action_kouhyou_detail_004_kani=true&JigyosyoCd=0572609220-00&ServiceCd=320&Type=search", "url2": "http://sh-deai.net/" }, "geometry": { "type": "Point", "coordinates": [ 140.726338400000031, 39.7011079 ] } },
{ "type": "Feature", "properties": { "内容": "グループホーム角館【認知症対応型共同生活介護】秋田県仙北市角館町勝楽122-1", "url": "https://www.kaigokensaku.mhlw.go.jp/05/index.php?action_kouhyou_detail_004_kani=true&JigyosyoCd=0591200084-00&ServiceCd=320&Type=search", "url2": "https://www.fukuju-2910.com/" }, "geometry": { "type": "Point", "coordinates": [ 140.565831172701536, 39.586905481604923 ] } },
{ "type": "Feature", "properties": { "内容": "グループホーム笑んむすび【認知症対応型共同生活介護】秋田県仙北市西木町西明寺堂村69-2グループホーム笑んむすび", "url": "https://www.kaigokensaku.mhlw.go.jp/05/index.php?action_kouhyou_detail_004_kani=true&JigyosyoCd=0591200118-00&ServiceCd=320&Type=search", "url2": null }, "geometry": { "type": "Point", "coordinates": [ 140.572086, 39.6764143 ] } },
{ "type": "Feature", "properties": { "内容": "社会福祉法人　寿光会　ぐるーぷほーむ「こさか」【認知症対応型共同生活介護】秋田県鹿角郡小坂町小坂字上前田16-11", "url": "https://www.kaigokensaku.mhlw.go.jp/05/index.php?action_kouhyou_detail_004_kani=true&JigyosyoCd=0593000045-00&ServiceCd=320&Type=search", "url2": null }, "geometry": { "type": "Point", "coordinates": [ 140.7396635, 40.326121 ] } },
{ "type": "Feature", "properties": { "内容": "グループホーム美里園【認知症対応型共同生活介護】秋田県山本郡藤里町藤琴字家の後135-5", "url": "https://www.kaigokensaku.mhlw.go.jp/05/index.php?action_kouhyou_detail_004_kani=true&JigyosyoCd=0593200132-00&ServiceCd=320&Type=search", "url2": "https://fujisato-shakyo.jp/" }, "geometry": { "type": "Point", "coordinates": [ 140.262343, 40.276235 ] } },
{ "type": "Feature", "properties": { "内容": "有限会社シャトルグループホームのぞみ【認知症対応型共同生活介護】秋田県山本郡三種町鹿渡字東二本柳４８－９", "url": "https://www.kaigokensaku.mhlw.go.jp/05/index.php?action_kouhyou_detail_004_kani=true&JigyosyoCd=0572213734-00&ServiceCd=320&Type=search", "url2": null }, "geometry": { "type": "Point", "coordinates": [ 140.081879599999979, 40.0441273 ] } },
{ "type": "Feature", "properties": { "内容": "グループホーム　せきれい苑【認知症対応型共同生活介護】秋田県山本郡三種町鯉川字内鯉川108－4", "url": "https://www.kaigokensaku.mhlw.go.jp/05/index.php?action_kouhyou_detail_004_kani=true&JigyosyoCd=0572214054-00&ServiceCd=320&Type=search", "url2": "https://sekirei-corp.jp" }, "geometry": { "type": "Point", "coordinates": [ 140.081940199999963, 40.0036459 ] } },
{ "type": "Feature", "properties": { "内容": "グループホーム　さわらび【認知症対応型共同生活介護】秋田県山本郡三種町浜田字上浜田1番地2", "url": "https://www.kaigokensaku.mhlw.go.jp/05/index.php?action_kouhyou_detail_004_kani=true&JigyosyoCd=0592200117-00&ServiceCd=320&Type=search", "url2": "http://www.tokushukai.or.jp/hsplc_dragon/index.html" }, "geometry": { "type": "Point", "coordinates": [ 139.998306599999978, 40.1031176 ] } },
{ "type": "Feature", "properties": { "内容": "ケアセンターほほえみ【認知症対応型共同生活介護】秋田県山本郡三種町森岳字木戸沢１１５－１０", "url": "https://www.kaigokensaku.mhlw.go.jp/05/index.php?action_kouhyou_detail_004_kani=true&JigyosyoCd=0572210367-00&ServiceCd=320&Type=search", "url2": "http://www.cc-hohoemi.co.jp" }, "geometry": { "type": "Point", "coordinates": [ 140.092814119573973, 40.088052519417595 ] } },
{ "type": "Feature", "properties": { "内容": "グループホーム　いしくら【認知症対応型共同生活介護】秋田県山本郡三種町森岳字高田２１－７", "url": "https://www.kaigokensaku.mhlw.go.jp/05/index.php?action_kouhyou_detail_004_kani=true&JigyosyoCd=0592200083-00&ServiceCd=320&Type=search", "url2": null }, "geometry": { "type": "Point", "coordinates": [ 140.080235499999958, 40.0993538 ] } },
{ "type": "Feature", "properties": { "内容": "やすらぎホーム　希望の家【認知症対応型共同生活介護】秋田県山本郡三種町鹿渡字町後256", "url": "https://www.kaigokensaku.mhlw.go.jp/05/index.php?action_kouhyou_detail_004_kani=true&JigyosyoCd=0572206944-00&ServiceCd=320&Type=search", "url2": "http://kibo-en.or.jp/" }, "geometry": { "type": "Point", "coordinates": [ 140.075251922090132, 40.040162765180646 ] } },
{ "type": "Feature", "properties": { "内容": "グループホーム　　茜【認知症対応型共同生活介護】秋田県山本郡三種町森岳字街道東２２２－６", "url": "https://www.kaigokensaku.mhlw.go.jp/05/index.php?action_kouhyou_detail_004_kani=true&JigyosyoCd=0572210110-00&ServiceCd=320&Type=search", "url2": "http://seseragiyunosato.com" }, "geometry": { "type": "Point", "coordinates": [ 140.07957220000003, 40.084447300000015 ] } },
{ "type": "Feature", "properties": { "内容": "グループホーム　湯の里【認知症対応型共同生活介護】秋田県山本郡三種町森岳字木戸沢１９９－７０有限会社　湯の里", "url": "https://www.kaigokensaku.mhlw.go.jp/05/index.php?action_kouhyou_detail_004_kani=true&JigyosyoCd=0572207827-00&ServiceCd=320&Type=search", "url2": "http://www.seseragiyunosato.com/" }, "geometry": { "type": "Point", "coordinates": [ 140.0951344, 40.0838589 ] } },
{ "type": "Feature", "properties": { "内容": "有限会社シャトル　グループホームことおか【認知症対応型共同生活介護】秋田県山本郡三種町鹿渡字千刈田２５５－１", "url": "https://www.kaigokensaku.mhlw.go.jp/05/index.php?action_kouhyou_detail_004_kani=true&JigyosyoCd=0592200042-00&ServiceCd=320&Type=search", "url2": null }, "geometry": { "type": "Point", "coordinates": [ 140.082059699999945, 40.0517875 ] } },
{ "type": "Feature", "properties": { "内容": "グループホーム親孝の里【認知症対応型共同生活介護】秋田県山本郡八峰町八森字中浜1-13", "url": "https://www.kaigokensaku.mhlw.go.jp/05/index.php?action_kouhyou_detail_004_kani=true&JigyosyoCd=0592200091-00&ServiceCd=320&Type=search", "url2": null }, "geometry": { "type": "Point", "coordinates": [ 140.015231800000038, 40.3661363 ] } },
{ "type": "Feature", "properties": { "内容": "グループホーム水沢の里【認知症対応型共同生活介護】秋田県山本郡八峰町峰浜水沢字三ツ森カッチキ台３－１", "url": "https://www.kaigokensaku.mhlw.go.jp/05/index.php?action_kouhyou_detail_004_kani=true&JigyosyoCd=0572208916-00&ServiceCd=320&Type=search", "url2": null }, "geometry": { "type": "Point", "coordinates": [ 140.038635600000021, 40.2931157 ] } },
{ "type": "Feature", "properties": { "内容": "グループホームふる里【認知症対応型共同生活介護】秋田県山本郡八峰町峰浜田中字立花21番地", "url": "https://www.kaigokensaku.mhlw.go.jp/05/index.php?action_kouhyou_detail_004_kani=true&JigyosyoCd=0572209393-00&ServiceCd=320&Type=search", "url2": null }, "geometry": { "type": "Point", "coordinates": [ 140.042296699999952, 40.283911600000017 ] } },
{ "type": "Feature", "properties": { "内容": "グループホーム花梨【認知症対応型共同生活介護】秋田県山本郡山本郡八峰町峰浜田中字上台72番1", "url": "https://www.kaigokensaku.mhlw.go.jp/05/index.php?action_kouhyou_detail_004_kani=true&JigyosyoCd=0572213759-00&ServiceCd=320&Type=search", "url2": null }, "geometry": { "type": "Point", "coordinates": [ 140.042546799999968, 40.2822119 ] } },
{ "type": "Feature", "properties": { "内容": "グループホーム松峰園【認知症対応型共同生活介護】秋田県山本郡八峰町峰浜水沢字下カッチキ台４１－５８", "url": "https://www.kaigokensaku.mhlw.go.jp/05/index.php?action_kouhyou_detail_004_kani=true&JigyosyoCd=0572212678-00&ServiceCd=320&Type=search", "url2": "https://www.shouhouen.co.jp" }, "geometry": { "type": "Point", "coordinates": [ 140.02995020000003, 40.2988951 ] } },
{ "type": "Feature", "properties": { "内容": "グループホーム　湯の越の家【認知症対応型共同生活介護】秋田県南秋田郡五城目町内川浅見内字後田125-5", "url": "https://www.kaigokensaku.mhlw.go.jp/05/index.php?action_kouhyou_detail_004_kani=true&JigyosyoCd=0572308690-00&ServiceCd=320&Type=search", "url2": null }, "geometry": { "type": "Point", "coordinates": [ 140.170215399999961, 39.9734762 ] } },
{ "type": "Feature", "properties": { "内容": "グループホーム　すずめだて【認知症対応型共同生活介護】秋田県南秋田郡五城目町高崎字雀舘下川原８８－５", "url": "https://www.kaigokensaku.mhlw.go.jp/05/index.php?action_kouhyou_detail_004_kani=true&JigyosyoCd=0572308013-00&ServiceCd=320&Type=search", "url2": null }, "geometry": { "type": "Point", "coordinates": [ 140.123593600000049, 39.9425646 ] } },
{ "type": "Feature", "properties": { "内容": "グループホーム　けやき【認知症対応型共同生活介護】秋田県南秋田郡八郎潟町夜叉袋字中羽立７４番地の１０", "url": "https://www.kaigokensaku.mhlw.go.jp/05/index.php?action_kouhyou_detail_004_kani=true&JigyosyoCd=0572307601-00&ServiceCd=320&Type=search", "url2": "http://www.facebook.com/ghkeyaki" }, "geometry": { "type": "Point", "coordinates": [ 140.07718449999993, 39.9518211 ] } },
{ "type": "Feature", "properties": { "内容": "グループホームあじさい仙南【認知症対応型共同生活介護】秋田県仙北郡美郷町野荒町字街道ノ上235-3", "url": "https://www.kaigokensaku.mhlw.go.jp/05/index.php?action_kouhyou_detail_004_kani=true&JigyosyoCd=0572607752-00&ServiceCd=320&Type=search", "url2": null }, "geometry": { "type": "Point", "coordinates": [ 140.560826300000031, 39.4057003 ] } },
{ "type": "Feature", "properties": { "内容": "グループホームひらきの家【認知症対応型共同生活介護】秋田県仙北郡美郷町境田字下八百刈262-1", "url": "https://www.kaigokensaku.mhlw.go.jp/05/index.php?action_kouhyou_detail_004_kani=true&JigyosyoCd=0592600118-00&ServiceCd=320&Type=search", "url2": null }, "geometry": { "type": "Point", "coordinates": [ 140.517680700000028, 39.4023688 ] } },
{ "type": "Feature", "properties": { "内容": "グループホーム美郷【認知症対応型共同生活介護】秋田県仙北郡美郷町六郷字本道町５７－６", "url": "https://www.kaigokensaku.mhlw.go.jp/05/index.php?action_kouhyou_detail_004_kani=true&JigyosyoCd=0572609519-00&ServiceCd=320&Type=search", "url2": "http://www.rotopia.or.jp/" }, "geometry": { "type": "Point", "coordinates": [ 140.546615699999961, 39.4240256 ] } },
{ "type": "Feature", "properties": { "内容": "グループホームきらら千畑【認知症対応型共同生活介護】秋田県仙北郡美郷町本堂城回字新谷尻２１４－７", "url": "https://www.kaigokensaku.mhlw.go.jp/05/index.php?action_kouhyou_detail_004_kani=true&JigyosyoCd=0572608370-00&ServiceCd=320&Type=search", "url2": "http://wakabakai.wixsite.com/wakabakai-kilala" }, "geometry": { "type": "Point", "coordinates": [ 140.596385700000042, 39.4747708 ] } },
{ "type": "Feature", "properties": { "内容": "グループホームみずほ【認知症対応型共同生活介護】秋田県仙北郡美郷町土崎字厨川67番地2", "url": "https://www.kaigokensaku.mhlw.go.jp/05/index.php?action_kouhyou_detail_004_kani=true&JigyosyoCd=0572609832-00&ServiceCd=320&Type=search", "url2": null }, "geometry": { "type": "Point", "coordinates": [ 140.5563353, 39.4652708 ] } },
{ "type": "Feature", "properties": { "内容": "グループホームやすらぎの家【認知症対応型共同生活介護】秋田県仙北郡美郷町畑屋字狐塚213番地１", "url": "https://www.kaigokensaku.mhlw.go.jp/05/index.php?action_kouhyou_detail_004_kani=true&JigyosyoCd=0572609238-00&ServiceCd=320&Type=search", "url2": null }, "geometry": { "type": "Point", "coordinates": [ 140.539251799999988, 39.4462091 ] } },
{ "type": "Feature", "properties": { "内容": "グループホームいこいの家【認知症対応型共同生活介護】秋田県仙北郡美郷町六郷字遠槻383-2", "url": "https://www.kaigokensaku.mhlw.go.jp/05/index.php?action_kouhyou_detail_004_kani=true&JigyosyoCd=0593900137-00&ServiceCd=320&Type=search", "url2": "http://yumedical.jp" }, "geometry": { "type": "Point", "coordinates": [ 140.5121911, 39.4354519 ] } },
{ "type": "Feature", "properties": { "内容": "グループホーム　サン・ピア【認知症対応型共同生活介護】秋田県仙北郡美郷町六郷字熊野118番地1号", "url": "https://www.kaigokensaku.mhlw.go.jp/05/index.php?action_kouhyou_detail_004_kani=true&JigyosyoCd=0572608990-00&ServiceCd=320&Type=search", "url2": "https://www.akita-yuai.jp/" }, "geometry": { "type": "Point", "coordinates": [ 140.551648931213322, 39.417552732668952 ] } },
{ "type": "Feature", "properties": { "内容": "グループホームみわ【認知症対応型共同生活介護】秋田県雄勝郡羽後町貝沢字拾三本塚５５番地５", "url": "https://www.kaigokensaku.mhlw.go.jp/05/index.php?action_kouhyou_detail_004_kani=true&JigyosyoCd=0572809572-00&ServiceCd=320&Type=search", "url2": "http://yumoko.web.fc2.com/" }, "geometry": { "type": "Point", "coordinates": [ 140.440698200000043, 39.1948077 ] } },
{ "type": "Feature", "properties": { "内容": "株式会社　福わらい　グループホーム西の森【認知症対応型共同生活介護】秋田県雄勝郡羽後町西馬音内字本町１０２", "url": "https://www.kaigokensaku.mhlw.go.jp/05/index.php?action_kouhyou_detail_004_kani=true&JigyosyoCd=0592800049-00&ServiceCd=320&Type=search", "url2": "http://www.fukuwarai8.jp/" }, "geometry": { "type": "Point", "coordinates": [ 140.405335199999968, 39.1992702 ] } },
{ "type": "Feature", "properties": { "内容": "グループホームやまびこ【認知症対応型共同生活介護】秋田県雄勝郡羽後町下仙道字風平97-1", "url": "https://www.kaigokensaku.mhlw.go.jp/05/index.php?action_kouhyou_detail_004_kani=true&JigyosyoCd=0572807105-00&ServiceCd=320&Type=search", "url2": null }, "geometry": { "type": "Point", "coordinates": [ 140.3199869, 39.168976 ] } },
{ "type": "Feature", "properties": { "内容": "グループホームすずらん東成瀬【認知症対応型共同生活介護】秋田県雄勝郡東成瀬村田子内字上野７６番３", "url": "https://www.kaigokensaku.mhlw.go.jp/05/index.php?action_kouhyou_detail_004_kani=true&JigyosyoCd=0592800072-00&ServiceCd=320&Type=search", "url2": null }, "geometry": { "type": "Point", "coordinates": [ 140.652842299999946, 39.1793746 ] } }
]
}
