{
"type": "FeatureCollection",
"name": "geo_05_地域密着型通所介護",
"crs": { "type": "name", "properties": { "name": "urn:ogc:def:crs:OGC:1.3:CRS84" } },
"features": [
{ "type": "Feature", "properties": { "内容": "デイサービス拓稜【地域密着型通所介護】秋田県秋田市土崎港南２－４－４０", "url2": "https://www.kaigokensaku.mhlw.go.jp/05/index.php?action_kouhyou_detail_004_kani=true&JigyosyoCd=0590101366-00&ServiceCd=780&Type=search" }, "geometry": { "type": "Point", "coordinates": [ 140.071658179762267, 39.748347729064577 ] } },
{ "type": "Feature", "properties": { "内容": "GENKINEXT秋田駅東口【地域密着型通所介護】秋田県秋田市手形字西谷地416番地１アジアマックス駅東口ビル1階", "url2": "https://www.kaigokensaku.mhlw.go.jp/05/index.php?action_kouhyou_detail_004_kani=true&JigyosyoCd=0590101374-00&ServiceCd=780&Type=search" }, "geometry": { "type": "Point", "coordinates": [ 140.1339051, 39.717358 ] } },
{ "type": "Feature", "properties": { "内容": "さくらデイサービス【地域密着型通所介護】秋田県秋田市横森四丁目９番３６号", "url2": "https://www.kaigokensaku.mhlw.go.jp/05/index.php?action_kouhyou_detail_004_kani=true&JigyosyoCd=0590101325-00&ServiceCd=780&Type=search" }, "geometry": { "type": "Point", "coordinates": [ 140.1477796, 39.7060661 ] } },
{ "type": "Feature", "properties": { "内容": "リハプライド土崎【地域密着型通所介護】秋田県秋田市土崎港中央３－５－３６", "url2": "https://www.kaigokensaku.mhlw.go.jp/05/index.php?action_kouhyou_detail_004_kani=true&JigyosyoCd=0590100905-00&ServiceCd=780&Type=search" }, "geometry": { "type": "Point", "coordinates": [ 140.068576500000063, 39.7561389 ] } },
{ "type": "Feature", "properties": { "内容": "あおぞらデイサービス千秋【地域密着型通所介護】秋田県秋田市千秋矢留町11－17", "url2": "https://www.kaigokensaku.mhlw.go.jp/05/index.php?action_kouhyou_detail_004_kani=true&JigyosyoCd=0590101259-00&ServiceCd=780&Type=search" }, "geometry": { "type": "Point", "coordinates": [ 140.120764, 39.725096 ] } },
{ "type": "Feature", "properties": { "内容": "デイズアクティブ【地域密着型通所介護】秋田県秋田市広面字樋ノ下６番地2", "url2": "https://www.kaigokensaku.mhlw.go.jp/05/index.php?action_kouhyou_detail_004_kani=true&JigyosyoCd=0590101127-00&ServiceCd=780&Type=search" }, "geometry": { "type": "Point", "coordinates": [ 140.149529199999961, 39.722989500000025 ] } },
{ "type": "Feature", "properties": { "内容": "デイサービス福多朗【地域密着型通所介護】秋田県秋田市土崎港北１丁目１３番３７号住宅型有料老人ホーム・デイサービス福多朗", "url2": "https://www.kaigokensaku.mhlw.go.jp/05/index.php?action_kouhyou_detail_004_kani=true&JigyosyoCd=0590101234-00&ServiceCd=780&Type=search" }, "geometry": { "type": "Point", "coordinates": [ 140.07907560000001, 39.7619928 ] } },
{ "type": "Feature", "properties": { "内容": "レッツ倶楽部　秋田八橋【地域密着型通所介護】秋田県秋田市八橋本町6-9-10", "url2": "https://www.kaigokensaku.mhlw.go.jp/05/index.php?action_kouhyou_detail_004_kani=true&JigyosyoCd=0590101200-00&ServiceCd=780&Type=search" }, "geometry": { "type": "Point", "coordinates": [ 140.0929245, 39.7249951 ] } },
{ "type": "Feature", "properties": { "内容": "デイ・リハスポット　ワンズライフ中央【地域密着型通所介護】秋田県秋田市千秋矢留町10番12号", "url2": "https://www.kaigokensaku.mhlw.go.jp/05/index.php?action_kouhyou_detail_004_kani=true&JigyosyoCd=0590100954-00&ServiceCd=780&Type=search" }, "geometry": { "type": "Point", "coordinates": [ 140.120993415987328, 39.724439530953752 ] } },
{ "type": "Feature", "properties": { "内容": "元氣ジム秋田山王【地域密着型通所介護】秋田県秋田市旭北栄町3-11", "url2": "https://www.kaigokensaku.mhlw.go.jp/05/index.php?action_kouhyou_detail_004_kani=true&JigyosyoCd=0590101267-00&ServiceCd=780&Type=search" }, "geometry": { "type": "Point", "coordinates": [ 140.1096104, 39.7207953 ] } },
{ "type": "Feature", "properties": { "内容": "デイサービスぬくもり山王【地域密着型通所介護】秋田県秋田市川尻町字大川反233番地の59", "url2": "https://www.kaigokensaku.mhlw.go.jp/05/index.php?action_kouhyou_detail_004_kani=true&JigyosyoCd=0590100798-00&ServiceCd=780&Type=search" }, "geometry": { "type": "Point", "coordinates": [ 140.085552199999938, 39.7136883 ] } },
{ "type": "Feature", "properties": { "内容": "デイサービス　り・あくと【地域密着型通所介護】秋田県秋田市手形字西谷地188－1西村ビル　東棟", "url2": "https://www.kaigokensaku.mhlw.go.jp/05/index.php?action_kouhyou_detail_004_kani=true&JigyosyoCd=0570122127-00&ServiceCd=780&Type=search" }, "geometry": { "type": "Point", "coordinates": [ 140.133339518730054, 39.718075288992445 ] } },
{ "type": "Feature", "properties": { "内容": "デイサービスセンターひなた【地域密着型通所介護】秋田県秋田市土崎港中央三丁目４－３９在宅福祉複合施設ひなた１Ｆ", "url2": "https://www.kaigokensaku.mhlw.go.jp/05/index.php?action_kouhyou_detail_004_kani=true&JigyosyoCd=0590100723-00&ServiceCd=780&Type=search" }, "geometry": { "type": "Point", "coordinates": [ 140.068054030688472, 39.754685125231362 ] } },
{ "type": "Feature", "properties": { "内容": "機能維持特化型デイサービスケアライフゆり【地域密着型通所介護】秋田県秋田市牛島東５丁目1-13", "url2": "https://www.kaigokensaku.mhlw.go.jp/05/index.php?action_kouhyou_detail_004_kani=true&JigyosyoCd=0590100764-00&ServiceCd=780&Type=search" }, "geometry": { "type": "Point", "coordinates": [ 140.1199, 39.6958226 ] } },
{ "type": "Feature", "properties": { "内容": "デイサービスセンターふきのとう【地域密着型通所介護】秋田県秋田市金足小泉字潟向86番地1", "url2": "https://www.kaigokensaku.mhlw.go.jp/05/index.php?action_kouhyou_detail_004_kani=true&JigyosyoCd=0570116483-00&ServiceCd=780&Type=search" }, "geometry": { "type": "Point", "coordinates": [ 140.059176324057034, 39.816636561858765 ] } },
{ "type": "Feature", "properties": { "内容": "あおぞらデイサービス桜【地域密着型通所介護】秋田県秋田市桜二丁目6番2号", "url2": "https://www.kaigokensaku.mhlw.go.jp/05/index.php?action_kouhyou_detail_004_kani=true&JigyosyoCd=0590100913-00&ServiceCd=780&Type=search" }, "geometry": { "type": "Point", "coordinates": [ 140.148274799999967, 39.7063889 ] } },
{ "type": "Feature", "properties": { "内容": "デイサービスつなぎの湯【地域密着型通所介護】秋田県秋田市寺内字イサノ119-2", "url2": "https://www.kaigokensaku.mhlw.go.jp/05/index.php?action_kouhyou_detail_004_kani=true&JigyosyoCd=0590100731-00&ServiceCd=780&Type=search" }, "geometry": { "type": "Point", "coordinates": [ 140.093686199999979, 39.7378446 ] } },
{ "type": "Feature", "properties": { "内容": "デイサービスわかば【地域密着型通所介護】秋田県秋田市中通3丁目2-38スカイパーク102", "url2": "https://www.kaigokensaku.mhlw.go.jp/05/index.php?action_kouhyou_detail_004_kani=true&JigyosyoCd=0590101192-00&ServiceCd=780&Type=search" }, "geometry": { "type": "Point", "coordinates": [ 140.117447964783452, 39.71497861432708 ] } },
{ "type": "Feature", "properties": { "内容": "デイサービスセンターのぞみ翔裕館【地域密着型通所介護】秋田県秋田市上北手荒巻字堺切48ケアホテルのぞみ翔裕館", "url2": "https://www.kaigokensaku.mhlw.go.jp/05/index.php?action_kouhyou_detail_004_kani=true&JigyosyoCd=0590101119-00&ServiceCd=780&Type=search" }, "geometry": { "type": "Point", "coordinates": [ 140.1500792, 39.6890294 ] } },
{ "type": "Feature", "properties": { "内容": "本道の街デイサービスセンター【地域密着型通所介護】秋田県秋田市柳田字川崎138", "url2": "https://www.kaigokensaku.mhlw.go.jp/05/index.php?action_kouhyou_detail_004_kani=true&JigyosyoCd=0590101333-00&ServiceCd=780&Type=search" }, "geometry": { "type": "Point", "coordinates": [ 140.1579982, 39.7317627 ] } },
{ "type": "Feature", "properties": { "内容": "あおぞらデイサービス新屋【地域密着型通所介護】秋田県秋田市新屋南浜町2-5", "url2": "https://www.kaigokensaku.mhlw.go.jp/05/index.php?action_kouhyou_detail_004_kani=true&JigyosyoCd=0570117721-00&ServiceCd=780&Type=search" }, "geometry": { "type": "Point", "coordinates": [ 140.074591448093287, 39.697211166470865 ] } },
{ "type": "Feature", "properties": { "内容": "デイ・リハスポット　西部ワンズライフ【地域密着型通所介護】秋田県秋田市新屋大川町19-85", "url2": "https://www.kaigokensaku.mhlw.go.jp/05/index.php?action_kouhyou_detail_004_kani=true&JigyosyoCd=0570122168-00&ServiceCd=780&Type=search" }, "geometry": { "type": "Point", "coordinates": [ 140.088689013893941, 39.685970400288269 ] } },
{ "type": "Feature", "properties": { "内容": "リフレッシュコア茨島【地域密着型通所介護】秋田県秋田市茨島４丁目12-43", "url2": "https://www.kaigokensaku.mhlw.go.jp/05/index.php?action_kouhyou_detail_004_kani=true&JigyosyoCd=0570112243-00&ServiceCd=780&Type=search" }, "geometry": { "type": "Point", "coordinates": [ 140.101576900000026, 39.6937747 ] } },
{ "type": "Feature", "properties": { "内容": "バイタルケア秋田南　デイサービスセンターさふらんの家【地域密着型通所介護】秋田県秋田市新屋松美ガ丘東町２－２０", "url2": "https://www.kaigokensaku.mhlw.go.jp/05/index.php?action_kouhyou_detail_004_kani=true&JigyosyoCd=0570116913-00&ServiceCd=780&Type=search" }, "geometry": { "type": "Point", "coordinates": [ 140.084316800000011, 39.7055868 ] } },
{ "type": "Feature", "properties": { "内容": "あおぞらデイサービス大住【地域密着型通所介護】秋田県秋田市大住南3丁目16-9", "url2": "https://www.kaigokensaku.mhlw.go.jp/05/index.php?action_kouhyou_detail_004_kani=true&JigyosyoCd=0570119305-00&ServiceCd=780&Type=search" }, "geometry": { "type": "Point", "coordinates": [ 140.1017187, 39.6898447 ] } },
{ "type": "Feature", "properties": { "内容": "仁井田福祉センター【地域密着型通所介護】秋田県秋田市仁井田字切上240番地1", "url2": "https://www.kaigokensaku.mhlw.go.jp/05/index.php?action_kouhyou_detail_004_kani=true&JigyosyoCd=0570115865-00&ServiceCd=780&Type=search" }, "geometry": { "type": "Point", "coordinates": [ 140.12881619999996, 39.6834689 ] } },
{ "type": "Feature", "properties": { "内容": "あおぞらデイサービス御野場【地域密着型通所介護】秋田県秋田市御野場新町一丁目１８－１", "url2": "https://www.kaigokensaku.mhlw.go.jp/05/index.php?action_kouhyou_detail_004_kani=true&JigyosyoCd=0570118034-00&ServiceCd=780&Type=search" }, "geometry": { "type": "Point", "coordinates": [ 140.117299784655756, 39.673624705433447 ] } },
{ "type": "Feature", "properties": { "内容": "デイサービスさくら家【地域密着型通所介護】秋田市仁井田福島一丁目１８－２９", "url2": "https://www.kaigokensaku.mhlw.go.jp/05/index.php?action_kouhyou_detail_004_kani=true&JigyosyoCd=0570115501-00&ServiceCd=780&Type=search" }, "geometry": { "type": "Point", "coordinates": [ 140.130277, 39.6908291 ] } },
{ "type": "Feature", "properties": { "内容": "魁聖園デイサービスセンター【地域密着型通所介護】秋田県秋田市新藤田字治郎沢52-6", "url2": "https://www.kaigokensaku.mhlw.go.jp/05/index.php?action_kouhyou_detail_004_kani=true&JigyosyoCd=0570104729-00&ServiceCd=780&Type=search" }, "geometry": { "type": "Point", "coordinates": [ 140.13805960000002, 39.7432258 ] } },
{ "type": "Feature", "properties": { "内容": "楽土デイサービス広面【地域密着型通所介護】秋田県秋田市広面字小沼古川端97-2", "url2": "https://www.kaigokensaku.mhlw.go.jp/05/index.php?action_kouhyou_detail_004_kani=true&JigyosyoCd=0570123216-00&ServiceCd=780&Type=search" }, "geometry": { "type": "Point", "coordinates": [ 140.144463500000029, 39.7147045 ] } },
{ "type": "Feature", "properties": { "内容": "ア・ラ・ヤでデイ【地域密着型通所介護】秋田県秋田市新屋比内町13-1", "url2": "https://www.kaigokensaku.mhlw.go.jp/05/index.php?action_kouhyou_detail_004_kani=true&JigyosyoCd=0570110163-00&ServiceCd=780&Type=search" }, "geometry": { "type": "Point", "coordinates": [ 140.084537800000021, 39.6787428 ] } },
{ "type": "Feature", "properties": { "内容": "デイサービスえん【地域密着型通所介護】秋田県秋田市泉中央2丁目14-6ノーベル泉105号", "url2": "https://www.kaigokensaku.mhlw.go.jp/05/index.php?action_kouhyou_detail_004_kani=true&JigyosyoCd=0590101143-00&ServiceCd=780&Type=search" }, "geometry": { "type": "Point", "coordinates": [ 140.10659720000001, 39.734192600000014 ] } },
{ "type": "Feature", "properties": { "内容": "デイサービスもみの樹【地域密着型通所介護】秋田県秋田市茨島二丁目15－70", "url2": "https://www.kaigokensaku.mhlw.go.jp/05/index.php?action_kouhyou_detail_004_kani=true&JigyosyoCd=0570115709-00&ServiceCd=780&Type=search" }, "geometry": { "type": "Point", "coordinates": [ 140.105384700000059, 39.6974133 ] } },
{ "type": "Feature", "properties": { "内容": "大学病院前デイサービス（地域密着型）【地域密着型通所介護】秋田市広面字二階堤２０－１", "url2": "https://www.kaigokensaku.mhlw.go.jp/05/index.php?action_kouhyou_detail_004_kani=true&JigyosyoCd=0570119636-00&ServiceCd=780&Type=search" }, "geometry": { "type": "Point", "coordinates": [ 140.146567900000036, 39.7321024 ] } },
{ "type": "Feature", "properties": { "内容": "にこにこリハビリデイサービス　茨島る～む【地域密着型通所介護】秋田県秋田市茨島７丁目4-26", "url2": "https://www.kaigokensaku.mhlw.go.jp/05/index.php?action_kouhyou_detail_004_kani=true&JigyosyoCd=0570122101-00&ServiceCd=780&Type=search" }, "geometry": { "type": "Point", "coordinates": [ 140.1020714, 39.6906807 ] } },
{ "type": "Feature", "properties": { "内容": "ネコロボデイサービス秋田店【地域密着型通所介護】秋田県秋田市下北手松崎字家ノ前４－４", "url2": "https://www.kaigokensaku.mhlw.go.jp/05/index.php?action_kouhyou_detail_004_kani=true&JigyosyoCd=0590101275-00&ServiceCd=780&Type=search" }, "geometry": { "type": "Point", "coordinates": [ 140.1595369, 39.7243755 ] } },
{ "type": "Feature", "properties": { "内容": "リハプライド中通【地域密着型通所介護】秋田県秋田市中通6丁目1-65PPビル１F　リハプライド中通", "url2": "https://www.kaigokensaku.mhlw.go.jp/05/index.php?action_kouhyou_detail_004_kani=true&JigyosyoCd=0570123752-00&ServiceCd=780&Type=search" }, "geometry": { "type": "Point", "coordinates": [ 140.122060458553989, 39.714255935267154 ] } },
{ "type": "Feature", "properties": { "内容": "デイサロン　リ・ライフ【地域密着型通所介護】秋田県秋田市将軍野南一丁目14-32", "url2": "https://www.kaigokensaku.mhlw.go.jp/05/index.php?action_kouhyou_detail_004_kani=true&JigyosyoCd=0570123265-00&ServiceCd=780&Type=search" }, "geometry": { "type": "Point", "coordinates": [ 140.08335434232788, 39.746157994948362 ] } },
{ "type": "Feature", "properties": { "内容": "特定非営利活動法人　希望の家【地域密着型通所介護】秋田県秋田市土崎港相染町字浜ナシ山２－２８２", "url2": "https://www.kaigokensaku.mhlw.go.jp/05/index.php?action_kouhyou_detail_004_kani=true&JigyosyoCd=0570109926-00&ServiceCd=780&Type=search" }, "geometry": { "type": "Point", "coordinates": [ 140.062076599999955, 39.7629018 ] } },
{ "type": "Feature", "properties": { "内容": "デイサービスゆうわの里【地域密着型通所介護】秋田市雄和芝野新田字寺沢2-1", "url2": "https://www.kaigokensaku.mhlw.go.jp/05/index.php?action_kouhyou_detail_004_kani=true&JigyosyoCd=0572408490-00&ServiceCd=780&Type=search" }, "geometry": { "type": "Point", "coordinates": [ 140.160854699999959, 39.6349479 ] } },
{ "type": "Feature", "properties": { "内容": "デイ・リハホーム　ワンズライフ牛島【地域密着型通所介護】秋田県秋田市牛島西一丁目４－４３", "url2": "https://www.kaigokensaku.mhlw.go.jp/05/index.php?action_kouhyou_detail_004_kani=true&JigyosyoCd=0590101077-00&ServiceCd=780&Type=search" }, "geometry": { "type": "Point", "coordinates": [ 140.11504260000001, 39.6967607 ] } },
{ "type": "Feature", "properties": { "内容": "デイサービスかどや【地域密着型通所介護】秋田県秋田市高陽幸町１－１４", "url2": "https://www.kaigokensaku.mhlw.go.jp/05/index.php?action_kouhyou_detail_004_kani=true&JigyosyoCd=0590101390-00&ServiceCd=780&Type=search" }, "geometry": { "type": "Point", "coordinates": [ 140.1060545, 39.7225666 ] } },
{ "type": "Feature", "properties": { "内容": "仁井田デイサービスセンターふきむすめ【地域密着型通所介護】秋田県秋田市仁井田字仲谷地282番地", "url2": "https://www.kaigokensaku.mhlw.go.jp/05/index.php?action_kouhyou_detail_004_kani=true&JigyosyoCd=0590101341-00&ServiceCd=780&Type=search" }, "geometry": { "type": "Point", "coordinates": [ 140.1325826, 39.6830741 ] } },
{ "type": "Feature", "properties": { "内容": "だまこ亭【地域密着型通所介護】秋田県秋田市土崎港南一丁目9番28号", "url2": "https://www.kaigokensaku.mhlw.go.jp/05/index.php?action_kouhyou_detail_004_kani=true&JigyosyoCd=0590101416-00&ServiceCd=780&Type=search" }, "geometry": { "type": "Point", "coordinates": [ 140.068025, 39.7468182 ] } },
{ "type": "Feature", "properties": { "内容": "デイサービスほくと【地域密着型通所介護】秋田県秋田市下新城中野字街道端西１１－１", "url2": "https://www.kaigokensaku.mhlw.go.jp/05/index.php?action_kouhyou_detail_004_kani=true&JigyosyoCd=0570106724-00&ServiceCd=780&Type=search" }, "geometry": { "type": "Point", "coordinates": [ 140.059611, 39.7943626 ] } },
{ "type": "Feature", "properties": { "内容": "能代親孝の里デイサービスセンター【地域密着型通所介護】秋田県能代市南元町4-69能代親孝の里", "url2": "https://www.kaigokensaku.mhlw.go.jp/05/index.php?action_kouhyou_detail_004_kani=true&JigyosyoCd=0570219832-00&ServiceCd=780&Type=search" }, "geometry": { "type": "Point", "coordinates": [ 140.032345585606805, 40.202316478155169 ] } },
{ "type": "Feature", "properties": { "内容": "かもめデイサービス【地域密着型通所介護】秋田県能代市落合字亀谷地１－２９", "url2": "https://www.kaigokensaku.mhlw.go.jp/05/index.php?action_kouhyou_detail_004_kani=true&JigyosyoCd=0570210591-00&ServiceCd=780&Type=search" }, "geometry": { "type": "Point", "coordinates": [ 140.010957700000063, 40.2309455 ] } },
{ "type": "Feature", "properties": { "内容": "デイサービスだんらん【地域密着型通所介護】秋田県能代市落合字古悪土１－２１７", "url2": "https://www.kaigokensaku.mhlw.go.jp/05/index.php?action_kouhyou_detail_004_kani=true&JigyosyoCd=0570217406-00&ServiceCd=780&Type=search" }, "geometry": { "type": "Point", "coordinates": [ 140.010080199999948, 40.2264627 ] } },
{ "type": "Feature", "properties": { "内容": "ワンダフルデイサービス【地域密着型通所介護】秋田県能代市落合字落合84-3", "url2": "https://www.kaigokensaku.mhlw.go.jp/05/index.php?action_kouhyou_detail_004_kani=true&JigyosyoCd=0570221002-00&ServiceCd=780&Type=search" }, "geometry": { "type": "Point", "coordinates": [ 140.02500120000002, 40.2309068 ] } },
{ "type": "Feature", "properties": { "内容": "あかしあデイサービス【地域密着型通所介護】秋田県能代市花園町23番5号", "url2": "https://www.kaigokensaku.mhlw.go.jp/05/index.php?action_kouhyou_detail_004_kani=true&JigyosyoCd=0570210708-00&ServiceCd=780&Type=search" }, "geometry": { "type": "Point", "coordinates": [ 140.023998799999987, 40.2003549 ] } },
{ "type": "Feature", "properties": { "内容": "こもれびデイサービス【地域密着型通所介護】秋田県能代市通町8-3", "url2": "https://www.kaigokensaku.mhlw.go.jp/05/index.php?action_kouhyou_detail_004_kani=true&JigyosyoCd=0570223990-00&ServiceCd=780&Type=search" }, "geometry": { "type": "Point", "coordinates": [ 140.022152199999937, 40.2041461 ] } },
{ "type": "Feature", "properties": { "内容": "やさしい風上町デイサービスセンター【地域密着型通所介護】秋田県能代市上町６番６号", "url2": "https://www.kaigokensaku.mhlw.go.jp/05/index.php?action_kouhyou_detail_004_kani=true&JigyosyoCd=0570209023-00&ServiceCd=780&Type=search" }, "geometry": { "type": "Point", "coordinates": [ 140.027662599999985, 40.2126146 ] } },
{ "type": "Feature", "properties": { "内容": "ＪＡふるさとデイサービスセンターだいごの里【地域密着型通所介護】秋田県横手市平鹿町醍醐字道中後28番地1", "url2": "https://www.kaigokensaku.mhlw.go.jp/05/index.php?action_kouhyou_detail_004_kani=true&JigyosyoCd=0590300471-00&ServiceCd=780&Type=search" }, "geometry": { "type": "Point", "coordinates": [ 140.5390212, 39.2508373 ] } },
{ "type": "Feature", "properties": { "内容": "AKITAトレーニングセンター【地域密着型通所介護】秋田県横手市婦気大堤字婦気前269-1", "url2": "https://www.kaigokensaku.mhlw.go.jp/05/index.php?action_kouhyou_detail_004_kani=true&JigyosyoCd=0590300414-00&ServiceCd=780&Type=search" }, "geometry": { "type": "Point", "coordinates": [ 140.5494292, 39.3020627 ] } },
{ "type": "Feature", "properties": { "内容": "デイサロン　まかな【地域密着型通所介護】秋田県横手市十文字町梨木字沖野10番地2", "url2": "https://www.kaigokensaku.mhlw.go.jp/05/index.php?action_kouhyou_detail_004_kani=true&JigyosyoCd=0590300463-00&ServiceCd=780&Type=search" }, "geometry": { "type": "Point", "coordinates": [ 140.5243007, 39.2306799 ] } },
{ "type": "Feature", "properties": { "内容": "歩行と言葉のリハビリ空間なごみ横手【地域密着型通所介護】秋田県横手市八幡字石町165番1号", "url2": "https://www.kaigokensaku.mhlw.go.jp/05/index.php?action_kouhyou_detail_004_kani=true&JigyosyoCd=0590300380-00&ServiceCd=780&Type=search" }, "geometry": { "type": "Point", "coordinates": [ 140.555158, 39.3267934 ] } },
{ "type": "Feature", "properties": { "内容": "GENKINEXT秋田横手【地域密着型通所介護】秋田県横手市赤坂字舘ノ下105-6", "url2": "https://www.kaigokensaku.mhlw.go.jp/05/index.php?action_kouhyou_detail_004_kani=true&JigyosyoCd=0590300398-00&ServiceCd=780&Type=search" }, "geometry": { "type": "Point", "coordinates": [ 140.5494605, 39.2972603 ] } },
{ "type": "Feature", "properties": { "内容": "ヘルシーアップル　アイリスデイサービスセンター【地域密着型通所介護】秋田県横手市平鹿町中吉田字竹原100-3", "url2": "https://www.kaigokensaku.mhlw.go.jp/05/index.php?action_kouhyou_detail_004_kani=true&JigyosyoCd=0590300422-00&ServiceCd=780&Type=search" }, "geometry": { "type": "Point", "coordinates": [ 140.4961749, 39.2692789 ] } },
{ "type": "Feature", "properties": { "内容": "菜康苑デイサービスセンター【地域密着型通所介護】秋田県横手市平鹿町醍醐字道中56-2シャイニータウン菜康苑　ケアステーション", "url2": "https://www.kaigokensaku.mhlw.go.jp/05/index.php?action_kouhyou_detail_004_kani=true&JigyosyoCd=0570321836-00&ServiceCd=780&Type=search" }, "geometry": { "type": "Point", "coordinates": [ 140.542757193917851, 39.249625629647049 ] } },
{ "type": "Feature", "properties": { "内容": "デイサービスごやさん【地域密着型通所介護】秋田県横手市杉沢字鶴谷地106-2", "url2": "https://www.kaigokensaku.mhlw.go.jp/05/index.php?action_kouhyou_detail_004_kani=true&JigyosyoCd=0590300356-00&ServiceCd=780&Type=search" }, "geometry": { "type": "Point", "coordinates": [ 140.564887978806041, 39.341323794949503 ] } },
{ "type": "Feature", "properties": { "内容": "デイサービスセンター　　　よつ葉【地域密着型通所介護】秋田県横手市梅の木町4-16コーポラス三葉03　103号", "url2": "https://www.kaigokensaku.mhlw.go.jp/05/index.php?action_kouhyou_detail_004_kani=true&JigyosyoCd=0570321679-00&ServiceCd=780&Type=search" }, "geometry": { "type": "Point", "coordinates": [ 140.557829276686476, 39.316455076477531 ] } },
{ "type": "Feature", "properties": { "内容": "社会福祉法人ファミリーケアサービス　横手市デイサービスセンター　シルバードームいきいきの郷【地域密着型通所介護】秋田県横手市増田町増田字七日町177", "url2": "https://www.kaigokensaku.mhlw.go.jp/05/index.php?action_kouhyou_detail_004_kani=true&JigyosyoCd=0570317107-00&ServiceCd=780&Type=search" }, "geometry": { "type": "Point", "coordinates": [ 140.5492265, 39.2033187 ] } },
{ "type": "Feature", "properties": { "内容": "デイサービスセンター　なごむ【地域密着型通所介護】秋田県横手市山内南郷字大払川139-1", "url2": "https://www.kaigokensaku.mhlw.go.jp/05/index.php?action_kouhyou_detail_004_kani=true&JigyosyoCd=0570318691-00&ServiceCd=780&Type=search" }, "geometry": { "type": "Point", "coordinates": [ 140.672240099999954, 39.2530805 ] } },
{ "type": "Feature", "properties": { "内容": "デイサービス　いきいき横手【地域密着型通所介護】秋田県横手市雄物川町沼館字昼飯塚１１", "url2": "https://www.kaigokensaku.mhlw.go.jp/05/index.php?action_kouhyou_detail_004_kani=true&JigyosyoCd=0590300281-00&ServiceCd=780&Type=search" }, "geometry": { "type": "Point", "coordinates": [ 140.431820199999947, 39.294219100000014 ] } },
{ "type": "Feature", "properties": { "内容": "デイサービスセンター　きゅあ【地域密着型通所介護】秋田県横手市前郷二番町11-15RBビル1階", "url2": "https://www.kaigokensaku.mhlw.go.jp/05/index.php?action_kouhyou_detail_004_kani=true&JigyosyoCd=0570321620-00&ServiceCd=780&Type=search" }, "geometry": { "type": "Point", "coordinates": [ 140.56401814550577, 39.306125764114952 ] } },
{ "type": "Feature", "properties": { "内容": "炭酸浴デイサービスセンター霞桜の湯【地域密着型通所介護】秋田県横手市増田町熊渕字飯館218番地", "url2": "https://www.kaigokensaku.mhlw.go.jp/05/index.php?action_kouhyou_detail_004_kani=true&JigyosyoCd=0570314989-00&ServiceCd=780&Type=search" }, "geometry": { "type": "Point", "coordinates": [ 140.5629553, 39.1950307 ] } },
{ "type": "Feature", "properties": { "内容": "社会福祉法人相和会　横手市特別養護老人ホーム鶴寿苑老人デイサービスセンター【地域密着型通所介護】秋田県横手市山内土渕字鶴ヶ池３１－３", "url2": "https://www.kaigokensaku.mhlw.go.jp/05/index.php?action_kouhyou_detail_004_kani=true&JigyosyoCd=0570317131-00&ServiceCd=780&Type=search" }, "geometry": { "type": "Point", "coordinates": [ 140.621358160713129, 39.282460169189115 ] } },
{ "type": "Feature", "properties": { "内容": "デイサービス凪(なぎ)【地域密着型通所介護】秋田県横手市十文字町上鍋倉字東坊田野13－1", "url2": "https://www.kaigokensaku.mhlw.go.jp/05/index.php?action_kouhyou_detail_004_kani=true&JigyosyoCd=0590300455-00&ServiceCd=780&Type=search" }, "geometry": { "type": "Point", "coordinates": [ 140.521662149656578, 39.221168937540966 ] } },
{ "type": "Feature", "properties": { "内容": "デイサービス　アクティブ【地域密着型通所介護】秋田県横手市十文字町十五野新田字十文字下タ6-6", "url2": "https://www.kaigokensaku.mhlw.go.jp/05/index.php?action_kouhyou_detail_004_kani=true&JigyosyoCd=0570323675-00&ServiceCd=780&Type=search" }, "geometry": { "type": "Point", "coordinates": [ 140.517132462861213, 39.226772596673037 ] } },
{ "type": "Feature", "properties": { "内容": "デイサービス　ウエスト・リバー【地域密着型通所介護】秋田県横手市大森町袴形字西神成7-2", "url2": "https://www.kaigokensaku.mhlw.go.jp/05/index.php?action_kouhyou_detail_004_kani=true&JigyosyoCd=0590300349-00&ServiceCd=780&Type=search" }, "geometry": { "type": "Point", "coordinates": [ 140.4463591, 39.3729041 ] } },
{ "type": "Feature", "properties": { "内容": "デイサービスセンターすこやか横手【地域密着型通所介護】秋田県横手市横山町1-1", "url2": "https://www.kaigokensaku.mhlw.go.jp/05/index.php?action_kouhyou_detail_004_kani=true&JigyosyoCd=0590300448-00&ServiceCd=780&Type=search" }, "geometry": { "type": "Point", "coordinates": [ 140.563580300000012, 39.304565 ] } },
{ "type": "Feature", "properties": { "内容": "デイサービスセンターきゅあおおもり【地域密着型通所介護】秋田県横手市大森町菅生田245-68", "url2": "https://www.kaigokensaku.mhlw.go.jp/05/index.php?action_kouhyou_detail_004_kani=true&JigyosyoCd=0590300430-00&ServiceCd=780&Type=search" }, "geometry": { "type": "Point", "coordinates": [ 140.4168205, 39.3470599 ] } },
{ "type": "Feature", "properties": { "内容": "デイサービスセンター　さくら【地域密着型通所介護】秋田県横手市駅前町１４番９号", "url2": "https://www.kaigokensaku.mhlw.go.jp/05/index.php?action_kouhyou_detail_004_kani=true&JigyosyoCd=0570318378-00&ServiceCd=780&Type=search" }, "geometry": { "type": "Point", "coordinates": [ 140.562150100000053, 39.3059715 ] } },
{ "type": "Feature", "properties": { "内容": "デイサービスみなみ【地域密着型通所介護】秋田県横手市横手町三ノ口12－2", "url2": "https://www.kaigokensaku.mhlw.go.jp/05/index.php?action_kouhyou_detail_004_kani=true&JigyosyoCd=0590300372-00&ServiceCd=780&Type=search" }, "geometry": { "type": "Point", "coordinates": [ 140.5513775, 39.3182593 ] } },
{ "type": "Feature", "properties": { "内容": "茶話本舗デイサービス　横手マハロ亭【地域密着型通所介護】秋田県横手市梅の木町５番３８号", "url2": "https://www.kaigokensaku.mhlw.go.jp/05/index.php?action_kouhyou_detail_004_kani=true&JigyosyoCd=0570321497-00&ServiceCd=780&Type=search" }, "geometry": { "type": "Point", "coordinates": [ 140.557785393254107, 39.317050200382688 ] } },
{ "type": "Feature", "properties": { "内容": "茶話本舗デイサービス　横手ボヌール【地域密着型通所介護】秋田県横手市平鹿町中吉田字清水の上105", "url2": "https://www.kaigokensaku.mhlw.go.jp/05/index.php?action_kouhyou_detail_004_kani=true&JigyosyoCd=0570322974-00&ServiceCd=780&Type=search" }, "geometry": { "type": "Point", "coordinates": [ 140.503259800000023, 39.2756901 ] } },
{ "type": "Feature", "properties": { "内容": "炭酸の湯　ほっとデイ　花むつみ【地域密着型通所介護】秋田県横手市十文字町睦合字宿屋布14番地8", "url2": "https://www.kaigokensaku.mhlw.go.jp/05/index.php?action_kouhyou_detail_004_kani=true&JigyosyoCd=0570322586-00&ServiceCd=780&Type=search" }, "geometry": { "type": "Point", "coordinates": [ 140.448608700000023, 39.2305401 ] } },
{ "type": "Feature", "properties": { "内容": "デイサービスきたえるーむ大館東台【地域密着型通所介護】秋田県大館市東台１丁目３-３７", "url2": "https://www.kaigokensaku.mhlw.go.jp/05/index.php?action_kouhyou_detail_004_kani=true&JigyosyoCd=0590400404-00&ServiceCd=780&Type=search" }, "geometry": { "type": "Point", "coordinates": [ 140.573563982478333, 40.26827928758761 ] } },
{ "type": "Feature", "properties": { "内容": "デイサービスセンターあおぞら【地域密着型通所介護】秋田県大館市釈迦内字台野下22番地2", "url2": "https://www.kaigokensaku.mhlw.go.jp/05/index.php?action_kouhyou_detail_004_kani=true&JigyosyoCd=0570417352-00&ServiceCd=780&Type=search" }, "geometry": { "type": "Point", "coordinates": [ 140.5665222, 40.3035457 ] } },
{ "type": "Feature", "properties": { "内容": "大滝温泉　サロン千歳【地域密着型通所介護】秋田県大館市十二所字町頭49番地千歳ホテル内", "url2": "https://www.kaigokensaku.mhlw.go.jp/05/index.php?action_kouhyou_detail_004_kani=true&JigyosyoCd=0590400289-00&ServiceCd=780&Type=search" }, "geometry": { "type": "Point", "coordinates": [ 140.642861007969259, 40.213438407196591 ] } },
{ "type": "Feature", "properties": { "内容": "デイサービスセンターおおとり【地域密着型通所介護】秋田県大館市赤館町1番地13号", "url2": "https://www.kaigokensaku.mhlw.go.jp/05/index.php?action_kouhyou_detail_004_kani=true&JigyosyoCd=0570421180-00&ServiceCd=780&Type=search" }, "geometry": { "type": "Point", "coordinates": [ 140.569657199999938, 40.2714413 ] } },
{ "type": "Feature", "properties": { "内容": "デイサービス花【地域密着型通所介護】秋田県大館市長走字陣場23番地", "url2": "https://www.kaigokensaku.mhlw.go.jp/05/index.php?action_kouhyou_detail_004_kani=true&JigyosyoCd=0590400297-00&ServiceCd=780&Type=search" }, "geometry": { "type": "Point", "coordinates": [ 140.608365204229699, 40.404776036720122 ] } },
{ "type": "Feature", "properties": { "内容": "デイサービスセンターさくら【地域密着型通所介護】秋田県大館市根下戸新町5-18", "url2": "https://www.kaigokensaku.mhlw.go.jp/05/index.php?action_kouhyou_detail_004_kani=true&JigyosyoCd=0570416461-00&ServiceCd=780&Type=search" }, "geometry": { "type": "Point", "coordinates": [ 140.5325772, 40.2713041 ] } },
{ "type": "Feature", "properties": { "内容": "デイサービスセンターおひさま【地域密着型通所介護】秋田県大館市早口字小比立内51番地5", "url2": "https://www.kaigokensaku.mhlw.go.jp/05/index.php?action_kouhyou_detail_004_kani=true&JigyosyoCd=0570420844-00&ServiceCd=780&Type=search" }, "geometry": { "type": "Point", "coordinates": [ 140.443324800000028, 40.2930122 ] } },
{ "type": "Feature", "properties": { "内容": "でいさぁびす　いと【地域密着型通所介護】秋田県大館市新町86番地", "url2": "https://www.kaigokensaku.mhlw.go.jp/05/index.php?action_kouhyou_detail_004_kani=true&JigyosyoCd=0590400347-00&ServiceCd=780&Type=search" }, "geometry": { "type": "Point", "coordinates": [ 140.5589554, 40.2677167 ] } },
{ "type": "Feature", "properties": { "内容": "デイサービス　ひまわり【地域密着型通所介護】秋田県男鹿市脇本富永字野田４０番地１２", "url2": "https://www.kaigokensaku.mhlw.go.jp/05/index.php?action_kouhyou_detail_004_kani=true&JigyosyoCd=0570613943-00&ServiceCd=780&Type=search" }, "geometry": { "type": "Point", "coordinates": [ 139.905986799999937, 39.9156579 ] } },
{ "type": "Feature", "properties": { "内容": "男鹿地域リハビリステーション【地域密着型通所介護】秋田県男鹿市船川港比詰字大沢田304男鹿市総合体育館内", "url2": "https://www.kaigokensaku.mhlw.go.jp/05/index.php?action_kouhyou_detail_004_kani=true&JigyosyoCd=0590600110-00&ServiceCd=780&Type=search" }, "geometry": { "type": "Point", "coordinates": [ 139.854018200000013, 39.9113894 ] } },
{ "type": "Feature", "properties": { "内容": "デイサービス蒼きもり【地域密着型通所介護】秋田県男鹿市脇本脇本字上谷地98番地3", "url2": "https://www.kaigokensaku.mhlw.go.jp/05/index.php?action_kouhyou_detail_004_kani=true&JigyosyoCd=0590600128-00&ServiceCd=780&Type=search" }, "geometry": { "type": "Point", "coordinates": [ 139.908391553530691, 39.907540226863219 ] } },
{ "type": "Feature", "properties": { "内容": "デイサービスいきいき湯沢【地域密着型通所介護】秋田県湯沢市字両神150-3", "url2": "https://www.kaigokensaku.mhlw.go.jp/05/index.php?action_kouhyou_detail_004_kani=true&JigyosyoCd=0570723486-00&ServiceCd=780&Type=search" }, "geometry": { "type": "Point", "coordinates": [ 140.4754312, 39.1739358 ] } },
{ "type": "Feature", "properties": { "内容": "みなせ指定通所介護事業所【地域密着型通所介護】秋田県湯沢市皆瀬字小野188-1", "url2": "https://www.kaigokensaku.mhlw.go.jp/05/index.php?action_kouhyou_detail_004_kani=true&JigyosyoCd=0590700191-00&ServiceCd=780&Type=search" }, "geometry": { "type": "Point", "coordinates": [ 140.5895706, 39.074401 ] } },
{ "type": "Feature", "properties": { "内容": "デイサービスセンター平成園【地域密着型通所介護】秋田県湯沢市小野字大沢田221番地", "url2": "https://www.kaigokensaku.mhlw.go.jp/05/index.php?action_kouhyou_detail_004_kani=true&JigyosyoCd=0590700258-00&ServiceCd=780&Type=search" }, "geometry": { "type": "Point", "coordinates": [ 140.4602692, 39.0604279 ] } },
{ "type": "Feature", "properties": { "内容": "デイサービスセンター花もも【地域密着型通所介護】秋田県湯沢市字鉦打沢102-2", "url2": "https://www.kaigokensaku.mhlw.go.jp/05/index.php?action_kouhyou_detail_004_kani=true&JigyosyoCd=0590700209-00&ServiceCd=780&Type=search" }, "geometry": { "type": "Point", "coordinates": [ 140.5282598, 39.1617248 ] } },
{ "type": "Feature", "properties": { "内容": "デイサービスセンターいさみが岡【地域密着型通所介護】秋田県湯沢市山田字勇ヶ岡５０番地", "url2": "https://www.kaigokensaku.mhlw.go.jp/05/index.php?action_kouhyou_detail_004_kani=true&JigyosyoCd=0590700175-00&ServiceCd=780&Type=search" }, "geometry": { "type": "Point", "coordinates": [ 140.45293879999997, 39.1449773 ] } },
{ "type": "Feature", "properties": { "内容": "デイサービスクローバーゆざわ【地域密着型通所介護】秋田県湯沢市杉沢字戸石崎３７－３", "url2": "https://www.kaigokensaku.mhlw.go.jp/05/index.php?action_kouhyou_detail_004_kani=true&JigyosyoCd=0590700266-00&ServiceCd=780&Type=search" }, "geometry": { "type": "Point", "coordinates": [ 140.49930470000001, 39.1846015 ] } },
{ "type": "Feature", "properties": { "内容": "デイサービスみしょうえん【地域密着型通所介護】秋田県鹿角市十和田大湯字屋布ノ下タ２０番地", "url2": "https://www.kaigokensaku.mhlw.go.jp/05/index.php?action_kouhyou_detail_004_kani=true&JigyosyoCd=0590900171-00&ServiceCd=780&Type=search" }, "geometry": { "type": "Point", "coordinates": [ 140.791016600000034, 40.2730125 ] } },
{ "type": "Feature", "properties": { "内容": "地域密着型すえひろデイサービスセンター【地域密着型通所介護】秋田県鹿角市十和田末広字家の下7番地", "url2": "https://www.kaigokensaku.mhlw.go.jp/05/index.php?action_kouhyou_detail_004_kani=true&JigyosyoCd=0590900130-00&ServiceCd=780&Type=search" }, "geometry": { "type": "Point", "coordinates": [ 140.736142299999983, 40.2357099 ] } },
{ "type": "Feature", "properties": { "内容": "デイサービスセンターゆぜ温泉【地域密着型通所介護】秋田県鹿角市八幡平字湯瀬30-2", "url2": "https://www.kaigokensaku.mhlw.go.jp/05/index.php?action_kouhyou_detail_004_kani=true&JigyosyoCd=0570922674-00&ServiceCd=780&Type=search" }, "geometry": { "type": "Point", "coordinates": [ 140.838245, 40.1228785 ] } },
{ "type": "Feature", "properties": { "内容": "メディカルハウスゆう通所介護事業所【地域密着型通所介護】秋田県由利本荘市鳥海町伏見字久保19-4", "url2": "https://www.kaigokensaku.mhlw.go.jp/05/index.php?action_kouhyou_detail_004_kani=true&JigyosyoCd=0590500351-00&ServiceCd=780&Type=search" }, "geometry": { "type": "Point", "coordinates": [ 140.192662399999989, 39.1917801 ] } },
{ "type": "Feature", "properties": { "内容": "通所介護事業所　千寿苑【地域密着型通所介護】秋田県由利本荘市川口字八幡前52-4", "url2": "https://www.kaigokensaku.mhlw.go.jp/05/index.php?action_kouhyou_detail_004_kani=true&JigyosyoCd=0570522938-00&ServiceCd=780&Type=search" }, "geometry": { "type": "Point", "coordinates": [ 140.061447899999962, 39.3983955 ] } },
{ "type": "Feature", "properties": { "内容": "デイサービスセンター和【地域密着型通所介護】秋田県由利本荘市東鮎川字立井地24-1", "url2": "https://www.kaigokensaku.mhlw.go.jp/05/index.php?action_kouhyou_detail_004_kani=true&JigyosyoCd=0572507721-00&ServiceCd=780&Type=search" }, "geometry": { "type": "Point", "coordinates": [ 140.074928900000032, 39.3328933 ] } },
{ "type": "Feature", "properties": { "内容": "由利本荘市社会福祉協議会　岩城通所介護事業所【地域密着型通所介護】秋田県由利本荘市岩城内道川字馬道43番地1", "url2": "https://www.kaigokensaku.mhlw.go.jp/05/index.php?action_kouhyou_detail_004_kani=true&JigyosyoCd=0590500435-00&ServiceCd=780&Type=search" }, "geometry": { "type": "Point", "coordinates": [ 140.05908980000001, 39.5514846 ] } },
{ "type": "Feature", "properties": { "内容": "にじのまちデイサービス本荘【地域密着型通所介護】秋田県由利本荘市川口字下野173-1", "url2": "https://www.kaigokensaku.mhlw.go.jp/05/index.php?action_kouhyou_detail_004_kani=true&JigyosyoCd=0590500393-00&ServiceCd=780&Type=search" }, "geometry": { "type": "Point", "coordinates": [ 140.0595652, 39.4020688 ] } },
{ "type": "Feature", "properties": { "内容": "秋田歩行機能トレーニングデイサービスさくらクオーレプラス由利本荘【地域密着型通所介護】秋田県由利本荘市水林317-1", "url2": "https://www.kaigokensaku.mhlw.go.jp/05/index.php?action_kouhyou_detail_004_kani=true&JigyosyoCd=0590500336-00&ServiceCd=780&Type=search" }, "geometry": { "type": "Point", "coordinates": [ 140.0379605, 39.3865882 ] } },
{ "type": "Feature", "properties": { "内容": "アルメリアの里【地域密着型通所介護】秋田県由利本荘市浜三川字西大台137-18", "url2": "https://www.kaigokensaku.mhlw.go.jp/05/index.php?action_kouhyou_detail_004_kani=true&JigyosyoCd=0570520072-00&ServiceCd=780&Type=search" }, "geometry": { "type": "Point", "coordinates": [ 140.032136400000041, 39.4278241 ] } },
{ "type": "Feature", "properties": { "内容": "通所介護事業所　あした天気になあれ【地域密着型通所介護】秋田県由利本荘市石脇字田尻野36-101", "url2": "https://www.kaigokensaku.mhlw.go.jp/05/index.php?action_kouhyou_detail_004_kani=true&JigyosyoCd=0570506790-00&ServiceCd=780&Type=search" }, "geometry": { "type": "Point", "coordinates": [ 140.0260233, 39.3974058 ] } },
{ "type": "Feature", "properties": { "内容": "リハマルシェ【地域密着型通所介護】秋田県由利本荘市中竪町26-1", "url2": "https://www.kaigokensaku.mhlw.go.jp/05/index.php?action_kouhyou_detail_004_kani=true&JigyosyoCd=0590500286-00&ServiceCd=780&Type=search" }, "geometry": { "type": "Point", "coordinates": [ 140.047519871792986, 39.388665179266397 ] } },
{ "type": "Feature", "properties": { "内容": "デイサービスおてんとさん【地域密着型通所介護】秋田県由利本荘市東梵天97-2", "url2": "https://www.kaigokensaku.mhlw.go.jp/05/index.php?action_kouhyou_detail_004_kani=true&JigyosyoCd=0590500385-00&ServiceCd=780&Type=search" }, "geometry": { "type": "Point", "coordinates": [ 140.061762800000054, 39.382993400000011 ] } },
{ "type": "Feature", "properties": { "内容": "運動機能向上専門デイサービス　クローバー【地域密着型通所介護】秋田県由利本荘市石脇字山ノ神11番地424", "url2": "https://www.kaigokensaku.mhlw.go.jp/05/index.php?action_kouhyou_detail_004_kani=true&JigyosyoCd=0590500278-00&ServiceCd=780&Type=search" }, "geometry": { "type": "Point", "coordinates": [ 140.031047547082494, 39.410604248772486 ] } },
{ "type": "Feature", "properties": { "内容": "ライフケアつむぎ【地域密着型通所介護】秋田県由利本荘市舘前字天神坂ノ下35番地", "url2": "https://www.kaigokensaku.mhlw.go.jp/05/index.php?action_kouhyou_detail_004_kani=true&JigyosyoCd=0570522516-00&ServiceCd=780&Type=search" }, "geometry": { "type": "Point", "coordinates": [ 140.090827896814631, 39.369824176476847 ] } },
{ "type": "Feature", "properties": { "内容": "潟上地域リハビリステーション【地域密着型通所介護】秋田県潟上市飯田川下虻川字井戸沢41トレイクかたがみ内", "url2": "https://www.kaigokensaku.mhlw.go.jp/05/index.php?action_kouhyou_detail_004_kani=true&JigyosyoCd=0591000112-00&ServiceCd=780&Type=search" }, "geometry": { "type": "Point", "coordinates": [ 140.074089500000014, 39.8827443 ] } },
{ "type": "Feature", "properties": { "内容": "デイサービス真心【地域密着型通所介護】秋田県潟上市天王字追分西2番地115", "url2": "https://www.kaigokensaku.mhlw.go.jp/05/index.php?action_kouhyou_detail_004_kani=true&JigyosyoCd=0572322790-00&ServiceCd=780&Type=search" }, "geometry": { "type": "Point", "coordinates": [ 140.045277311032976, 39.812766588146957 ] } },
{ "type": "Feature", "properties": { "内容": "歩行と言葉のリハビリ空間なごみ【地域密着型通所介護】秋田県大仙市大曲栄町13番38号", "url2": "https://www.kaigokensaku.mhlw.go.jp/05/index.php?action_kouhyou_detail_004_kani=true&JigyosyoCd=0570823054-00&ServiceCd=780&Type=search" }, "geometry": { "type": "Point", "coordinates": [ 140.4804891, 39.4554824 ] } },
{ "type": "Feature", "properties": { "内容": "デイサービスあしたば【地域密着型通所介護】秋田県大仙市戸地谷字勧農地１１３番地３", "url2": "https://www.kaigokensaku.mhlw.go.jp/05/index.php?action_kouhyou_detail_004_kani=true&JigyosyoCd=0590800371-00&ServiceCd=780&Type=search" }, "geometry": { "type": "Point", "coordinates": [ 140.494062913491803, 39.473165022939568 ] } },
{ "type": "Feature", "properties": { "内容": "地域密着型通所介護　　「払田の街」【地域密着型通所介護】秋田県大仙市払田字下払田95-1", "url2": "https://www.kaigokensaku.mhlw.go.jp/05/index.php?action_kouhyou_detail_004_kani=true&JigyosyoCd=0590800330-00&ServiceCd=780&Type=search" }, "geometry": { "type": "Point", "coordinates": [ 140.534057500000017, 39.4605435 ] } },
{ "type": "Feature", "properties": { "内容": "社会福祉法人柏仁会　ありすの街デイサービスセンター【地域密着型通所介護】秋田県大仙市強首字上野台23番地18特別養護老人ホーム　ありすの街", "url2": "https://www.kaigokensaku.mhlw.go.jp/05/index.php?action_kouhyou_detail_004_kani=true&JigyosyoCd=0590800462-00&ServiceCd=780&Type=search" }, "geometry": { "type": "Point", "coordinates": [ 140.3176229, 39.5337949 ] } },
{ "type": "Feature", "properties": { "内容": "峰山荘デイサービスセンター【地域密着型通所介護】秋田県大仙市協和中淀川字中村１２－２", "url2": "https://www.kaigokensaku.mhlw.go.jp/05/index.php?action_kouhyou_detail_004_kani=true&JigyosyoCd=0570823476-00&ServiceCd=780&Type=search" }, "geometry": { "type": "Point", "coordinates": [ 140.262506600000052, 39.576869 ] } },
{ "type": "Feature", "properties": { "内容": "早稲田イーライフ秋田【地域密着型通所介護】秋田県大仙市戸地谷字大和田132-14早稲田イーライフ秋田", "url2": "https://www.kaigokensaku.mhlw.go.jp/05/index.php?action_kouhyou_detail_004_kani=true&JigyosyoCd=0570823419-00&ServiceCd=780&Type=search" }, "geometry": { "type": "Point", "coordinates": [ 140.491611157811008, 39.467479454216637 ] } },
{ "type": "Feature", "properties": { "内容": "まんさく【地域密着型通所介護】秋田県大仙市土川字辰ノ口40番地", "url2": "https://www.kaigokensaku.mhlw.go.jp/05/index.php?action_kouhyou_detail_004_kani=true&JigyosyoCd=0570820241-00&ServiceCd=780&Type=search" }, "geometry": { "type": "Point", "coordinates": [ 140.432410299999987, 39.5391945 ] } },
{ "type": "Feature", "properties": { "内容": "元気でねットデイサービスセンター【地域密着型通所介護】秋田県大仙市横堀字杉下114-1", "url2": "https://www.kaigokensaku.mhlw.go.jp/05/index.php?action_kouhyou_detail_004_kani=true&JigyosyoCd=0590800439-00&ServiceCd=780&Type=search" }, "geometry": { "type": "Point", "coordinates": [ 140.545582331799324, 39.494523675493866 ] } },
{ "type": "Feature", "properties": { "内容": "デイサービス森こしの丘【地域密着型通所介護】秋田県大仙市協和船岡字森越１１番地１４", "url2": "https://www.kaigokensaku.mhlw.go.jp/05/index.php?action_kouhyou_detail_004_kani=true&JigyosyoCd=0590800454-00&ServiceCd=780&Type=search" }, "geometry": { "type": "Point", "coordinates": [ 140.3200098, 39.6287336 ] } },
{ "type": "Feature", "properties": { "内容": "デイサービスホーム仙寿園【地域密着型通所介護】秋田県大仙市花館字間倉250番地8", "url2": "https://www.kaigokensaku.mhlw.go.jp/05/index.php?action_kouhyou_detail_004_kani=true&JigyosyoCd=0572606077-00&ServiceCd=780&Type=search" }, "geometry": { "type": "Point", "coordinates": [ 140.4498744, 39.4880893 ] } },
{ "type": "Feature", "properties": { "内容": "一番星きらら【地域密着型通所介護】秋田県北秋田市脇神字高村岱131番地", "url2": "https://www.kaigokensaku.mhlw.go.jp/05/index.php?action_kouhyou_detail_004_kani=true&JigyosyoCd=0572106136-00&ServiceCd=780&Type=search" }, "geometry": { "type": "Point", "coordinates": [ 140.382869300000038, 40.2116505 ] } },
{ "type": "Feature", "properties": { "内容": "デイサービス　もりの郷【地域密着型通所介護】秋田県北秋田市小又字平里63番地", "url2": "https://www.kaigokensaku.mhlw.go.jp/05/index.php?action_kouhyou_detail_004_kani=true&JigyosyoCd=0571115336-00&ServiceCd=780&Type=search" }, "geometry": { "type": "Point", "coordinates": [ 140.413351499999976, 40.0555786 ] } },
{ "type": "Feature", "properties": { "内容": "デイサービスセンター　まつば【地域密着型通所介護】秋田県北秋田市綴子字胡桃館３－４２", "url2": "https://www.kaigokensaku.mhlw.go.jp/05/index.php?action_kouhyou_detail_004_kani=true&JigyosyoCd=0572108934-00&ServiceCd=780&Type=search" }, "geometry": { "type": "Point", "coordinates": [ 140.358008899999959, 40.2358411 ] } },
{ "type": "Feature", "properties": { "内容": "もろび苑指定通所介護事業所【地域密着型通所介護】秋田県北秋田市阿仁幸屋渡字前野７番地３", "url2": "https://www.kaigokensaku.mhlw.go.jp/05/index.php?action_kouhyou_detail_004_kani=true&JigyosyoCd=0571114487-00&ServiceCd=780&Type=search" }, "geometry": { "type": "Point", "coordinates": [ 140.456652854747063, 39.904415479785193 ] } },
{ "type": "Feature", "properties": { "内容": "デイサービス　午の浜【地域密着型通所介護】秋田県にかほ市三森字午の浜100番地1", "url2": "https://www.kaigokensaku.mhlw.go.jp/05/index.php?action_kouhyou_detail_004_kani=true&JigyosyoCd=0571321470-00&ServiceCd=780&Type=search" }, "geometry": { "type": "Point", "coordinates": [ 139.9435588, 39.2852454 ] } },
{ "type": "Feature", "properties": { "内容": "デイサービスふきのとう【地域密着型通所介護】秋田県にかほ市中三地字堀ノ内1番地", "url2": "https://www.kaigokensaku.mhlw.go.jp/05/index.php?action_kouhyou_detail_004_kani=true&JigyosyoCd=0571324284-00&ServiceCd=780&Type=search" }, "geometry": { "type": "Point", "coordinates": [ 139.95904800030587, 39.2448386 ] } },
{ "type": "Feature", "properties": { "内容": "通所介護事業所　ハルモニア・にかほ【地域密着型通所介護】秋田県にかほ市院内字嶋田４２番地１", "url2": "https://www.kaigokensaku.mhlw.go.jp/05/index.php?action_kouhyou_detail_004_kani=true&JigyosyoCd=0571351584-00&ServiceCd=780&Type=search" }, "geometry": { "type": "Point", "coordinates": [ 139.96369319881137, 39.282233138223823 ] } },
{ "type": "Feature", "properties": { "内容": "小規模デイサービス　こすもす【地域密着型通所介護】秋田県にかほ市平沢字堺田26-1", "url2": "https://www.kaigokensaku.mhlw.go.jp/05/index.php?action_kouhyou_detail_004_kani=true&JigyosyoCd=0572512481-00&ServiceCd=780&Type=search" }, "geometry": { "type": "Point", "coordinates": [ 139.9599048, 39.2818793 ] } },
{ "type": "Feature", "properties": { "内容": "デイサービス　クローバーにかほ【地域密着型通所介護】秋田県にかほ市芹田字六坊68", "url2": "https://www.kaigokensaku.mhlw.go.jp/05/index.php?action_kouhyou_detail_004_kani=true&JigyosyoCd=0591300090-00&ServiceCd=780&Type=search" }, "geometry": { "type": "Point", "coordinates": [ 139.935804465220627, 39.280765317775852 ] } },
{ "type": "Feature", "properties": { "内容": "仙北市社会福祉協議会ふく福デイサービスセンター【地域密着型通所介護】秋田県仙北市角館町白岩上西野87-13", "url2": "https://www.kaigokensaku.mhlw.go.jp/05/index.php?action_kouhyou_detail_004_kani=true&JigyosyoCd=0591200134-00&ServiceCd=780&Type=search" }, "geometry": { "type": "Point", "coordinates": [ 140.611332304455374, 39.585360058079296 ] } },
{ "type": "Feature", "properties": { "内容": "デイサービスまごの手【地域密着型通所介護】秋田県仙北市田沢湖卒田字北竹原96番地1", "url2": "https://www.kaigokensaku.mhlw.go.jp/05/index.php?action_kouhyou_detail_004_kani=true&JigyosyoCd=0571223700-00&ServiceCd=780&Type=search" }, "geometry": { "type": "Point", "coordinates": [ 140.613070102944874, 39.619886961754631 ] } },
{ "type": "Feature", "properties": { "内容": "デイサービスセンター花笑の庭【地域密着型通所介護】秋田県仙北市角館町雲然山崎142-69", "url2": "https://www.kaigokensaku.mhlw.go.jp/05/index.php?action_kouhyou_detail_004_kani=true&JigyosyoCd=0591200092-00&ServiceCd=780&Type=search" }, "geometry": { "type": "Point", "coordinates": [ 140.5393014, 39.5966318 ] } },
{ "type": "Feature", "properties": { "内容": "デイサービスもとまち【地域密着型通所介護】秋田県仙北市田沢湖小松字本町１００番地１", "url2": "https://www.kaigokensaku.mhlw.go.jp/05/index.php?action_kouhyou_detail_004_kani=true&JigyosyoCd=0571219385-00&ServiceCd=780&Type=search" }, "geometry": { "type": "Point", "coordinates": [ 140.570234, 39.61045 ] } },
{ "type": "Feature", "properties": { "内容": "デイサービス若杉【地域密着型通所介護】秋田県仙北市角館町上菅沢2番地18", "url2": "https://www.kaigokensaku.mhlw.go.jp/05/index.php?action_kouhyou_detail_004_kani=true&JigyosyoCd=0571214022-00&ServiceCd=780&Type=search" }, "geometry": { "type": "Point", "coordinates": [ 140.5772925, 39.5924138 ] } },
{ "type": "Feature", "properties": { "内容": "デイサービスセンター木のした【地域密着型通所介護】秋田県仙北市角館町川原町後11-1", "url2": "https://www.kaigokensaku.mhlw.go.jp/05/index.php?action_kouhyou_detail_004_kani=true&JigyosyoCd=0571223205-00&ServiceCd=780&Type=search" }, "geometry": { "type": "Point", "coordinates": [ 140.558543688325926, 39.601798382487125 ] } },
{ "type": "Feature", "properties": { "内容": "にこにこリハビリデイサービス　角館る～む【地域密着型通所介護】秋田県仙北市角館町岩瀬174-1", "url2": "https://www.kaigokensaku.mhlw.go.jp/05/index.php?action_kouhyou_detail_004_kani=true&JigyosyoCd=0571223858-00&ServiceCd=780&Type=search" }, "geometry": { "type": "Point", "coordinates": [ 140.563947544180337, 39.585647997554737 ] } },
{ "type": "Feature", "properties": { "内容": "デイサービスゆーとりあ【地域密着型通所介護】秋田県鹿角郡小坂町小坂字上前田7番地１", "url2": "https://www.kaigokensaku.mhlw.go.jp/05/index.php?action_kouhyou_detail_004_kani=true&JigyosyoCd=0593000052-00&ServiceCd=780&Type=search" }, "geometry": { "type": "Point", "coordinates": [ 140.7405894, 40.3277805 ] } },
{ "type": "Feature", "properties": { "内容": "デイサービスあかしあの郷【地域密着型通所介護】秋田県鹿角郡小坂町小坂鉱山字栗平25番地2", "url2": "https://www.kaigokensaku.mhlw.go.jp/05/index.php?action_kouhyou_detail_004_kani=true&JigyosyoCd=0572010403-00&ServiceCd=780&Type=search" }, "geometry": { "type": "Point", "coordinates": [ 140.7398498, 40.3319058 ] } },
{ "type": "Feature", "properties": { "内容": "上小阿仁村社会福祉協議会指定通所介護事業所【地域密着型通所介護】秋田県北秋田郡上小阿仁村小沢田字向川原８０", "url2": "https://www.kaigokensaku.mhlw.go.jp/05/index.php?action_kouhyou_detail_004_kani=true&JigyosyoCd=0572103190-00&ServiceCd=780&Type=search" }, "geometry": { "type": "Point", "coordinates": [ 140.297124700000012, 40.0647833 ] } },
{ "type": "Feature", "properties": { "内容": "特別養護老人ホーム「藤里」デイサービス【地域密着型通所介護】秋田県山本郡藤里町矢坂字上野蟹子沢92番地", "url2": "https://www.kaigokensaku.mhlw.go.jp/05/index.php?action_kouhyou_detail_004_kani=true&JigyosyoCd=0572205912-00&ServiceCd=780&Type=search" }, "geometry": { "type": "Point", "coordinates": [ 140.248219899999981, 40.255212 ] } },
{ "type": "Feature", "properties": { "内容": "三種町社会福祉協議会琴丘デイサービスセンター【地域密着型通所介護】秋田県山本郡三種町鹿渡字町後２６３", "url2": "https://www.kaigokensaku.mhlw.go.jp/05/index.php?action_kouhyou_detail_004_kani=true&JigyosyoCd=0572214203-00&ServiceCd=780&Type=search" }, "geometry": { "type": "Point", "coordinates": [ 140.076858200000061, 40.0397084 ] } },
{ "type": "Feature", "properties": { "内容": "デイサービスセンターもりたけ【地域密着型通所介護】秋田県山本郡三種町森岳字木戸沢１００－４７", "url2": "https://www.kaigokensaku.mhlw.go.jp/05/index.php?action_kouhyou_detail_004_kani=true&JigyosyoCd=0572217198-00&ServiceCd=780&Type=search" }, "geometry": { "type": "Point", "coordinates": [ 140.088824, 40.0837976 ] } },
{ "type": "Feature", "properties": { "内容": "デイサービスセンター福寿荘【地域密着型通所介護】秋田県南秋田郡五城目町字鵜ノ木９０番地１", "url2": "https://www.kaigokensaku.mhlw.go.jp/05/index.php?action_kouhyou_detail_004_kani=true&JigyosyoCd=0572314813-00&ServiceCd=780&Type=search" }, "geometry": { "type": "Point", "coordinates": [ 140.116399900000033, 39.9438754 ] } },
{ "type": "Feature", "properties": { "内容": "デイサービスセンター　リハ・あしらく【地域密着型通所介護】秋田県南秋田郡八郎潟町字一日市２９番地", "url2": "https://www.kaigokensaku.mhlw.go.jp/05/index.php?action_kouhyou_detail_004_kani=true&JigyosyoCd=0572322774-00&ServiceCd=780&Type=search" }, "geometry": { "type": "Point", "coordinates": [ 140.0750686, 39.940572200000034 ] } },
{ "type": "Feature", "properties": { "内容": "八郎潟町デイサービスセンター【地域密着型通所介護】秋田県南秋田郡八郎潟町字家ノ後23番地の3八郎潟町老人福祉センター", "url2": "https://www.kaigokensaku.mhlw.go.jp/05/index.php?action_kouhyou_detail_004_kani=true&JigyosyoCd=0572303709-00&ServiceCd=780&Type=search" }, "geometry": { "type": "Point", "coordinates": [ 140.0795377, 39.9425372 ] } },
{ "type": "Feature", "properties": { "内容": "自立機能訓練型施設はっち【地域密着型通所介護】秋田県南秋田郡八郎潟町夜叉袋字沖谷地189番地２", "url2": "https://www.kaigokensaku.mhlw.go.jp/05/index.php?action_kouhyou_detail_004_kani=true&JigyosyoCd=0592300107-00&ServiceCd=780&Type=search" }, "geometry": { "type": "Point", "coordinates": [ 140.081819699999983, 39.9517783 ] } },
{ "type": "Feature", "properties": { "内容": "大潟村デイサービスセンター【地域密着型通所介護】秋田県南秋田郡大潟村字西3丁目3番地", "url2": "https://www.kaigokensaku.mhlw.go.jp/05/index.php?action_kouhyou_detail_004_kani=true&JigyosyoCd=0572306512-00&ServiceCd=780&Type=search" }, "geometry": { "type": "Point", "coordinates": [ 139.955833, 40.0252685 ] } },
{ "type": "Feature", "properties": { "内容": "にこにこリハビリデイサービス美郷る～む【地域密着型通所介護】秋田県仙北郡美郷町六郷字安楽寺306-3", "url2": "https://www.kaigokensaku.mhlw.go.jp/05/index.php?action_kouhyou_detail_004_kani=true&JigyosyoCd=0593900129-00&ServiceCd=780&Type=search" }, "geometry": { "type": "Point", "coordinates": [ 140.5518291, 39.424228627215911 ] } },
{ "type": "Feature", "properties": { "内容": "高瀬デイサービスセンター【地域密着型通所介護】秋田県雄勝郡羽後町下仙道字風平97番地１", "url2": "https://www.kaigokensaku.mhlw.go.jp/05/index.php?action_kouhyou_detail_004_kani=true&JigyosyoCd=0594000127-00&ServiceCd=780&Type=search" }, "geometry": { "type": "Point", "coordinates": [ 140.319976, 39.168979 ] } },
{ "type": "Feature", "properties": { "内容": "デイサービスセンター　なるせ【地域密着型通所介護】雄勝郡東成瀬村岩井川字東村72番地", "url2": "https://www.kaigokensaku.mhlw.go.jp/05/index.php?action_kouhyou_detail_004_kani=true&JigyosyoCd=0572817617-00&ServiceCd=780&Type=search" }, "geometry": { "type": "Point", "coordinates": [ 140.700727499999971, 39.1766486 ] } },
{ "type": "Feature", "properties": { "内容": "デイサービスセンター　風鈴【地域密着型通所介護】秋田県雄勝郡東成瀬村田子内字長瀞５０番", "url2": "https://www.kaigokensaku.mhlw.go.jp/05/index.php?action_kouhyou_detail_004_kani=true&JigyosyoCd=0572817534-00&ServiceCd=780&Type=search" }, "geometry": { "type": "Point", "coordinates": [ 140.663846299999932, 39.179508299999938 ] } }
]
}
