{
"type": "FeatureCollection",
"name": "geo_05_特定施設入居者生活介護（有料老人ホーム）",
"crs": { "type": "name", "properties": { "name": "urn:ogc:def:crs:OGC:1.3:CRS84" } },
"features": [
{ "type": "Feature", "properties": { "内容": "有料老人ホーム　ヴィレージュ【特定施設入居者生活介護（有料老人ホーム）】秋田市牛島西一丁目6-28", "url": "https://www.kaigokensaku.mhlw.go.jp/05/index.php?action_kouhyou_detail_004_kani=true&JigyosyoCd=0570119859-00&ServiceCd=331&Type=search", "url2": "http://www.apexcp.com/village/" }, "geometry": { "type": "Point", "coordinates": [ 140.112881300000026, 39.6943947 ] } },
{ "type": "Feature", "properties": { "内容": "介護付有料老人ホーム遥か【特定施設入居者生活介護（有料老人ホーム）】秋田県秋田市土崎港中央三丁目４番４２号", "url": "https://www.kaigokensaku.mhlw.go.jp/05/index.php?action_kouhyou_detail_004_kani=true&JigyosyoCd=0570118679-00&ServiceCd=331&Type=search", "url2": "http://www.akita-hamanasukai.jp/" }, "geometry": { "type": "Point", "coordinates": [ 140.067979400000013, 39.7543613 ] } },
{ "type": "Feature", "properties": { "内容": "さわやかさくらのもり【特定施設入居者生活介護（有料老人ホーム）】秋田県秋田市横森1丁目5-40", "url": "https://www.kaigokensaku.mhlw.go.jp/05/index.php?action_kouhyou_detail_004_kani=true&JigyosyoCd=0570126581-00&ServiceCd=331&Type=search", "url2": "http://www.sawayakaclub.jp/" }, "geometry": { "type": "Point", "coordinates": [ 140.135319399999986, 39.7052769 ] } },
{ "type": "Feature", "properties": { "内容": "ラ・ナシカ　あきた【特定施設入居者生活介護（有料老人ホーム）】秋田県秋田市東通４丁目４－１３", "url": "https://www.kaigokensaku.mhlw.go.jp/05/index.php?action_kouhyou_detail_004_kani=true&JigyosyoCd=0570118422-00&ServiceCd=331&Type=search", "url2": "http://www.cedar-web.com" }, "geometry": { "type": "Point", "coordinates": [ 140.1429776, 39.7140628 ] } },
{ "type": "Feature", "properties": { "内容": "さわやか桜弐番館【特定施設入居者生活介護（有料老人ホーム）】秋田県秋田市卸町１丁目１０番３号", "url": "https://www.kaigokensaku.mhlw.go.jp/05/index.php?action_kouhyou_detail_004_kani=true&JigyosyoCd=0570120261-00&ServiceCd=331&Type=search", "url2": "http://www.sawayakaclub.jp" }, "geometry": { "type": "Point", "coordinates": [ 140.10744, 39.6990549 ] } },
{ "type": "Feature", "properties": { "内容": "介護付有料老人ホームソフィー【特定施設入居者生活介護（有料老人ホーム）】秋田県秋田市将軍野向山１３－４２", "url": "https://www.kaigokensaku.mhlw.go.jp/05/index.php?action_kouhyou_detail_004_kani=true&JigyosyoCd=0570108621-00&ServiceCd=331&Type=search", "url2": "http://www.jkk-sotohp.or.jp/sophie/" }, "geometry": { "type": "Point", "coordinates": [ 140.090394400000037, 39.7503874 ] } },
{ "type": "Feature", "properties": { "内容": "介護付有料老人ホームグリーン【特定施設入居者生活介護（有料老人ホーム）】秋田県秋田市外旭川字三後田１８４", "url": "https://www.kaigokensaku.mhlw.go.jp/05/index.php?action_kouhyou_detail_004_kani=true&JigyosyoCd=0570118463-00&ServiceCd=331&Type=search", "url2": "https://jkk-sotohp.or.jp/green/" }, "geometry": { "type": "Point", "coordinates": [ 140.094302400000061, 39.7495599 ] } },
{ "type": "Feature", "properties": { "内容": "ニチイケアセンターひろおもて秋田【特定施設入居者生活介護（有料老人ホーム）】秋田県秋田市広面字近藤堰越17-1", "url": "https://www.kaigokensaku.mhlw.go.jp/05/index.php?action_kouhyou_detail_004_kani=true&JigyosyoCd=0570118844-00&ServiceCd=331&Type=search", "url2": "http://www.nichiigakkan.co.jp" }, "geometry": { "type": "Point", "coordinates": [ 140.1452127, 39.7277501 ] } },
{ "type": "Feature", "properties": { "内容": "さわやか桜参番館【特定施設入居者生活介護（有料老人ホーム）】秋田県秋田市御所野堤台1丁目6番88号", "url": "https://www.kaigokensaku.mhlw.go.jp/05/index.php?action_kouhyou_detail_004_kani=true&JigyosyoCd=0570125880-00&ServiceCd=331&Type=search", "url2": "http://sawayakaclub.jp" }, "geometry": { "type": "Point", "coordinates": [ 140.168871399999944, 39.6689662 ] } },
{ "type": "Feature", "properties": { "内容": "介護付有料老人ホーム萌木の郷【特定施設入居者生活介護（有料老人ホーム）】秋田県能代市字寿域長根６３－１", "url": "https://www.kaigokensaku.mhlw.go.jp/05/index.php?action_kouhyou_detail_004_kani=true&JigyosyoCd=0570222364-00&ServiceCd=331&Type=search", "url2": null }, "geometry": { "type": "Point", "coordinates": [ 140.02725810000004, 40.1899423 ] } },
{ "type": "Feature", "properties": { "内容": "介護付有料老人ホーム　サンビレッジ清風のしろ【特定施設入居者生活介護（有料老人ホーム）】秋田県能代市落合字上前田１４９番地１", "url": "https://www.kaigokensaku.mhlw.go.jp/05/index.php?action_kouhyou_detail_004_kani=true&JigyosyoCd=0570221366-00&ServiceCd=331&Type=search", "url2": "https://www.shouhouen.co.jp" }, "geometry": { "type": "Point", "coordinates": [ 140.025581800000026, 40.2273239 ] } },
{ "type": "Feature", "properties": { "内容": "さらさ横手【特定施設入居者生活介護（有料老人ホーム）】秋田県横手市駅前町2番35号", "url": "https://www.kaigokensaku.mhlw.go.jp/05/index.php?action_kouhyou_detail_004_kani=true&JigyosyoCd=0570325852-00&ServiceCd=331&Type=search", "url2": "https://jawa-akita.com" }, "geometry": { "type": "Point", "coordinates": [ 140.562674600000037, 39.310668 ] } },
{ "type": "Feature", "properties": { "内容": "有料老人ホームふれあいの里観音堂【特定施設入居者生活介護（有料老人ホーム）】秋田県大館市字観音堂388有料老人ホームふれあいの里観音堂", "url": "https://www.kaigokensaku.mhlw.go.jp/05/index.php?action_kouhyou_detail_004_kani=true&JigyosyoCd=0570426866-00&ServiceCd=331&Type=search", "url2": "https://kk-tact.com/" }, "geometry": { "type": "Point", "coordinates": [ 140.579798684266649, 40.280118740958002 ] } },
{ "type": "Feature", "properties": { "内容": "有料老人ホーム　ふれあいの里ありうら【特定施設入居者生活介護（有料老人ホーム）】秋田県大館市有浦一丁目3番13号有料老人ホーム　ふれあいの里ありうら", "url": "https://www.kaigokensaku.mhlw.go.jp/05/index.php?action_kouhyou_detail_004_kani=true&JigyosyoCd=0570420794-00&ServiceCd=331&Type=search", "url2": "http://kk-tact.com/yrhariura" }, "geometry": { "type": "Point", "coordinates": [ 140.5634708, 40.285295 ] } },
{ "type": "Feature", "properties": { "内容": "介護付有料老人ホーム　ケアホーム木精【特定施設入居者生活介護（有料老人ホーム）】秋田県男鹿市船越字内子294", "url": "https://www.kaigokensaku.mhlw.go.jp/05/index.php?action_kouhyou_detail_004_kani=true&JigyosyoCd=0570626507-00&ServiceCd=331&Type=search", "url2": "https://wel.akita-seiwakai.jp/mokusei/" }, "geometry": { "type": "Point", "coordinates": [ 139.934232854167902, 39.902171758685114 ] } },
{ "type": "Feature", "properties": { "内容": "有料老人ホーム　サンフェザント【特定施設入居者生活介護（有料老人ホーム）】秋田県大仙市協和上淀川字五百刈田２７７番５", "url": "https://www.kaigokensaku.mhlw.go.jp/05/index.php?action_kouhyou_detail_004_kani=true&JigyosyoCd=0570821397-00&ServiceCd=331&Type=search", "url2": "http://www.keishinkai-akita.net/" }, "geometry": { "type": "Point", "coordinates": [ 140.30132762432865, 39.596025637346465 ] } },
{ "type": "Feature", "properties": { "内容": "介護付き有料老人ホーム元気の郷【特定施設入居者生活介護（有料老人ホーム）】秋田県大仙市横堀字杉下114-1", "url": "https://www.kaigokensaku.mhlw.go.jp/05/index.php?action_kouhyou_detail_004_kani=true&JigyosyoCd=0570825828-00&ServiceCd=331&Type=search", "url2": "http://www.genkidenet.co.jp/" }, "geometry": { "type": "Point", "coordinates": [ 140.54577456812288, 39.494556725487264 ] } },
{ "type": "Feature", "properties": { "内容": "さわやか桜館【特定施設入居者生活介護（有料老人ホーム）】秋田県仙北市角館町西長野中泊１２６－２", "url": "https://www.kaigokensaku.mhlw.go.jp/05/index.php?action_kouhyou_detail_004_kani=true&JigyosyoCd=0571216209-00&ServiceCd=331&Type=search", "url2": "http://www.sawayakaclub.jp" }, "geometry": { "type": "Point", "coordinates": [ 140.5082655, 39.6105989 ] } },
{ "type": "Feature", "properties": { "内容": "介護付き有料老人ホーム湧水の郷【特定施設入居者生活介護（有料老人ホーム）】秋田県仙北郡美郷町六郷字小安門108-1", "url": "https://www.kaigokensaku.mhlw.go.jp/05/index.php?action_kouhyou_detail_004_kani=true&JigyosyoCd=0573927001-00&ServiceCd=331&Type=search", "url2": null }, "geometry": { "type": "Point", "coordinates": [ 140.5336088, 39.421249 ] } }
]
}
