{
"type": "FeatureCollection",
"name": "geo_05_福祉用具貸与",
"crs": { "type": "name", "properties": { "name": "urn:ogc:def:crs:OGC:1.3:CRS84" } },
"features": [
{ "type": "Feature", "properties": { "内容": "フレンヅあきた【福祉用具貸与】秋田県秋田市広面字谷地田46番地1フォレスト2005　101号", "url2": "https://www.kaigokensaku.mhlw.go.jp/05/index.php?action_kouhyou_detail_004_kani=true&JigyosyoCd=0570126888-00&ServiceCd=170&Type=search" }, "geometry": { "type": "Point", "coordinates": [ 140.1464758, 39.7190929 ] } },
{ "type": "Feature", "properties": { "内容": "用具のひばり【福祉用具貸与】秋田県秋田市卸町5丁目14番10号", "url2": "https://www.kaigokensaku.mhlw.go.jp/05/index.php?action_kouhyou_detail_004_kani=true&JigyosyoCd=0570126607-00&ServiceCd=170&Type=search" }, "geometry": { "type": "Point", "coordinates": [ 140.1080034, 39.6946625 ] } },
{ "type": "Feature", "properties": { "内容": "株式会社かんきょう　秋田南支店【福祉用具貸与】秋田県秋田市仁井田緑町８６番１号", "url2": "https://www.kaigokensaku.mhlw.go.jp/05/index.php?action_kouhyou_detail_004_kani=true&JigyosyoCd=0570124669-00&ServiceCd=170&Type=search" }, "geometry": { "type": "Point", "coordinates": [ 140.123819300000036, 39.6883403 ] } },
{ "type": "Feature", "properties": { "内容": "秋田基準寝具株式会社【福祉用具貸与】秋田県秋田市八橋字イサノ６－１", "url2": "https://www.kaigokensaku.mhlw.go.jp/05/index.php?action_kouhyou_detail_004_kani=true&JigyosyoCd=0570103960-00&ServiceCd=170&Type=search" }, "geometry": { "type": "Point", "coordinates": [ 140.091961399999946, 39.7379418 ] } },
{ "type": "Feature", "properties": { "内容": "有限会社クリーンサプライ【福祉用具貸与】秋田県秋田市八橋字下八橋191-11", "url2": "https://www.kaigokensaku.mhlw.go.jp/05/index.php?action_kouhyou_detail_004_kani=true&JigyosyoCd=0570104943-00&ServiceCd=170&Type=search" }, "geometry": { "type": "Point", "coordinates": [ 140.084115500000053, 39.7253705 ] } },
{ "type": "Feature", "properties": { "内容": "シルバーサポートサンショウ店【福祉用具貸与】秋田市山王沼田町6番29号カルディア山王１階", "url2": "https://www.kaigokensaku.mhlw.go.jp/05/index.php?action_kouhyou_detail_004_kani=true&JigyosyoCd=0570126813-00&ServiceCd=170&Type=search" }, "geometry": { "type": "Point", "coordinates": [ 140.0913726, 39.715507 ] } },
{ "type": "Feature", "properties": { "内容": "株式会社　ジェー・シー・アイ　秋田支店【福祉用具貸与】秋田県秋田市八橋本町４丁目１番２２号", "url2": "https://www.kaigokensaku.mhlw.go.jp/05/index.php?action_kouhyou_detail_004_kani=true&JigyosyoCd=0570101071-00&ServiceCd=170&Type=search" }, "geometry": { "type": "Point", "coordinates": [ 140.0976339, 39.7240628 ] } },
{ "type": "Feature", "properties": { "内容": "有限会社ケアポート秋田福祉用具事業所【福祉用具貸与】秋田県秋田市山王沼田町2-41", "url2": "https://www.kaigokensaku.mhlw.go.jp/05/index.php?action_kouhyou_detail_004_kani=true&JigyosyoCd=0570104919-00&ServiceCd=170&Type=search" }, "geometry": { "type": "Point", "coordinates": [ 140.0929516, 39.7138802 ] } },
{ "type": "Feature", "properties": { "内容": "福祉用具センター虹の街【福祉用具貸与】秋田県秋田市牛島西１丁目3-8", "url2": "https://www.kaigokensaku.mhlw.go.jp/05/index.php?action_kouhyou_detail_004_kani=true&JigyosyoCd=0570123638-00&ServiceCd=170&Type=search" }, "geometry": { "type": "Point", "coordinates": [ 140.116317658015987, 39.697973066264176 ] } },
{ "type": "Feature", "properties": { "内容": "きらら福祉用具事業所竿燈通り【福祉用具貸与】秋田県秋田市大町一丁目5-9朝日プラザ秋田中央102号室", "url2": "https://www.kaigokensaku.mhlw.go.jp/05/index.php?action_kouhyou_detail_004_kani=true&JigyosyoCd=0570119057-00&ServiceCd=170&Type=search" }, "geometry": { "type": "Point", "coordinates": [ 140.114144943655447, 39.720633468684206 ] } },
{ "type": "Feature", "properties": { "内容": "ダスキンヘルスレント秋田ステーション【福祉用具貸与】秋田県秋田市川尻若葉町１－４１", "url2": "https://www.kaigokensaku.mhlw.go.jp/05/index.php?action_kouhyou_detail_004_kani=true&JigyosyoCd=0570109959-00&ServiceCd=170&Type=search" }, "geometry": { "type": "Point", "coordinates": [ 140.093310100000053, 39.7106056 ] } },
{ "type": "Feature", "properties": { "内容": "株式会社サンメディカル秋田店【福祉用具貸与】秋田県秋田市土崎港中央1丁目15-21", "url2": "https://www.kaigokensaku.mhlw.go.jp/05/index.php?action_kouhyou_detail_004_kani=true&JigyosyoCd=0570119271-00&ServiceCd=170&Type=search" }, "geometry": { "type": "Point", "coordinates": [ 140.0670493, 39.752728500000011 ] } },
{ "type": "Feature", "properties": { "内容": "かもめケアサービス【福祉用具貸与】秋田県秋田市八橋大沼町15-12", "url2": "https://www.kaigokensaku.mhlw.go.jp/05/index.php?action_kouhyou_detail_004_kani=true&JigyosyoCd=0570109330-00&ServiceCd=170&Type=search" }, "geometry": { "type": "Point", "coordinates": [ 140.094920340475454, 39.732885722112307 ] } },
{ "type": "Feature", "properties": { "内容": "ほっと・サポート有限会社【福祉用具貸与】秋田県秋田市外旭川八柳３丁目１０番６号", "url2": "https://www.kaigokensaku.mhlw.go.jp/05/index.php?action_kouhyou_detail_004_kani=true&JigyosyoCd=0570106955-00&ServiceCd=170&Type=search" }, "geometry": { "type": "Point", "coordinates": [ 140.096469, 39.745291 ] } },
{ "type": "Feature", "properties": { "内容": "バイタルケア秋田レンタルサービス【福祉用具貸与】秋田県秋田市泉字登木221-1", "url2": "https://www.kaigokensaku.mhlw.go.jp/05/index.php?action_kouhyou_detail_004_kani=true&JigyosyoCd=0570124552-00&ServiceCd=170&Type=search" }, "geometry": { "type": "Point", "coordinates": [ 140.100702299999966, 39.737356 ] } },
{ "type": "Feature", "properties": { "内容": "株式会社　セスタ【福祉用具貸与】秋田県秋田市泉中央二丁目１番１２号", "url2": "https://www.kaigokensaku.mhlw.go.jp/05/index.php?action_kouhyou_detail_004_kani=true&JigyosyoCd=0570109868-00&ServiceCd=170&Type=search" }, "geometry": { "type": "Point", "coordinates": [ 140.101574600000049, 39.7327676 ] } },
{ "type": "Feature", "properties": { "内容": "株式会社　かんきょう【福祉用具貸与】秋田県秋田市土崎港東四丁目６番６１号", "url2": "https://www.kaigokensaku.mhlw.go.jp/05/index.php?action_kouhyou_detail_004_kani=true&JigyosyoCd=0570100297-00&ServiceCd=170&Type=search" }, "geometry": { "type": "Point", "coordinates": [ 140.076362187696873, 39.731632201467313 ] } },
{ "type": "Feature", "properties": { "内容": "みらい工房【福祉用具貸与】秋田県秋田市川尻上野町1番19号", "url2": "https://www.kaigokensaku.mhlw.go.jp/05/index.php?action_kouhyou_detail_004_kani=true&JigyosyoCd=0570116285-00&ServiceCd=170&Type=search" }, "geometry": { "type": "Point", "coordinates": [ 140.10188990000006, 39.7090589 ] } },
{ "type": "Feature", "properties": { "内容": "株式会社小田島アクティ介護用品部秋田営業所【福祉用具貸与】秋田市御所野下堤２丁目１番７号", "url2": "https://www.kaigokensaku.mhlw.go.jp/05/index.php?action_kouhyou_detail_004_kani=true&JigyosyoCd=0570109207-00&ServiceCd=170&Type=search" }, "geometry": { "type": "Point", "coordinates": [ 140.166905459812909, 39.666245597983085 ] } },
{ "type": "Feature", "properties": { "内容": "パナソニックエイジフリーショップ秋田【福祉用具貸与】秋田県秋田市広面字鍋沼33-2", "url2": "https://www.kaigokensaku.mhlw.go.jp/05/index.php?action_kouhyou_detail_004_kani=true&JigyosyoCd=0570119073-00&ServiceCd=170&Type=search" }, "geometry": { "type": "Point", "coordinates": [ 140.146990590612944, 39.717381047461608 ] } },
{ "type": "Feature", "properties": { "内容": "バリアフリーアート【福祉用具貸与】秋田県秋田市新屋渋谷町１－３８", "url2": "https://www.kaigokensaku.mhlw.go.jp/05/index.php?action_kouhyou_detail_004_kani=true&JigyosyoCd=0570114041-00&ServiceCd=170&Type=search" }, "geometry": { "type": "Point", "coordinates": [ 140.095844724467497, 39.672899554591069 ] } },
{ "type": "Feature", "properties": { "内容": "株式会社アミック　福祉事業部【福祉用具貸与】秋田県秋田市中通六丁目１番５５号", "url2": "https://www.kaigokensaku.mhlw.go.jp/05/index.php?action_kouhyou_detail_004_kani=true&JigyosyoCd=0570112854-00&ServiceCd=170&Type=search" }, "geometry": { "type": "Point", "coordinates": [ 140.121846199999936, 39.713204 ] } },
{ "type": "Feature", "properties": { "内容": "くりえいてぃぶらいふ和み【福祉用具貸与】秋田県秋田市外旭川字三後田87-6", "url2": "https://www.kaigokensaku.mhlw.go.jp/05/index.php?action_kouhyou_detail_004_kani=true&JigyosyoCd=0570118976-00&ServiceCd=170&Type=search" }, "geometry": { "type": "Point", "coordinates": [ 140.09558, 39.749971 ] } },
{ "type": "Feature", "properties": { "内容": "福祉用具センター虹の街能代【福祉用具貸与】秋田県能代市河戸川字下大須賀40番", "url2": "https://www.kaigokensaku.mhlw.go.jp/05/index.php?action_kouhyou_detail_004_kani=true&JigyosyoCd=0570223834-00&ServiceCd=170&Type=search" }, "geometry": { "type": "Point", "coordinates": [ 140.022061553605567, 40.184140926922517 ] } },
{ "type": "Feature", "properties": { "内容": "株式会社かんきょう　能代支店【福祉用具貸与】秋田県能代市河戸川字大須賀１番地２", "url2": "https://www.kaigokensaku.mhlw.go.jp/05/index.php?action_kouhyou_detail_004_kani=true&JigyosyoCd=0570224709-00&ServiceCd=170&Type=search" }, "geometry": { "type": "Point", "coordinates": [ 140.020515, 40.1785685 ] } },
{ "type": "Feature", "properties": { "内容": "ダスキンヘルスレント秋田白神ステーション【福祉用具貸与】秋田県能代市寿域長根５４－７", "url2": "https://www.kaigokensaku.mhlw.go.jp/05/index.php?action_kouhyou_detail_004_kani=true&JigyosyoCd=0570223719-00&ServiceCd=170&Type=search" }, "geometry": { "type": "Point", "coordinates": [ 140.026305399999956, 40.1908644 ] } },
{ "type": "Feature", "properties": { "内容": "福祉用具のなかよし【福祉用具貸与】秋田県能代市浅内字横道5-1", "url2": "https://www.kaigokensaku.mhlw.go.jp/05/index.php?action_kouhyou_detail_004_kani=true&JigyosyoCd=0570222851-00&ServiceCd=170&Type=search" }, "geometry": { "type": "Point", "coordinates": [ 140.020093872062262, 40.163682312820221 ] } },
{ "type": "Feature", "properties": { "内容": "福祉用具センターつむぎ【福祉用具貸与】秋田県能代市字町後31番地1", "url2": "https://www.kaigokensaku.mhlw.go.jp/05/index.php?action_kouhyou_detail_004_kani=true&JigyosyoCd=0570290650-00&ServiceCd=170&Type=search" }, "geometry": { "type": "Point", "coordinates": [ 140.120541300000014, 40.2039733 ] } },
{ "type": "Feature", "properties": { "内容": "ＪＡふるさと福祉レンタルサービス【福祉用具貸与】秋田県横手市平鹿町醍醐字道中後28番地1", "url2": "https://www.kaigokensaku.mhlw.go.jp/05/index.php?action_kouhyou_detail_004_kani=true&JigyosyoCd=0570326561-00&ServiceCd=170&Type=search" }, "geometry": { "type": "Point", "coordinates": [ 140.5390212, 39.2508373 ] } },
{ "type": "Feature", "properties": { "内容": "シルバーサポートよこて店【福祉用具貸与】秋田県横手市朝日が丘3丁目４－６", "url2": "https://www.kaigokensaku.mhlw.go.jp/05/index.php?action_kouhyou_detail_004_kani=true&JigyosyoCd=0570325308-00&ServiceCd=170&Type=search" }, "geometry": { "type": "Point", "coordinates": [ 140.5367958, 39.297040300000013 ] } },
{ "type": "Feature", "properties": { "内容": "あったかいんどレンタル【福祉用具貸与】秋田県横手市婦気大堤下久保１９２−１", "url2": "https://www.kaigokensaku.mhlw.go.jp/05/index.php?action_kouhyou_detail_004_kani=true&JigyosyoCd=0570323600-00&ServiceCd=170&Type=search" }, "geometry": { "type": "Point", "coordinates": [ 140.549087120069373, 39.307726021564001 ] } },
{ "type": "Feature", "properties": { "内容": "横手福祉レンタルサービス【福祉用具貸与】秋田県横手市平鹿町中吉田字竹原100-1", "url2": "https://www.kaigokensaku.mhlw.go.jp/05/index.php?action_kouhyou_detail_004_kani=true&JigyosyoCd=0570326108-00&ServiceCd=170&Type=search" }, "geometry": { "type": "Point", "coordinates": [ 140.495930199999947, 39.2694101 ] } },
{ "type": "Feature", "properties": { "内容": "有限会社　いわしや佐東器械店【福祉用具貸与】秋田県横手市幸町3-47", "url2": "https://www.kaigokensaku.mhlw.go.jp/05/index.php?action_kouhyou_detail_004_kani=true&JigyosyoCd=0570304477-00&ServiceCd=170&Type=search" }, "geometry": { "type": "Point", "coordinates": [ 140.565478699999971, 39.3247938 ] } },
{ "type": "Feature", "properties": { "内容": "オレンジ福祉用具センター【福祉用具貸与】秋田県横手市十文字町字海道下56-2", "url2": "https://www.kaigokensaku.mhlw.go.jp/05/index.php?action_kouhyou_detail_004_kani=true&JigyosyoCd=0570326488-00&ServiceCd=170&Type=search" }, "geometry": { "type": "Point", "coordinates": [ 140.522197754930602, 39.228608294343999 ] } },
{ "type": "Feature", "properties": { "内容": "株式会社かんきょう　横手支店【福祉用具貸与】秋田県横手市横手町字上真山３２番地１", "url2": "https://www.kaigokensaku.mhlw.go.jp/05/index.php?action_kouhyou_detail_004_kani=true&JigyosyoCd=0570324681-00&ServiceCd=170&Type=search" }, "geometry": { "type": "Point", "coordinates": [ 140.554558499999985, 39.3197637 ] } },
{ "type": "Feature", "properties": { "内容": "株式会社小田島アクティ介護用品部横手営業所【福祉用具貸与】秋田県横手市婦気大堤字谷地添99番地２１階－１", "url2": "https://www.kaigokensaku.mhlw.go.jp/05/index.php?action_kouhyou_detail_004_kani=true&JigyosyoCd=0570309211-00&ServiceCd=170&Type=search" }, "geometry": { "type": "Point", "coordinates": [ 140.551607, 39.3072905 ] } },
{ "type": "Feature", "properties": { "内容": "福祉用具センター虹の街横手【福祉用具貸与】秋田県横手市三本柳字寺田１３５番地３", "url2": "https://www.kaigokensaku.mhlw.go.jp/05/index.php?action_kouhyou_detail_004_kani=true&JigyosyoCd=0570324228-00&ServiceCd=170&Type=search" }, "geometry": { "type": "Point", "coordinates": [ 140.5461732, 39.3190581 ] } },
{ "type": "Feature", "properties": { "内容": "ダスキンヘルスレント横手ステーション【福祉用具貸与】秋田県横手市柳田1-14", "url2": "https://www.kaigokensaku.mhlw.go.jp/05/index.php?action_kouhyou_detail_004_kani=true&JigyosyoCd=0570310680-00&ServiceCd=170&Type=search" }, "geometry": { "type": "Point", "coordinates": [ 140.544726212033879, 39.274093540710531 ] } },
{ "type": "Feature", "properties": { "内容": "タカハシ薬局【福祉用具貸与】秋田県大館市有浦六丁目2番22号", "url2": "https://www.kaigokensaku.mhlw.go.jp/05/index.php?action_kouhyou_detail_004_kani=true&JigyosyoCd=0570427062-00&ServiceCd=170&Type=search" }, "geometry": { "type": "Point", "coordinates": [ 140.5705955, 40.2804264 ] } },
{ "type": "Feature", "properties": { "内容": "株式会社かんきょう　大館支店【福祉用具貸与】秋田県大館市住吉町１番２０号", "url2": "https://www.kaigokensaku.mhlw.go.jp/05/index.php?action_kouhyou_detail_004_kani=true&JigyosyoCd=0570424697-00&ServiceCd=170&Type=search" }, "geometry": { "type": "Point", "coordinates": [ 140.543245599999977, 40.2728431 ] } },
{ "type": "Feature", "properties": { "内容": "すずらん福祉用具レンタル【福祉用具貸与】秋田県大館市南神明町15-14", "url2": "https://www.kaigokensaku.mhlw.go.jp/05/index.php?action_kouhyou_detail_004_kani=true&JigyosyoCd=0570414623-00&ServiceCd=170&Type=search" }, "geometry": { "type": "Point", "coordinates": [ 140.551745192808283, 40.264398391175483 ] } },
{ "type": "Feature", "properties": { "内容": "福祉用具センター虹の街大館【福祉用具貸与】秋田県大館市御成町二丁目18-31大館酒造ビル２階", "url2": "https://www.kaigokensaku.mhlw.go.jp/05/index.php?action_kouhyou_detail_004_kani=true&JigyosyoCd=0570425439-00&ServiceCd=170&Type=search" }, "geometry": { "type": "Point", "coordinates": [ 140.561271164264582, 40.283680092572929 ] } },
{ "type": "Feature", "properties": { "内容": "株式会社小田島アクティ介護用品部大館営業所【福祉用具貸与】秋田県大館市有浦4丁目4-28", "url2": "https://www.kaigokensaku.mhlw.go.jp/05/index.php?action_kouhyou_detail_004_kani=true&JigyosyoCd=0570409193-00&ServiceCd=170&Type=search" }, "geometry": { "type": "Point", "coordinates": [ 140.570475699999946, 40.285500700000014 ] } },
{ "type": "Feature", "properties": { "内容": "福祉用具ステーション一心堂【福祉用具貸与】秋田県大館市水門町9-38", "url2": "https://www.kaigokensaku.mhlw.go.jp/05/index.php?action_kouhyou_detail_004_kani=true&JigyosyoCd=0570426809-00&ServiceCd=170&Type=search" }, "geometry": { "type": "Point", "coordinates": [ 140.550277200000011, 40.2754458 ] } },
{ "type": "Feature", "properties": { "内容": "ＯＧＡ福祉用具レンタルセンター【福祉用具貸与】秋田県男鹿市船川港船川字元浜町209-1", "url2": "https://www.kaigokensaku.mhlw.go.jp/05/index.php?action_kouhyou_detail_004_kani=true&JigyosyoCd=0570612689-00&ServiceCd=170&Type=search" }, "geometry": { "type": "Point", "coordinates": [ 139.846205999861127, 39.884022986340703 ] } },
{ "type": "Feature", "properties": { "内容": "介護ショップ　エミエル【福祉用具貸与】秋田県男鹿市船越字船越４０１番地２３", "url2": "https://www.kaigokensaku.mhlw.go.jp/05/index.php?action_kouhyou_detail_004_kani=true&JigyosyoCd=0570616540-00&ServiceCd=170&Type=search" }, "geometry": { "type": "Point", "coordinates": [ 139.955572529499818, 39.902520664035194 ] } },
{ "type": "Feature", "properties": { "内容": "介護プラザすずらん【福祉用具貸与】秋田県湯沢市愛宕町二丁目６番２２号", "url2": "https://www.kaigokensaku.mhlw.go.jp/05/index.php?action_kouhyou_detail_004_kani=true&JigyosyoCd=0570701532-00&ServiceCd=170&Type=search" }, "geometry": { "type": "Point", "coordinates": [ 140.4899471, 39.1534969 ] } },
{ "type": "Feature", "properties": { "内容": "秋田基準寝具株式会社　湯沢営業所【福祉用具貸与】秋田県湯沢市岩崎字壇ノ上8-5", "url2": "https://www.kaigokensaku.mhlw.go.jp/05/index.php?action_kouhyou_detail_004_kani=true&JigyosyoCd=0570726471-00&ServiceCd=170&Type=search" }, "geometry": { "type": "Point", "coordinates": [ 140.497245357735522, 39.208629701446505 ] } },
{ "type": "Feature", "properties": { "内容": "県南福祉レンタルセンター【福祉用具貸与】秋田県湯沢市倉内字下川原52-3", "url2": "https://www.kaigokensaku.mhlw.go.jp/05/index.php?action_kouhyou_detail_004_kani=true&JigyosyoCd=0570708545-00&ServiceCd=170&Type=search" }, "geometry": { "type": "Point", "coordinates": [ 140.466154299999971, 39.1814598 ] } },
{ "type": "Feature", "properties": { "内容": "アムールケアレンタルサービス【福祉用具貸与】秋田県湯沢市岩崎字千年86", "url2": "https://www.kaigokensaku.mhlw.go.jp/05/index.php?action_kouhyou_detail_004_kani=true&JigyosyoCd=0570700062-00&ServiceCd=170&Type=search" }, "geometry": { "type": "Point", "coordinates": [ 140.511653244884883, 39.204341077212334 ] } },
{ "type": "Feature", "properties": { "内容": "本荘福祉レンタルサービス【福祉用具貸与】秋田県由利本荘市一番堰31番地2", "url2": "https://www.kaigokensaku.mhlw.go.jp/05/index.php?action_kouhyou_detail_004_kani=true&JigyosyoCd=0570526111-00&ServiceCd=170&Type=search" }, "geometry": { "type": "Point", "coordinates": [ 140.055426200000056, 39.3775384 ] } },
{ "type": "Feature", "properties": { "内容": "福祉用具センター虹の街本荘【福祉用具貸与】秋田県由利本荘市川口字下野173番地1号", "url2": "https://www.kaigokensaku.mhlw.go.jp/05/index.php?action_kouhyou_detail_004_kani=true&JigyosyoCd=0570526483-00&ServiceCd=170&Type=search" }, "geometry": { "type": "Point", "coordinates": [ 140.0597434, 39.4021782 ] } },
{ "type": "Feature", "properties": { "内容": "福祉用具貸与「わかば」【福祉用具貸与】秋田県由利本荘市川口字八幡前262番地1", "url2": "https://www.kaigokensaku.mhlw.go.jp/05/index.php?action_kouhyou_detail_004_kani=true&JigyosyoCd=0570523399-00&ServiceCd=170&Type=search" }, "geometry": { "type": "Point", "coordinates": [ 140.060623042247272, 39.400132688503632 ] } },
{ "type": "Feature", "properties": { "内容": "秋田しんせい農業協同組合【福祉用具貸与】秋田県由利本荘市三条字前田75番地", "url2": "https://www.kaigokensaku.mhlw.go.jp/05/index.php?action_kouhyou_detail_004_kani=true&JigyosyoCd=0570506246-00&ServiceCd=170&Type=search" }, "geometry": { "type": "Point", "coordinates": [ 140.076106399999958, 39.3593906 ] } },
{ "type": "Feature", "properties": { "内容": "ライナ【福祉用具貸与】秋田県潟上市天王字二田79番地1", "url2": "https://www.kaigokensaku.mhlw.go.jp/05/index.php?action_kouhyou_detail_004_kani=true&JigyosyoCd=0571026665-00&ServiceCd=170&Type=search" }, "geometry": { "type": "Point", "coordinates": [ 139.9999483, 39.8765722 ] } },
{ "type": "Feature", "properties": { "内容": "有限会社クリーンサプライ県南【福祉用具貸与】秋田県大仙市高梨字水里133-2", "url2": "https://www.kaigokensaku.mhlw.go.jp/05/index.php?action_kouhyou_detail_004_kani=true&JigyosyoCd=0570807248-00&ServiceCd=170&Type=search" }, "geometry": { "type": "Point", "coordinates": [ 140.499142620212581, 39.461458452317352 ] } },
{ "type": "Feature", "properties": { "内容": "かいんど指定福祉用具貸与事業所【福祉用具貸与】秋田県大仙市払田字宝龍117-4", "url2": "https://www.kaigokensaku.mhlw.go.jp/05/index.php?action_kouhyou_detail_004_kani=true&JigyosyoCd=0572602217-00&ServiceCd=170&Type=search" }, "geometry": { "type": "Point", "coordinates": [ 140.536868199999958, 39.4645569 ] } },
{ "type": "Feature", "properties": { "内容": "シルバーサポートサンショウ大曲店【福祉用具貸与】秋田県大仙市大曲田町29番38号", "url2": "https://www.kaigokensaku.mhlw.go.jp/05/index.php?action_kouhyou_detail_004_kani=true&JigyosyoCd=0570826883-00&ServiceCd=170&Type=search" }, "geometry": { "type": "Point", "coordinates": [ 140.4856251, 39.4517049 ] } },
{ "type": "Feature", "properties": { "内容": "有限会社　共栄メディカル【福祉用具貸与】秋田県大仙市四ツ屋字水木田33", "url2": "https://www.kaigokensaku.mhlw.go.jp/05/index.php?action_kouhyou_detail_004_kani=true&JigyosyoCd=0570801910-00&ServiceCd=170&Type=search" }, "geometry": { "type": "Point", "coordinates": [ 140.512228450926159, 39.513301463191091 ] } },
{ "type": "Feature", "properties": { "内容": "株式会社　虹の街　福祉用具センター虹の街大曲【福祉用具貸与】秋田県大仙市戸蒔字谷地中14-1", "url2": "https://www.kaigokensaku.mhlw.go.jp/05/index.php?action_kouhyou_detail_004_kani=true&JigyosyoCd=0570823849-00&ServiceCd=170&Type=search" }, "geometry": { "type": "Point", "coordinates": [ 140.505916800000023, 39.4503778 ] } },
{ "type": "Feature", "properties": { "内容": "補助器具センターたかのす【福祉用具貸与】秋田県北秋田市脇神字南陣場岱１０番地", "url2": "https://www.kaigokensaku.mhlw.go.jp/05/index.php?action_kouhyou_detail_004_kani=true&JigyosyoCd=0571116722-00&ServiceCd=170&Type=search" }, "geometry": { "type": "Point", "coordinates": [ 140.391832300000033, 40.2123008 ] } },
{ "type": "Feature", "properties": { "内容": "しあわせ福祉用具レンタル【福祉用具貸与】秋田県にかほ市象潟町字４丁目塩越２０１番", "url2": "https://www.kaigokensaku.mhlw.go.jp/05/index.php?action_kouhyou_detail_004_kani=true&JigyosyoCd=0571326644-00&ServiceCd=170&Type=search" }, "geometry": { "type": "Point", "coordinates": [ 139.903751199999988, 39.20885710000001 ] } },
{ "type": "Feature", "properties": { "内容": "春風生活サポートセンター【福祉用具貸与】秋田県南秋田郡五城目町大川下樋口字屋敷下72‐1", "url2": "https://www.kaigokensaku.mhlw.go.jp/05/index.php?action_kouhyou_detail_004_kani=true&JigyosyoCd=0572318756-00&ServiceCd=170&Type=search" }, "geometry": { "type": "Point", "coordinates": [ 140.083706900000038, 39.936025399999984 ] } },
{ "type": "Feature", "properties": { "内容": "株式会社　ユウメディカル【福祉用具貸与】秋田県仙北郡美郷町六郷字遠槻154-1番地", "url2": "https://www.kaigokensaku.mhlw.go.jp/05/index.php?action_kouhyou_detail_004_kani=true&JigyosyoCd=0572604486-00&ServiceCd=170&Type=search" }, "geometry": { "type": "Point", "coordinates": [ 140.515049399999953, 39.4354435 ] } }
]
}
