{
"type": "FeatureCollection",
"name": "geo_05_特定施設入居者生活介護（有料老人ホーム（サービス付き高齢者向け住宅））",
"crs": { "type": "name", "properties": { "name": "urn:ogc:def:crs:OGC:1.3:CRS84" } },
"features": [
{ "type": "Feature", "properties": { "内容": "サ高住らいらっく外旭川【特定施設入居者生活介護（有料老人ホーム（サービス付き高齢者向け住宅））】秋田県秋田市外旭川字神田１１２番地", "url2": "https://www.kaigokensaku.mhlw.go.jp/05/index.php?action_kouhyou_detail_004_kani=true&JigyosyoCd=0570124198-00&ServiceCd=&Type=search" }, "geometry": { "type": "Point", "coordinates": [ 140.102775397908772, 39.747466548123803 ] } },
{ "type": "Feature", "properties": { "内容": "サービス付き高齢者向け住宅　拓稜ハウス土崎南【特定施設入居者生活介護（有料老人ホーム（サービス付き高齢者向け住宅））】秋田県秋田市土崎港南二丁目４番４０号", "url2": "https://www.kaigokensaku.mhlw.go.jp/05/index.php?action_kouhyou_detail_004_kani=true&JigyosyoCd=0570124172-00&ServiceCd=&Type=search" }, "geometry": { "type": "Point", "coordinates": [ 140.071584900000062, 39.7483843 ] } },
{ "type": "Feature", "properties": { "内容": "さらさ秋田駅前【特定施設入居者生活介護（有料老人ホーム（サービス付き高齢者向け住宅））】秋田県秋田市中通4丁目17番15号", "url2": "https://www.kaigokensaku.mhlw.go.jp/05/index.php?action_kouhyou_detail_004_kani=true&JigyosyoCd=0570125732-00&ServiceCd=&Type=search" }, "geometry": { "type": "Point", "coordinates": [ 140.12803729999996, 39.7143762 ] } },
{ "type": "Feature", "properties": { "内容": "特定施設サービス付き高齢者向け住宅ひかり【特定施設入居者生活介護（有料老人ホーム（サービス付き高齢者向け住宅））】秋田県秋田市桜一丁目9-13", "url2": "https://www.kaigokensaku.mhlw.go.jp/05/index.php?action_kouhyou_detail_004_kani=true&JigyosyoCd=0570127027-00&ServiceCd=&Type=search" }, "geometry": { "type": "Point", "coordinates": [ 140.1482517, 39.7108319 ] } },
{ "type": "Feature", "properties": { "内容": "サービス付き高齢者向け住宅　さらさ秋田土崎【特定施設入居者生活介護（有料老人ホーム（サービス付き高齢者向け住宅））】秋田県秋田市土崎港南3丁目2番46号", "url2": "https://www.kaigokensaku.mhlw.go.jp/05/index.php?action_kouhyou_detail_004_kani=true&JigyosyoCd=0570126961-00&ServiceCd=&Type=search" }, "geometry": { "type": "Point", "coordinates": [ 140.065035900000026, 39.7548771 ] } },
{ "type": "Feature", "properties": { "内容": "ひとむすび八橋【特定施設入居者生活介護（有料老人ホーム（サービス付き高齢者向け住宅））】秋田県秋田市寺内字イサノ24番1号", "url2": "https://www.kaigokensaku.mhlw.go.jp/05/index.php?action_kouhyou_detail_004_kani=true&JigyosyoCd=0570124750-00&ServiceCd=&Type=search" }, "geometry": { "type": "Point", "coordinates": [ 140.094162104832435, 39.739417064818745 ] } },
{ "type": "Feature", "properties": { "内容": "きらら特定施設入居者生活介護事業所竿燈通り【特定施設入居者生活介護（有料老人ホーム（サービス付き高齢者向け住宅））】秋田県秋田市大町二丁目5－1きららアーバンパレス", "url2": "https://www.kaigokensaku.mhlw.go.jp/05/index.php?action_kouhyou_detail_004_kani=true&JigyosyoCd=0570119016-00&ServiceCd=&Type=search" }, "geometry": { "type": "Point", "coordinates": [ 140.113535500000012, 39.7188474 ] } },
{ "type": "Feature", "properties": { "内容": "特定施設入居者生活介護スマートホーム【特定施設入居者生活介護（有料老人ホーム（サービス付き高齢者向け住宅））】秋田県秋田市手形新栄町4番1号", "url2": "https://www.kaigokensaku.mhlw.go.jp/05/index.php?action_kouhyou_detail_004_kani=true&JigyosyoCd=0570124990-00&ServiceCd=&Type=search" }, "geometry": { "type": "Point", "coordinates": [ 140.130033899999944, 39.7214116 ] } },
{ "type": "Feature", "properties": { "内容": "サービス付き高齢者向け住宅しおさい【特定施設入居者生活介護（有料老人ホーム（サービス付き高齢者向け住宅））】秋田県秋田市土崎港中央４丁目６－３３", "url2": "https://www.kaigokensaku.mhlw.go.jp/05/index.php?action_kouhyou_detail_004_kani=true&JigyosyoCd=0570124263-00&ServiceCd=&Type=search" }, "geometry": { "type": "Point", "coordinates": [ 140.075958322753849, 39.7534777883846 ] } },
{ "type": "Feature", "properties": { "内容": "仁井田福祉センター【特定施設入居者生活介護（有料老人ホーム（サービス付き高齢者向け住宅））】秋田県秋田市仁井田字切上240番地1", "url2": "https://www.kaigokensaku.mhlw.go.jp/05/index.php?action_kouhyou_detail_004_kani=true&JigyosyoCd=0570115865-00&ServiceCd=&Type=search" }, "geometry": { "type": "Point", "coordinates": [ 140.12881619999996, 39.6834689 ] } },
{ "type": "Feature", "properties": { "内容": "ゆきわり草【特定施設入居者生活介護（有料老人ホーム（サービス付き高齢者向け住宅））】秋田県秋田市川元むつみ町3-32", "url2": "https://www.kaigokensaku.mhlw.go.jp/05/index.php?action_kouhyou_detail_004_kani=true&JigyosyoCd=0570126375-00&ServiceCd=&Type=search" }, "geometry": { "type": "Point", "coordinates": [ 140.104366, 39.7082516 ] } },
{ "type": "Feature", "properties": { "内容": "みんなのまち【特定施設入居者生活介護（有料老人ホーム（サービス付き高齢者向け住宅））】秋田県秋田市新屋比内町22番22号", "url2": "https://www.kaigokensaku.mhlw.go.jp/05/index.php?action_kouhyou_detail_004_kani=true&JigyosyoCd=0570124099-00&ServiceCd=&Type=search" }, "geometry": { "type": "Point", "coordinates": [ 140.085975313491872, 39.672148505837932 ] } },
{ "type": "Feature", "properties": { "内容": "介護付高齢者優良賃貸住宅ほのか【特定施設入居者生活介護（有料老人ホーム（サービス付き高齢者向け住宅））】秋田県秋田市広面字糠塚１０２－１", "url2": "https://www.kaigokensaku.mhlw.go.jp/05/index.php?action_kouhyou_detail_004_kani=true&JigyosyoCd=0570118265-00&ServiceCd=&Type=search" }, "geometry": { "type": "Point", "coordinates": [ 140.150681699999978, 39.726606 ] } },
{ "type": "Feature", "properties": { "内容": "アルテンハウゼ手形住吉町【特定施設入居者生活介護（有料老人ホーム（サービス付き高齢者向け住宅））】秋田県秋田市手形住吉町1番3号三愛会ビル", "url2": "https://www.kaigokensaku.mhlw.go.jp/05/index.php?action_kouhyou_detail_004_kani=true&JigyosyoCd=0570117895-00&ServiceCd=&Type=search" }, "geometry": { "type": "Point", "coordinates": [ 140.130025299999971, 39.725325 ] } },
{ "type": "Feature", "properties": { "内容": "サービス付き高齢者向け住宅　優希【特定施設入居者生活介護（有料老人ホーム（サービス付き高齢者向け住宅））】秋田県秋田市南ヶ丘1丁目3番2号", "url2": "https://www.kaigokensaku.mhlw.go.jp/05/index.php?action_kouhyou_detail_004_kani=true&JigyosyoCd=0570119248-00&ServiceCd=&Type=search" }, "geometry": { "type": "Point", "coordinates": [ 140.155299799999966, 39.6885885 ] } },
{ "type": "Feature", "properties": { "内容": "特定施設入居者生活介護事業所きららいずみ【特定施設入居者生活介護（有料老人ホーム（サービス付き高齢者向け住宅））】秋田県秋田市泉馬場13-20", "url2": "https://www.kaigokensaku.mhlw.go.jp/05/index.php?action_kouhyou_detail_004_kani=true&JigyosyoCd=0570126896-00&ServiceCd=&Type=search" }, "geometry": { "type": "Point", "coordinates": [ 140.126488801292794, 39.733535053874434 ] } },
{ "type": "Feature", "properties": { "内容": "ひとむすび泉【特定施設入居者生活介護（有料老人ホーム（サービス付き高齢者向け住宅））】秋田県秋田市泉北１丁目１３番５号", "url2": "https://www.kaigokensaku.mhlw.go.jp/05/index.php?action_kouhyou_detail_004_kani=true&JigyosyoCd=0570121962-00&ServiceCd=&Type=search" }, "geometry": { "type": "Point", "coordinates": [ 140.100759166435978, 39.735827150017457 ] } },
{ "type": "Feature", "properties": { "内容": "JAあきた白神特定施設サービス付き高齢者向け住宅白神憩の郷【特定施設入居者生活介護（有料老人ホーム（サービス付き高齢者向け住宅））】秋田県能代市向能代字トトメキ106-89", "url2": "https://www.kaigokensaku.mhlw.go.jp/05/index.php?action_kouhyou_detail_004_kani=true&JigyosyoCd=0570225227-00&ServiceCd=&Type=search" }, "geometry": { "type": "Point", "coordinates": [ 140.043929523055795, 40.227765478157693 ] } },
{ "type": "Feature", "properties": { "内容": "サービス付き高齢者向け住宅　温ったまる【特定施設入居者生活介護（有料老人ホーム（サービス付き高齢者向け住宅））】秋田県男鹿市北浦湯本字中里21番地19サービス付き高齢者向け住宅　温ったまる", "url2": "https://www.kaigokensaku.mhlw.go.jp/05/index.php?action_kouhyou_detail_004_kani=true&JigyosyoCd=0570625459-00&ServiceCd=&Type=search" }, "geometry": { "type": "Point", "coordinates": [ 139.745422299370944, 39.975880599854925 ] } },
{ "type": "Feature", "properties": { "内容": "サービス付き高齢者向け住宅　湯ったり【特定施設入居者生活介護（有料老人ホーム（サービス付き高齢者向け住宅））】秋田県男鹿市北浦湯本字中里21番地19サービス付き高齢者向け住宅　湯ったり", "url2": "https://www.kaigokensaku.mhlw.go.jp/05/index.php?action_kouhyou_detail_004_kani=true&JigyosyoCd=0570626481-00&ServiceCd=&Type=search" }, "geometry": { "type": "Point", "coordinates": [ 139.745395800000011, 39.9760912 ] } },
{ "type": "Feature", "properties": { "内容": "株式会社横堀温泉　紫雲閣【特定施設入居者生活介護（有料老人ホーム（サービス付き高齢者向け住宅））】秋田県湯沢市横堀字小正寺１６－１紫雲閣", "url2": "https://www.kaigokensaku.mhlw.go.jp/05/index.php?action_kouhyou_detail_004_kani=true&JigyosyoCd=0570700054-00&ServiceCd=&Type=search" }, "geometry": { "type": "Point", "coordinates": [ 140.454660099999955, 39.0616669 ] } },
{ "type": "Feature", "properties": { "内容": "介護付有料老人ホームさらさ湯沢【特定施設入居者生活介護（有料老人ホーム（サービス付き高齢者向け住宅））】秋田県湯沢市田町二丁目２番３８号", "url2": "https://www.kaigokensaku.mhlw.go.jp/05/index.php?action_kouhyou_detail_004_kani=true&JigyosyoCd=0570700021-00&ServiceCd=&Type=search" }, "geometry": { "type": "Point", "coordinates": [ 140.490188499999931, 39.1599044 ] } },
{ "type": "Feature", "properties": { "内容": "さらさ由利本荘【特定施設入居者生活介護（有料老人ホーム（サービス付き高齢者向け住宅））】秋田県由利本荘市谷地町110", "url2": "https://www.kaigokensaku.mhlw.go.jp/05/index.php?action_kouhyou_detail_004_kani=true&JigyosyoCd=0570525844-00&ServiceCd=&Type=search" }, "geometry": { "type": "Point", "coordinates": [ 140.054596452114879, 39.387970107358889 ] } },
{ "type": "Feature", "properties": { "内容": "さらさ大曲【特定施設入居者生活介護（有料老人ホーム（サービス付き高齢者向け住宅））】秋田県大仙市大曲通町12番36号さらさ大曲", "url2": "https://www.kaigokensaku.mhlw.go.jp/05/index.php?action_kouhyou_detail_004_kani=true&JigyosyoCd=0570825836-00&ServiceCd=&Type=search" }, "geometry": { "type": "Point", "coordinates": [ 140.477853, 39.4661647 ] } },
{ "type": "Feature", "properties": { "内容": "特定施設　やまぼうし【特定施設入居者生活介護（有料老人ホーム（サービス付き高齢者向け住宅））】秋田県山本郡三種町浜田字上浜田1番地1特定施設　やまぼうし", "url2": "https://www.kaigokensaku.mhlw.go.jp/05/index.php?action_kouhyou_detail_004_kani=true&JigyosyoCd=0572225662-00&ServiceCd=&Type=search" }, "geometry": { "type": "Point", "coordinates": [ 139.998306599999978, 40.1031176 ] } }
]
}
