{
"type": "FeatureCollection",
"name": "geo_05_介護老人福祉施設",
"crs": { "type": "name", "properties": { "name": "urn:ogc:def:crs:OGC:1.3:CRS84" } },
"features": [
{ "type": "Feature", "properties": { "内容": "特別養護老人ホームやまゆり【介護老人福祉施設】秋田県秋田市飯島川端一丁目2番5号", "url2": "https://www.kaigokensaku.mhlw.go.jp/05/index.php?action_kouhyou_detail_004_kani=true&JigyosyoCd=0570151795-00&ServiceCd=510&Type=search" }, "geometry": { "type": "Point", "coordinates": [ 140.060359063090516, 39.778276266585955 ] } },
{ "type": "Feature", "properties": { "内容": "特別養護老人ホームあきた中央【介護老人福祉施設】秋田県秋田市外旭川字三千刈114番地1複合施設ケアプラザあきた中央", "url2": "https://www.kaigokensaku.mhlw.go.jp/05/index.php?action_kouhyou_detail_004_kani=true&JigyosyoCd=0570151787-00&ServiceCd=510&Type=search" }, "geometry": { "type": "Point", "coordinates": [ 140.1005611, 39.7393618 ] } },
{ "type": "Feature", "properties": { "内容": "特別養護老人ホーム飯島【介護老人福祉施設】秋田県秋田市飯島道東一丁目５番１号", "url2": "https://www.kaigokensaku.mhlw.go.jp/05/index.php?action_kouhyou_detail_004_kani=true&JigyosyoCd=0570151688-00&ServiceCd=510&Type=search" }, "geometry": { "type": "Point", "coordinates": [ 140.066300599999977, 39.7750978 ] } },
{ "type": "Feature", "properties": { "内容": "特別養護老人ホーム花の家【介護老人福祉施設】秋田県秋田市雄和石田字苗代沢１８", "url2": "https://www.kaigokensaku.mhlw.go.jp/05/index.php?action_kouhyou_detail_004_kani=true&JigyosyoCd=0572450872-00&ServiceCd=510&Type=search" }, "geometry": { "type": "Point", "coordinates": [ 140.172919699999966, 39.5944448 ] } },
{ "type": "Feature", "properties": { "内容": "特別養護老人ホームぬくもり山王【介護老人福祉施設】秋田県秋田市川尻町字大川反２３３番地の５９", "url2": "https://www.kaigokensaku.mhlw.go.jp/05/index.php?action_kouhyou_detail_004_kani=true&JigyosyoCd=0570151530-00&ServiceCd=510&Type=search" }, "geometry": { "type": "Point", "coordinates": [ 140.08558, 39.7136827 ] } },
{ "type": "Feature", "properties": { "内容": "特別養護老人ホーム共生の里【介護老人福祉施設】秋田県秋田市新屋町字関町後187番4", "url2": "https://www.kaigokensaku.mhlw.go.jp/05/index.php?action_kouhyou_detail_004_kani=true&JigyosyoCd=0570151779-00&ServiceCd=510&Type=search" }, "geometry": { "type": "Point", "coordinates": [ 140.07654116546783, 39.685555259387883 ] } },
{ "type": "Feature", "properties": { "内容": "特別養護老人ホーム　幸楽園【介護老人福祉施設】秋田県秋田市上新城中字片野4番地", "url2": "https://www.kaigokensaku.mhlw.go.jp/05/index.php?action_kouhyou_detail_004_kani=true&JigyosyoCd=0570150268-00&ServiceCd=510&Type=search" }, "geometry": { "type": "Point", "coordinates": [ 140.107093899999967, 39.785017600000025 ] } },
{ "type": "Feature", "properties": { "内容": "特別養護老人ホームひなた【介護老人福祉施設】秋田県秋田市土崎港西三丁目１１－５", "url2": "https://www.kaigokensaku.mhlw.go.jp/05/index.php?action_kouhyou_detail_004_kani=true&JigyosyoCd=0570151340-00&ServiceCd=510&Type=search" }, "geometry": { "type": "Point", "coordinates": [ 140.066607100000027, 39.756728581136514 ] } },
{ "type": "Feature", "properties": { "内容": "特別養護老人ホーム　南寿園【介護老人福祉施設】秋田県秋田市上北手猿田字後谷地108-3", "url2": "https://www.kaigokensaku.mhlw.go.jp/05/index.php?action_kouhyou_detail_004_kani=true&JigyosyoCd=0570150284-00&ServiceCd=510&Type=search" }, "geometry": { "type": "Point", "coordinates": [ 140.169932, 39.6814676 ] } },
{ "type": "Feature", "properties": { "内容": "特別養護老人ホーム　中通【介護老人福祉施設】秋田県秋田市中通4丁目3番23号", "url2": "https://www.kaigokensaku.mhlw.go.jp/05/index.php?action_kouhyou_detail_004_kani=true&JigyosyoCd=0570151381-00&ServiceCd=510&Type=search" }, "geometry": { "type": "Point", "coordinates": [ 140.123546534600365, 39.714637510332444 ] } },
{ "type": "Feature", "properties": { "内容": "特別養護老人ホーム　高清水寿光園【介護老人福祉施設】秋田県秋田市寺内後城６－４１", "url2": "https://www.kaigokensaku.mhlw.go.jp/05/index.php?action_kouhyou_detail_004_kani=true&JigyosyoCd=0570150219-00&ServiceCd=510&Type=search" }, "geometry": { "type": "Point", "coordinates": [ 140.0739906, 39.7401493 ] } },
{ "type": "Feature", "properties": { "内容": "松寿会特別養護老人ホーム松涛園【介護老人福祉施設】秋田県秋田市浜田字陳ヶ原３５番地３１", "url2": "https://www.kaigokensaku.mhlw.go.jp/05/index.php?action_kouhyou_detail_004_kani=true&JigyosyoCd=0570150243-00&ServiceCd=510&Type=search" }, "geometry": { "type": "Point", "coordinates": [ 140.068043100000068, 39.6504352 ] } },
{ "type": "Feature", "properties": { "内容": "特別養護老人ホーム　魁聖園【介護老人福祉施設】秋田県秋田市新藤田字治郎沢52-6", "url2": "https://www.kaigokensaku.mhlw.go.jp/05/index.php?action_kouhyou_detail_004_kani=true&JigyosyoCd=0570150748-00&ServiceCd=510&Type=search" }, "geometry": { "type": "Point", "coordinates": [ 140.13805960000002, 39.7432258 ] } },
{ "type": "Feature", "properties": { "内容": "特別養護老人ホーム大平荘【介護老人福祉施設】秋田県秋田市太平八田字藤の崎231ー3", "url2": "https://www.kaigokensaku.mhlw.go.jp/05/index.php?action_kouhyou_detail_004_kani=true&JigyosyoCd=0570150235-00&ServiceCd=510&Type=search" }, "geometry": { "type": "Point", "coordinates": [ 140.180739099999954, 39.7472239 ] } },
{ "type": "Feature", "properties": { "内容": "特別養護老人ホーム　八橋【介護老人福祉施設】秋田県秋田市八橋イサノ1丁目2番4号", "url2": "https://www.kaigokensaku.mhlw.go.jp/05/index.php?action_kouhyou_detail_004_kani=true&JigyosyoCd=0570151282-00&ServiceCd=510&Type=search" }, "geometry": { "type": "Point", "coordinates": [ 140.094419900000048, 39.730737 ] } },
{ "type": "Feature", "properties": { "内容": "特別養護老人ホーム海松園【介護老人福祉施設】秋田県秋田市下新城中野字街道端西233-47", "url2": "https://www.kaigokensaku.mhlw.go.jp/05/index.php?action_kouhyou_detail_004_kani=true&JigyosyoCd=0570150227-00&ServiceCd=510&Type=search" }, "geometry": { "type": "Point", "coordinates": [ 140.055449899999985, 39.7973705 ] } },
{ "type": "Feature", "properties": { "内容": "特別養護老人ホーム　河辺荘【介護老人福祉施設】秋田県秋田市河辺大張野字水口沢２１６番地", "url2": "https://www.kaigokensaku.mhlw.go.jp/05/index.php?action_kouhyou_detail_004_kani=true&JigyosyoCd=0572450393-00&ServiceCd=510&Type=search" }, "geometry": { "type": "Point", "coordinates": [ 140.260294400000021, 39.6593589 ] } },
{ "type": "Feature", "properties": { "内容": "特別養護老人ホーム一つ森【介護老人福祉施設】秋田県秋田市上北手荒巻字鳥越229-1", "url2": "https://www.kaigokensaku.mhlw.go.jp/05/index.php?action_kouhyou_detail_004_kani=true&JigyosyoCd=0570151217-00&ServiceCd=510&Type=search" }, "geometry": { "type": "Point", "coordinates": [ 140.140278800000033, 39.6940679 ] } },
{ "type": "Feature", "properties": { "内容": "介護老人福祉施設　新成園【介護老人福祉施設】秋田県秋田市浜田字元中村280－9", "url2": "https://www.kaigokensaku.mhlw.go.jp/05/index.php?action_kouhyou_detail_004_kani=true&JigyosyoCd=0570150300-00&ServiceCd=510&Type=search" }, "geometry": { "type": "Point", "coordinates": [ 140.069483499999933, 39.6800283 ] } },
{ "type": "Feature", "properties": { "内容": "特別養護老人ホーム光峰苑【介護老人福祉施設】秋田県秋田市添川字矢坂16番地1", "url2": "https://www.kaigokensaku.mhlw.go.jp/05/index.php?action_kouhyou_detail_004_kani=true&JigyosyoCd=0570150250-00&ServiceCd=510&Type=search" }, "geometry": { "type": "Point", "coordinates": [ 140.1507264, 39.755427299999965 ] } },
{ "type": "Feature", "properties": { "内容": "特別養護老人ホーム金寿園【介護老人福祉施設】秋田県秋田市下新城笠岡字川向28番地", "url2": "https://www.kaigokensaku.mhlw.go.jp/05/index.php?action_kouhyou_detail_004_kani=true&JigyosyoCd=0570150276-00&ServiceCd=510&Type=search" }, "geometry": { "type": "Point", "coordinates": [ 140.076076899999947, 39.79113 ] } },
{ "type": "Feature", "properties": { "内容": "特別養護老人ホーム　やすらぎホームけやき【介護老人福祉施設】秋田県秋田市御所野下堤五丁目１番５号", "url2": "https://www.kaigokensaku.mhlw.go.jp/05/index.php?action_kouhyou_detail_004_kani=true&JigyosyoCd=0570150292-00&ServiceCd=510&Type=search" }, "geometry": { "type": "Point", "coordinates": [ 140.15493390000006, 39.6668883 ] } },
{ "type": "Feature", "properties": { "内容": "特別養護老人ホーム　ほどの【介護老人福祉施設】秋田市保戸野すわ町8番24号", "url2": "https://www.kaigokensaku.mhlw.go.jp/05/index.php?action_kouhyou_detail_004_kani=true&JigyosyoCd=0570151472-00&ServiceCd=510&Type=search" }, "geometry": { "type": "Point", "coordinates": [ 140.117334799999981, 39.7246246 ] } },
{ "type": "Feature", "properties": { "内容": "特別養護老人ホームリンデンバウムいずみ【介護老人福祉施設】秋田市泉菅野二丁目１７番１１号", "url2": "https://www.kaigokensaku.mhlw.go.jp/05/index.php?action_kouhyou_detail_004_kani=true&JigyosyoCd=0570150813-00&ServiceCd=510&Type=search" }, "geometry": { "type": "Point", "coordinates": [ 140.115076, 39.7360816 ] } },
{ "type": "Feature", "properties": { "内容": "特別養護老人ホーム　長寿園【介護老人福祉施設】秋田県能代市字腹鞁ノ沢１９番地１", "url2": "https://www.kaigokensaku.mhlw.go.jp/05/index.php?action_kouhyou_detail_004_kani=true&JigyosyoCd=0570250159-00&ServiceCd=510&Type=search" }, "geometry": { "type": "Point", "coordinates": [ 140.075401300000067, 40.1778666 ] } },
{ "type": "Feature", "properties": { "内容": "特別養護老人ホームさらさ能代【介護老人福祉施設】秋田県能代市元町14番126号", "url2": "https://www.kaigokensaku.mhlw.go.jp/05/index.php?action_kouhyou_detail_004_kani=true&JigyosyoCd=0570226837-00&ServiceCd=510&Type=search" }, "geometry": { "type": "Point", "coordinates": [ 140.033705694581613, 40.208553924322395 ] } },
{ "type": "Feature", "properties": { "内容": "特別養護老人ホームよねしろ【介護老人福祉施設】秋田県能代市二ツ井町字下野家後１４５", "url2": "https://www.kaigokensaku.mhlw.go.jp/05/index.php?action_kouhyou_detail_004_kani=true&JigyosyoCd=0572250173-00&ServiceCd=510&Type=search" }, "geometry": { "type": "Point", "coordinates": [ 140.242172699999969, 40.2095759 ] } },
{ "type": "Feature", "properties": { "内容": "特別養護老人ホーム悠西苑【介護老人福祉施設】秋田県横手市平鹿町浅舞字新堀146番地", "url2": "https://www.kaigokensaku.mhlw.go.jp/05/index.php?action_kouhyou_detail_004_kani=true&JigyosyoCd=0570351486-00&ServiceCd=510&Type=search" }, "geometry": { "type": "Point", "coordinates": [ 140.483670498672495, 39.269149857624505 ] } },
{ "type": "Feature", "properties": { "内容": "特別養護老人ホーム　ビハーラ赤坂【介護老人福祉施設】秋田県横手市赤坂字仁坂105-2", "url2": "https://www.kaigokensaku.mhlw.go.jp/05/index.php?action_kouhyou_detail_004_kani=true&JigyosyoCd=0570351635-00&ServiceCd=510&Type=search" }, "geometry": { "type": "Point", "coordinates": [ 140.533029409786991, 39.298504303457776 ] } },
{ "type": "Feature", "properties": { "内容": "特別養護老人ホーム　ビハーラ横手【介護老人福祉施設】秋田県横手市上境字谷地中139番地", "url2": "https://www.kaigokensaku.mhlw.go.jp/05/index.php?action_kouhyou_detail_004_kani=true&JigyosyoCd=0570350850-00&ServiceCd=510&Type=search" }, "geometry": { "type": "Point", "coordinates": [ 140.528134799999947, 39.342377 ] } },
{ "type": "Feature", "properties": { "内容": "横手市特別養護老人ホーム白寿園【介護老人福祉施設】秋田県横手市大森町字菅生田245-27", "url2": "https://www.kaigokensaku.mhlw.go.jp/05/index.php?action_kouhyou_detail_004_kani=true&JigyosyoCd=0570351114-00&ServiceCd=510&Type=search" }, "geometry": { "type": "Point", "coordinates": [ 140.413912200000027, 39.3495894 ] } },
{ "type": "Feature", "properties": { "内容": "社会福祉法人ファミリーケアサービス　特別養護老人ホームすこやか横手【介護老人福祉施設】秋田県横手市横山町1番1号", "url2": "https://www.kaigokensaku.mhlw.go.jp/05/index.php?action_kouhyou_detail_004_kani=true&JigyosyoCd=0570350611-00&ServiceCd=510&Type=search" }, "geometry": { "type": "Point", "coordinates": [ 140.5637137, 39.3043595 ] } },
{ "type": "Feature", "properties": { "内容": "横手市社会福祉協議会特別養護老人ホーム平寿苑【介護老人福祉施設】秋田県横手市平鹿町浅舞字館廻３５３番地", "url2": "https://www.kaigokensaku.mhlw.go.jp/05/index.php?action_kouhyou_detail_004_kani=true&JigyosyoCd=0570351411-00&ServiceCd=510&Type=search" }, "geometry": { "type": "Point", "coordinates": [ 140.483856400000036, 39.2675016 ] } },
{ "type": "Feature", "properties": { "内容": "特別養護老人ホーム　すこやか森の家【介護老人福祉施設】秋田県横手市婦気大堤字婦気前154-1", "url2": "https://www.kaigokensaku.mhlw.go.jp/05/index.php?action_kouhyou_detail_004_kani=true&JigyosyoCd=0570350868-00&ServiceCd=510&Type=search" }, "geometry": { "type": "Point", "coordinates": [ 140.553466, 39.3004775 ] } },
{ "type": "Feature", "properties": { "内容": "横手市社会福祉協議会特別養護老人ホーム雄水苑【介護老人福祉施設】秋田県横手市雄物川町今宿字末館５０番地", "url2": "https://www.kaigokensaku.mhlw.go.jp/05/index.php?action_kouhyou_detail_004_kani=true&JigyosyoCd=0570351429-00&ServiceCd=510&Type=search" }, "geometry": { "type": "Point", "coordinates": [ 140.403671035581965, 39.284501269102122 ] } },
{ "type": "Feature", "properties": { "内容": "特別養護老人ホームすこやか大雄【介護老人福祉施設】秋田県横手市大雄字八柏谷地103番地1", "url2": "https://www.kaigokensaku.mhlw.go.jp/05/index.php?action_kouhyou_detail_004_kani=true&JigyosyoCd=0570351445-00&ServiceCd=510&Type=search" }, "geometry": { "type": "Point", "coordinates": [ 140.494809454414394, 39.323353502006405 ] } },
{ "type": "Feature", "properties": { "内容": "横手市社会福祉協議会　特別養護老人ホーム憩寿園【介護老人福祉施設】秋田県横手市十文字町梨木字御休ノ上108番地", "url2": "https://www.kaigokensaku.mhlw.go.jp/05/index.php?action_kouhyou_detail_004_kani=true&JigyosyoCd=0570351403-00&ServiceCd=510&Type=search" }, "geometry": { "type": "Point", "coordinates": [ 140.52378049999993, 39.2376341 ] } },
{ "type": "Feature", "properties": { "内容": "社会福祉法人ファミリーケアサービス　横手市特別養護老人ホーム　シルバードームいきいきの郷【介護老人福祉施設】秋田県横手市増田町増田字七日町177", "url2": "https://www.kaigokensaku.mhlw.go.jp/05/index.php?action_kouhyou_detail_004_kani=true&JigyosyoCd=0570351452-00&ServiceCd=510&Type=search" }, "geometry": { "type": "Point", "coordinates": [ 140.549203826983671, 39.203235386131134 ] } },
{ "type": "Feature", "properties": { "内容": "社会福祉法人相和会　横手市特別養護老人ホーム鶴寿苑【介護老人福祉施設】秋田県横手市山内土渕字鶴ヶ池３１－３", "url2": "https://www.kaigokensaku.mhlw.go.jp/05/index.php?action_kouhyou_detail_004_kani=true&JigyosyoCd=0570351395-00&ServiceCd=510&Type=search" }, "geometry": { "type": "Point", "coordinates": [ 140.621516899999961, 39.2823234 ] } },
{ "type": "Feature", "properties": { "内容": "特別養護老人ホームはなみずき【介護老人福祉施設】秋田県大館市比内町新館字真館21番地2", "url2": "https://www.kaigokensaku.mhlw.go.jp/05/index.php?action_kouhyou_detail_004_kani=true&JigyosyoCd=0570451666-00&ServiceCd=510&Type=search" }, "geometry": { "type": "Point", "coordinates": [ 140.586350877246105, 40.215247823944168 ] } },
{ "type": "Feature", "properties": { "内容": "特別養護老人ホーム　山館苑【介護老人福祉施設】秋田県大館市山館字館ノ下12番地1特別養護老人ホーム　山館苑", "url2": "https://www.kaigokensaku.mhlw.go.jp/05/index.php?action_kouhyou_detail_004_kani=true&JigyosyoCd=0570451245-00&ServiceCd=510&Type=search" }, "geometry": { "type": "Point", "coordinates": [ 140.583573699999988, 40.2371042 ] } },
{ "type": "Feature", "properties": { "内容": "特別養護老人ホーム　大館南ガーデン【介護老人福祉施設】秋田県大館市下川原字向野１７番地１", "url2": "https://www.kaigokensaku.mhlw.go.jp/05/index.php?action_kouhyou_detail_004_kani=true&JigyosyoCd=0570451690-00&ServiceCd=510&Type=search" }, "geometry": { "type": "Point", "coordinates": [ 140.524332704090853, 40.244508697962473 ] } },
{ "type": "Feature", "properties": { "内容": "大館市特別養護老人ホームつくし苑【介護老人福祉施設】秋田県大館市十二所字大水口4番地5", "url2": "https://www.kaigokensaku.mhlw.go.jp/05/index.php?action_kouhyou_detail_004_kani=true&JigyosyoCd=0570450064-00&ServiceCd=510&Type=search" }, "geometry": { "type": "Point", "coordinates": [ 140.6582148, 40.2158174 ] } },
{ "type": "Feature", "properties": { "内容": "指定介護老人福祉施設特別養護老人ホーム水交苑【介護老人福祉施設】秋田県大館市下綱22番地1", "url2": "https://www.kaigokensaku.mhlw.go.jp/05/index.php?action_kouhyou_detail_004_kani=true&JigyosyoCd=0570450049-00&ServiceCd=510&Type=search" }, "geometry": { "type": "Point", "coordinates": [ 140.589019394889846, 40.289949339045847 ] } },
{ "type": "Feature", "properties": { "内容": "特別養護老人ホーム　長慶荘【介護老人福祉施設】秋田県大館市岩瀬字羽貫谷地中島２１番地９０", "url2": "https://www.kaigokensaku.mhlw.go.jp/05/index.php?action_kouhyou_detail_004_kani=true&JigyosyoCd=0572150076-00&ServiceCd=510&Type=search" }, "geometry": { "type": "Point", "coordinates": [ 140.451477100000034, 40.289790500000038 ] } },
{ "type": "Feature", "properties": { "内容": "特別養護老人ホームやまぼうし【介護老人福祉施設】秋田県大館市比内町新館字真館21-6", "url2": "https://www.kaigokensaku.mhlw.go.jp/05/index.php?action_kouhyou_detail_004_kani=true&JigyosyoCd=0572150084-00&ServiceCd=510&Type=search" }, "geometry": { "type": "Point", "coordinates": [ 140.586522509761039, 40.215787319890417 ] } },
{ "type": "Feature", "properties": { "内容": "特別養護老人ホーム　神山荘【介護老人福祉施設】秋田県大館市花岡町字神山６番地２", "url2": "https://www.kaigokensaku.mhlw.go.jp/05/index.php?action_kouhyou_detail_004_kani=true&JigyosyoCd=0570450056-00&ServiceCd=510&Type=search" }, "geometry": { "type": "Point", "coordinates": [ 140.555556, 40.3230236 ] } },
{ "type": "Feature", "properties": { "内容": "特別養護老人ホーム寿恵園【介護老人福祉施設】秋田県男鹿市船川港比詰字神明堂脇７番地", "url2": "https://www.kaigokensaku.mhlw.go.jp/05/index.php?action_kouhyou_detail_004_kani=true&JigyosyoCd=0570650317-00&ServiceCd=510&Type=search" }, "geometry": { "type": "Point", "coordinates": [ 139.858008400000017, 39.9095487 ] } },
{ "type": "Feature", "properties": { "内容": "特別養護老人ホーム和幸苑【介護老人福祉施設】秋田県男鹿市角間崎字岡見沢86番地12", "url2": "https://www.kaigokensaku.mhlw.go.jp/05/index.php?action_kouhyou_detail_004_kani=true&JigyosyoCd=0572350387-00&ServiceCd=510&Type=search" }, "geometry": { "type": "Point", "coordinates": [ 139.904919899999982, 39.9602281 ] } },
{ "type": "Feature", "properties": { "内容": "ユニット型特別養護老人ホーム　南海の丘【介護老人福祉施設】秋田県男鹿市船川港台島字中台１０８番地", "url2": "https://www.kaigokensaku.mhlw.go.jp/05/index.php?action_kouhyou_detail_004_kani=true&JigyosyoCd=0570651372-00&ServiceCd=510&Type=search" }, "geometry": { "type": "Point", "coordinates": [ 139.808036076057419, 39.864949990822033 ] } },
{ "type": "Feature", "properties": { "内容": "特別養護老人ホーム　シャイントピアみなせ【介護老人福祉施設】秋田県湯沢市皆瀬字小野１８８－１", "url2": "https://www.kaigokensaku.mhlw.go.jp/05/index.php?action_kouhyou_detail_004_kani=true&JigyosyoCd=0572850899-00&ServiceCd=510&Type=search" }, "geometry": { "type": "Point", "coordinates": [ 140.5895706, 39.074401 ] } },
{ "type": "Feature", "properties": { "内容": "特別養護老人ホーム平成園【介護老人福祉施設】秋田県湯沢市小野字大沢田221番地", "url2": "https://www.kaigokensaku.mhlw.go.jp/05/index.php?action_kouhyou_detail_004_kani=true&JigyosyoCd=0572850691-00&ServiceCd=510&Type=search" }, "geometry": { "type": "Point", "coordinates": [ 140.459251399999971, 39.0576759 ] } },
{ "type": "Feature", "properties": { "内容": "特別養護老人ホーム　サン・グリーンゆざわ【介護老人福祉施設】秋田県湯沢市裏門1丁目2番19号", "url2": "https://www.kaigokensaku.mhlw.go.jp/05/index.php?action_kouhyou_detail_004_kani=true&JigyosyoCd=0570751701-00&ServiceCd=510&Type=search" }, "geometry": { "type": "Point", "coordinates": [ 140.5018096, 39.1641154 ] } },
{ "type": "Feature", "properties": { "内容": "特別養護老人ホーム　いさみが岡【介護老人福祉施設】秋田県湯沢市山田字勇ヶ岡５０番地", "url2": "https://www.kaigokensaku.mhlw.go.jp/05/index.php?action_kouhyou_detail_004_kani=true&JigyosyoCd=0570751727-00&ServiceCd=510&Type=search" }, "geometry": { "type": "Point", "coordinates": [ 140.45293879999997, 39.1449773 ] } },
{ "type": "Feature", "properties": { "内容": "特別養護老人ホーム健寿苑【介護老人福祉施設】秋田県湯沢市駒形町字八面狐塚58番地", "url2": "https://www.kaigokensaku.mhlw.go.jp/05/index.php?action_kouhyou_detail_004_kani=true&JigyosyoCd=0570751362-00&ServiceCd=510&Type=search" }, "geometry": { "type": "Point", "coordinates": [ 140.55373243046327, 39.172509618242685 ] } },
{ "type": "Feature", "properties": { "内容": "特別養護老人ホーム　東恵園【介護老人福祉施設】秋田県鹿角市花輪字古館4番地1", "url2": "https://www.kaigokensaku.mhlw.go.jp/05/index.php?action_kouhyou_detail_004_kani=true&JigyosyoCd=0570950014-00&ServiceCd=510&Type=search" }, "geometry": { "type": "Point", "coordinates": [ 140.803783, 40.1944974 ] } },
{ "type": "Feature", "properties": { "内容": "介護老人福祉施設鹿角微笑苑【介護老人福祉施設】秋田県鹿角市十和田大湯字屋布ノ下タ２０番地", "url2": "https://www.kaigokensaku.mhlw.go.jp/05/index.php?action_kouhyou_detail_004_kani=true&JigyosyoCd=0570951756-00&ServiceCd=510&Type=search" }, "geometry": { "type": "Point", "coordinates": [ 140.79117789999998, 40.2731784 ] } },
{ "type": "Feature", "properties": { "内容": "特別養護老人ホームケアホームおおゆ【介護老人福祉施設】秋田県鹿角市十和田大湯字湯の岱一丁目１番地", "url2": "https://www.kaigokensaku.mhlw.go.jp/05/index.php?action_kouhyou_detail_004_kani=true&JigyosyoCd=0570950022-00&ServiceCd=510&Type=search" }, "geometry": { "type": "Point", "coordinates": [ 140.83479310000007, 40.2965997 ] } },
{ "type": "Feature", "properties": { "内容": "特別養護老人ホーム　夢うさぎ【介護老人福祉施設】秋田県由利本荘市石脇字石ノ花194番地230", "url2": "https://www.kaigokensaku.mhlw.go.jp/05/index.php?action_kouhyou_detail_004_kani=true&JigyosyoCd=0570551648-00&ServiceCd=510&Type=search" }, "geometry": { "type": "Point", "coordinates": [ 140.032428772242724, 39.395770072496447 ] } },
{ "type": "Feature", "properties": { "内容": "特別養護老人ホームひまわり【介護老人福祉施設】秋田県由利本荘市西目町海士剥字御月森1番地", "url2": "https://www.kaigokensaku.mhlw.go.jp/05/index.php?action_kouhyou_detail_004_kani=true&JigyosyoCd=0572550846-00&ServiceCd=510&Type=search" }, "geometry": { "type": "Point", "coordinates": [ 140.019873599999983, 39.3687379 ] } },
{ "type": "Feature", "properties": { "内容": "由利本荘市特別養護老人ホーム「鳥寿苑」【介護老人福祉施設】秋田県由利本荘市鳥海町伏見字久保77番地由利本荘市特別養護老人ホーム「鳥寿苑」", "url2": "https://www.kaigokensaku.mhlw.go.jp/05/index.php?action_kouhyou_detail_004_kani=true&JigyosyoCd=0570550939-00&ServiceCd=510&Type=search" }, "geometry": { "type": "Point", "coordinates": [ 140.18904950000001, 39.1896897 ] } },
{ "type": "Feature", "properties": { "内容": "特別養護老人ホーム　ふるさと矢島【介護老人福祉施設】秋田県由利本荘市矢島町城内字八森下481番地1", "url2": "https://www.kaigokensaku.mhlw.go.jp/05/index.php?action_kouhyou_detail_004_kani=true&JigyosyoCd=0572550762-00&ServiceCd=510&Type=search" }, "geometry": { "type": "Point", "coordinates": [ 140.136414400000035, 39.2344906 ] } },
{ "type": "Feature", "properties": { "内容": "特別養護老人ホーム白百合苑【介護老人福祉施設】秋田県由利本荘市前郷字家岸79番地17", "url2": "https://www.kaigokensaku.mhlw.go.jp/05/index.php?action_kouhyou_detail_004_kani=true&JigyosyoCd=0570551168-00&ServiceCd=510&Type=search" }, "geometry": { "type": "Point", "coordinates": [ 140.1113739, 39.3140376 ] } },
{ "type": "Feature", "properties": { "内容": "指定介護老人福祉施設　花ごよみ【介護老人福祉施設】由利本荘市土谷字新谷地160番地", "url2": "https://www.kaigokensaku.mhlw.go.jp/05/index.php?action_kouhyou_detail_004_kani=true&JigyosyoCd=0570551317-00&ServiceCd=510&Type=search" }, "geometry": { "type": "Point", "coordinates": [ 140.070122399999946, 39.391921 ] } },
{ "type": "Feature", "properties": { "内容": "特別養護老人ホーム　萬生苑【介護老人福祉施設】秋田県由利本荘市薬師堂字一番堰38番地1", "url2": "https://www.kaigokensaku.mhlw.go.jp/05/index.php?action_kouhyou_detail_004_kani=true&JigyosyoCd=0570550418-00&ServiceCd=510&Type=search" }, "geometry": { "type": "Point", "coordinates": [ 140.058740319928404, 39.372851117872266 ] } },
{ "type": "Feature", "properties": { "内容": "特別養護老人ホーム東光苑【介護老人福祉施設】秋田県由利本荘市東由利蔵字蔵83番地特別養護老人ホーム　東光苑", "url2": "https://www.kaigokensaku.mhlw.go.jp/05/index.php?action_kouhyou_detail_004_kani=true&JigyosyoCd=0570550954-00&ServiceCd=510&Type=search" }, "geometry": { "type": "Point", "coordinates": [ 140.263561739147917, 39.315566689033226 ] } },
{ "type": "Feature", "properties": { "内容": "指定介護老人福祉施設　ふるさと学び舎【介護老人福祉施設】秋田県由利本荘市土谷字新谷地157番地", "url2": "https://www.kaigokensaku.mhlw.go.jp/05/index.php?action_kouhyou_detail_004_kani=true&JigyosyoCd=0570551192-00&ServiceCd=510&Type=search" }, "geometry": { "type": "Point", "coordinates": [ 140.069400200000018, 39.3918877 ] } },
{ "type": "Feature", "properties": { "内容": "特別養護老人ホーム　あじさいの郷【介護老人福祉施設】秋田県由利本荘市水林４５９番地２", "url2": "https://www.kaigokensaku.mhlw.go.jp/05/index.php?action_kouhyou_detail_004_kani=true&JigyosyoCd=0570551549-00&ServiceCd=510&Type=search" }, "geometry": { "type": "Point", "coordinates": [ 140.023270554153441, 39.376312066599205 ] } },
{ "type": "Feature", "properties": { "内容": "特別養護老人ホーム　おおうち【介護老人福祉施設】秋田県由利本荘市岩谷町字ハケノ下80番地2", "url2": "https://www.kaigokensaku.mhlw.go.jp/05/index.php?action_kouhyou_detail_004_kani=true&JigyosyoCd=0572550499-00&ServiceCd=510&Type=search" }, "geometry": { "type": "Point", "coordinates": [ 140.106618199999957, 39.4480723 ] } },
{ "type": "Feature", "properties": { "内容": "特別養護老人ホーム広洋苑【介護老人福祉施設】秋田県由利本荘市岩城内道川字上山１３４番地", "url2": "https://www.kaigokensaku.mhlw.go.jp/05/index.php?action_kouhyou_detail_004_kani=true&JigyosyoCd=0572550457-00&ServiceCd=510&Type=search" }, "geometry": { "type": "Point", "coordinates": [ 140.05723809999995, 39.5461311 ] } },
{ "type": "Feature", "properties": { "内容": "特別養護老人ホームわかば園【介護老人福祉施設】秋田県潟上市飯田川下虻川字上谷地１６８番地の１", "url2": "https://www.kaigokensaku.mhlw.go.jp/05/index.php?action_kouhyou_detail_004_kani=true&JigyosyoCd=0572350361-00&ServiceCd=510&Type=search" }, "geometry": { "type": "Point", "coordinates": [ 140.070592900000065, 39.8693402 ] } },
{ "type": "Feature", "properties": { "内容": "特別養護老人ホーム昭寿苑【介護老人福祉施設】秋田県潟上市昭和大久保字北野海老漉沼端74-3", "url2": "https://www.kaigokensaku.mhlw.go.jp/05/index.php?action_kouhyou_detail_004_kani=true&JigyosyoCd=0571027143-00&ServiceCd=510&Type=search" }, "geometry": { "type": "Point", "coordinates": [ 140.038255513491833, 39.845158755083922 ] } },
{ "type": "Feature", "properties": { "内容": "特別養護老人ホーム松恵苑【介護老人福祉施設】秋田県潟上市天王字鶴沼台43-226", "url2": "https://www.kaigokensaku.mhlw.go.jp/05/index.php?action_kouhyou_detail_004_kani=true&JigyosyoCd=0572350379-00&ServiceCd=510&Type=search" }, "geometry": { "type": "Point", "coordinates": [ 140.017822799999976, 39.8605515 ] } },
{ "type": "Feature", "properties": { "内容": "特別養護老人ホーム　ウォームハート【介護老人福祉施設】秋田県大仙市刈和野字愛宕町17番地1", "url2": "https://www.kaigokensaku.mhlw.go.jp/05/index.php?action_kouhyou_detail_004_kani=true&JigyosyoCd=0570851055-00&ServiceCd=510&Type=search" }, "geometry": { "type": "Point", "coordinates": [ 140.370163199999979, 39.5443045 ] } },
{ "type": "Feature", "properties": { "内容": "特別養護老人ホーム桜寿苑【介護老人福祉施設】秋田県大仙市北長野字野口前４7番地", "url2": "https://www.kaigokensaku.mhlw.go.jp/05/index.php?action_kouhyou_detail_004_kani=true&JigyosyoCd=0570851279-00&ServiceCd=510&Type=search" }, "geometry": { "type": "Point", "coordinates": [ 140.547163400000045, 39.548494 ] } },
{ "type": "Feature", "properties": { "内容": "特別養護老人ホーム　ありすの街【介護老人福祉施設】秋田県大仙市強首字上野台２３番地１８", "url2": "https://www.kaigokensaku.mhlw.go.jp/05/index.php?action_kouhyou_detail_004_kani=true&JigyosyoCd=0570851063-00&ServiceCd=510&Type=search" }, "geometry": { "type": "Point", "coordinates": [ 140.317284914680499, 39.535095763804151 ] } },
{ "type": "Feature", "properties": { "内容": "特別養護老人ホーム福寿園【介護老人福祉施設】秋田県大仙市南外字湯神台10", "url2": "https://www.kaigokensaku.mhlw.go.jp/05/index.php?action_kouhyou_detail_004_kani=true&JigyosyoCd=0570851329-00&ServiceCd=510&Type=search" }, "geometry": { "type": "Point", "coordinates": [ 140.359864199999947, 39.4283625 ] } },
{ "type": "Feature", "properties": { "内容": "特別養護老人ホーム真森苑【介護老人福祉施設】秋田県大仙市板見内字一ツ森410", "url2": "https://www.kaigokensaku.mhlw.go.jp/05/index.php?action_kouhyou_detail_004_kani=true&JigyosyoCd=0570851022-00&ServiceCd=510&Type=search" }, "geometry": { "type": "Point", "coordinates": [ 140.534543100000064, 39.473542 ] } },
{ "type": "Feature", "properties": { "内容": "特別養護老人ホーム　テンダーヒルズ【介護老人福祉施設】秋田県大仙市内小友字明通３６番２", "url2": "https://www.kaigokensaku.mhlw.go.jp/05/index.php?action_kouhyou_detail_004_kani=true&JigyosyoCd=0570851204-00&ServiceCd=510&Type=search" }, "geometry": { "type": "Point", "coordinates": [ 140.438250399999987, 39.4318009 ] } },
{ "type": "Feature", "properties": { "内容": "特別養護老人ホーム真木苑【介護老人福祉施設】秋田県大仙市太田町横沢字窪関南535－1", "url2": "https://www.kaigokensaku.mhlw.go.jp/05/index.php?action_kouhyou_detail_004_kani=true&JigyosyoCd=0570851006-00&ServiceCd=510&Type=search" }, "geometry": { "type": "Point", "coordinates": [ 140.59874549999995, 39.5099222 ] } },
{ "type": "Feature", "properties": { "内容": "特別養護老人ホームサン・サルビア【介護老人福祉施設】秋田県大仙市角間川町字元道巻97番地", "url2": "https://www.kaigokensaku.mhlw.go.jp/05/index.php?action_kouhyou_detail_004_kani=true&JigyosyoCd=0570850511-00&ServiceCd=510&Type=search" }, "geometry": { "type": "Point", "coordinates": [ 140.4800186, 39.398635 ] } },
{ "type": "Feature", "properties": { "内容": "特別養護老人ホームこもれびの杜【介護老人福祉施設】秋田県大仙市飯田字堰東235番地", "url2": "https://www.kaigokensaku.mhlw.go.jp/05/index.php?action_kouhyou_detail_004_kani=true&JigyosyoCd=0570850503-00&ServiceCd=510&Type=search" }, "geometry": { "type": "Point", "coordinates": [ 140.485339, 39.440395 ] } },
{ "type": "Feature", "properties": { "内容": "特別養護老人ホーム峰山荘【介護老人福祉施設】秋田県大仙市協和中淀川字中村１２－２", "url2": "https://www.kaigokensaku.mhlw.go.jp/05/index.php?action_kouhyou_detail_004_kani=true&JigyosyoCd=0570851295-00&ServiceCd=510&Type=search" }, "geometry": { "type": "Point", "coordinates": [ 140.256292529193473, 39.570551506544142 ] } },
{ "type": "Feature", "properties": { "内容": "特別養護老人ホーム　愛幸園【介護老人福祉施設】秋田県大仙市神宮寺字本郷道南７８", "url2": "https://www.kaigokensaku.mhlw.go.jp/05/index.php?action_kouhyou_detail_004_kani=true&JigyosyoCd=0570851238-00&ServiceCd=510&Type=search" }, "geometry": { "type": "Point", "coordinates": [ 140.417305, 39.4915252 ] } },
{ "type": "Feature", "properties": { "内容": "特別養護老人ホーム　花館【介護老人福祉施設】秋田県大仙市花館柳町1-51特別養護老人ホーム　花館", "url2": "https://www.kaigokensaku.mhlw.go.jp/05/index.php?action_kouhyou_detail_004_kani=true&JigyosyoCd=0570851766-00&ServiceCd=510&Type=search" }, "geometry": { "type": "Point", "coordinates": [ 140.459747900000025, 39.4743178 ] } },
{ "type": "Feature", "properties": { "内容": "特別養護老人ホーム　永楽苑【介護老人福祉施設】秋田県北秋田市上杉字金沢１６２－１", "url2": "https://www.kaigokensaku.mhlw.go.jp/05/index.php?action_kouhyou_detail_004_kani=true&JigyosyoCd=0572150126-00&ServiceCd=510&Type=search" }, "geometry": { "type": "Point", "coordinates": [ 140.351487, 40.1857117 ] } },
{ "type": "Feature", "properties": { "内容": "特別養護老人ホーム　森泉荘【介護老人福祉施設】秋田県北秋田市阿仁前田字下前田家ノ下モ28番地", "url2": "https://www.kaigokensaku.mhlw.go.jp/05/index.php?action_kouhyou_detail_004_kani=true&JigyosyoCd=0571151182-00&ServiceCd=510&Type=search" }, "geometry": { "type": "Point", "coordinates": [ 140.4141287, 40.0699626 ] } },
{ "type": "Feature", "properties": { "内容": "特別養護老人ホームつむぎの彩【介護老人福祉施設】秋田県北秋田市材木町２番１３号", "url2": "https://www.kaigokensaku.mhlw.go.jp/05/index.php?action_kouhyou_detail_004_kani=true&JigyosyoCd=0571151737-00&ServiceCd=510&Type=search" }, "geometry": { "type": "Point", "coordinates": [ 140.373388299999988, 40.2323369 ] } },
{ "type": "Feature", "properties": { "内容": "特別養護老人ホーム山水荘【介護老人福祉施設】秋田県北秋田市阿仁水無字宮後４番地", "url2": "https://www.kaigokensaku.mhlw.go.jp/05/index.php?action_kouhyou_detail_004_kani=true&JigyosyoCd=0572150118-00&ServiceCd=510&Type=search" }, "geometry": { "type": "Point", "coordinates": [ 140.404807399999981, 40.0024348 ] } },
{ "type": "Feature", "properties": { "内容": "特別養護老人ホーム青山荘【介護老人福祉施設】秋田県北秋田市綴子字釜堤脇10番地", "url2": "https://www.kaigokensaku.mhlw.go.jp/05/index.php?action_kouhyou_detail_004_kani=true&JigyosyoCd=0572150092-00&ServiceCd=510&Type=search" }, "geometry": { "type": "Point", "coordinates": [ 140.377384099999972, 40.2506073 ] } },
{ "type": "Feature", "properties": { "内容": "特別養護老人ホーム蕉風苑【介護老人福祉施設】秋田県にかほ市象潟町大砂川字下橋２０－３", "url2": "https://www.kaigokensaku.mhlw.go.jp/05/index.php?action_kouhyou_detail_004_kani=true&JigyosyoCd=0572550432-00&ServiceCd=510&Type=search" }, "geometry": { "type": "Point", "coordinates": [ 139.901825499999973, 39.1606773 ] } },
{ "type": "Feature", "properties": { "内容": "特別養護老人ホーム合歓【介護老人福祉施設】秋田県にかほ市象潟町字荒屋妻３５－１", "url2": "https://www.kaigokensaku.mhlw.go.jp/05/index.php?action_kouhyou_detail_004_kani=true&JigyosyoCd=0571351741-00&ServiceCd=510&Type=search" }, "geometry": { "type": "Point", "coordinates": [ 139.90430079154055, 39.204303877048481 ] } },
{ "type": "Feature", "properties": { "内容": "特別養護老人ホーム　楽しいわが家【介護老人福祉施設】秋田県にかほ市平沢字宝田32", "url2": "https://www.kaigokensaku.mhlw.go.jp/05/index.php?action_kouhyou_detail_004_kani=true&JigyosyoCd=0572550424-00&ServiceCd=510&Type=search" }, "geometry": { "type": "Point", "coordinates": [ 139.9622018, 39.2832571 ] } },
{ "type": "Feature", "properties": { "内容": "特別養護老人ホーム浩寿苑【介護老人福祉施設】秋田県にかほ市前川字中ノ森24番地5", "url2": "https://www.kaigokensaku.mhlw.go.jp/05/index.php?action_kouhyou_detail_004_kani=true&JigyosyoCd=0572550440-00&ServiceCd=510&Type=search" }, "geometry": { "type": "Point", "coordinates": [ 139.914638599999989, 39.2370357 ] } },
{ "type": "Feature", "properties": { "内容": "特別養護老人ホーム陽光苑【介護老人福祉施設】秋田県にかほ市金浦字古賀の田31-2", "url2": "https://www.kaigokensaku.mhlw.go.jp/05/index.php?action_kouhyou_detail_004_kani=true&JigyosyoCd=0571351303-00&ServiceCd=510&Type=search" }, "geometry": { "type": "Point", "coordinates": [ 139.92591875026244, 39.256992858838174 ] } },
{ "type": "Feature", "properties": { "内容": "特別養護老人ホーム清流苑【介護老人福祉施設】秋田県仙北市西木町桧木内字松葉２３２番地", "url2": "https://www.kaigokensaku.mhlw.go.jp/05/index.php?action_kouhyou_detail_004_kani=true&JigyosyoCd=0572650786-00&ServiceCd=510&Type=search" }, "geometry": { "type": "Point", "coordinates": [ 140.591088200000058, 39.743207 ] } },
{ "type": "Feature", "properties": { "内容": "特別養護老人ホームたざわこ清眺苑【介護老人福祉施設】秋田県仙北市田沢湖田沢字春山１４８番地２", "url2": "https://www.kaigokensaku.mhlw.go.jp/05/index.php?action_kouhyou_detail_004_kani=true&JigyosyoCd=0571251263-00&ServiceCd=510&Type=search" }, "geometry": { "type": "Point", "coordinates": [ 140.700383099999954, 39.731393 ] } },
{ "type": "Feature", "properties": { "内容": "特別養護老人ホームかくのだて桜苑【介護老人福祉施設】秋田県仙北市角館町菅沢１５番地１", "url2": "https://www.kaigokensaku.mhlw.go.jp/05/index.php?action_kouhyou_detail_004_kani=true&JigyosyoCd=0571251339-00&ServiceCd=510&Type=search" }, "geometry": { "type": "Point", "coordinates": [ 140.576345400000037, 39.5896336 ] } },
{ "type": "Feature", "properties": { "内容": "特別養護老人ホームサンホーム大石平【介護老人福祉施設】秋田県鹿角郡小坂町小坂字大石平30", "url2": "https://www.kaigokensaku.mhlw.go.jp/05/index.php?action_kouhyou_detail_004_kani=true&JigyosyoCd=0572050037-00&ServiceCd=510&Type=search" }, "geometry": { "type": "Point", "coordinates": [ 140.748807199999987, 40.388977 ] } },
{ "type": "Feature", "properties": { "内容": "特別養護老人ホーム　あかしあの郷【介護老人福祉施設】秋田県鹿角郡小坂町小坂鉱山字栗平25番地2", "url2": "https://www.kaigokensaku.mhlw.go.jp/05/index.php?action_kouhyou_detail_004_kani=true&JigyosyoCd=0572050888-00&ServiceCd=510&Type=search" }, "geometry": { "type": "Point", "coordinates": [ 140.7398498, 40.3319058 ] } },
{ "type": "Feature", "properties": { "内容": "特別養護老人ホーム　　杉風荘【介護老人福祉施設】秋田県北秋田郡上小阿仁村沖田面字友倉９８番地", "url2": "https://www.kaigokensaku.mhlw.go.jp/05/index.php?action_kouhyou_detail_004_kani=true&JigyosyoCd=0572151710-00&ServiceCd=510&Type=search" }, "geometry": { "type": "Point", "coordinates": [ 140.283373799999907, 40.0507226 ] } },
{ "type": "Feature", "properties": { "内容": "特別養護老人ホーム藤里【介護老人福祉施設】秋田県山本郡藤里町矢坂字上野蟹子沢92番地", "url2": "https://www.kaigokensaku.mhlw.go.jp/05/index.php?action_kouhyou_detail_004_kani=true&JigyosyoCd=0572250199-00&ServiceCd=510&Type=search" }, "geometry": { "type": "Point", "coordinates": [ 140.252530699999966, 40.2557565 ] } },
{ "type": "Feature", "properties": { "内容": "特別養護老人ホーム美幸苑【介護老人福祉施設】秋田県山本郡三種町鵜川字西本田８２番地1", "url2": "https://www.kaigokensaku.mhlw.go.jp/05/index.php?action_kouhyou_detail_004_kani=true&JigyosyoCd=0572250181-00&ServiceCd=510&Type=search" }, "geometry": { "type": "Point", "coordinates": [ 140.006633800000031, 40.1005709 ] } },
{ "type": "Feature", "properties": { "内容": "特別養護老人ホーム希望苑【介護老人福祉施設】秋田県山本郡三種町鹿渡字町後２５１", "url2": "https://www.kaigokensaku.mhlw.go.jp/05/index.php?action_kouhyou_detail_004_kani=true&JigyosyoCd=0572250165-00&ServiceCd=510&Type=search" }, "geometry": { "type": "Point", "coordinates": [ 140.075933535581953, 40.040205918388651 ] } },
{ "type": "Feature", "properties": { "内容": "特別養護老人ホーム　もりたけ【介護老人福祉施設】秋田県山本郡三種町森岳字木戸沢１００－４７", "url2": "https://www.kaigokensaku.mhlw.go.jp/05/index.php?action_kouhyou_detail_004_kani=true&JigyosyoCd=0572251254-00&ServiceCd=510&Type=search" }, "geometry": { "type": "Point", "coordinates": [ 140.088824, 40.0837976 ] } },
{ "type": "Feature", "properties": { "内容": "特別養護老人ホーム海光苑【介護老人福祉施設】秋田県山本郡八峰町八森字寺の後川向８番地１", "url2": "https://www.kaigokensaku.mhlw.go.jp/05/index.php?action_kouhyou_detail_004_kani=true&JigyosyoCd=0572250736-00&ServiceCd=510&Type=search" }, "geometry": { "type": "Point", "coordinates": [ 140.028814300000022, 40.3396457 ] } },
{ "type": "Feature", "properties": { "内容": "特別養護老人ホーム松波苑【介護老人福祉施設】秋田県山本郡八峰町峰浜水沢字下カッチキ台41番地14", "url2": "https://www.kaigokensaku.mhlw.go.jp/05/index.php?action_kouhyou_detail_004_kani=true&JigyosyoCd=0572250207-00&ServiceCd=510&Type=search" }, "geometry": { "type": "Point", "coordinates": [ 140.029192100000046, 40.296651 ] } },
{ "type": "Feature", "properties": { "内容": "特別養護老人ホーム広青苑【介護老人福祉施設】秋田県南秋田郡五城目町上樋口字樽沢１３７番地", "url2": "https://www.kaigokensaku.mhlw.go.jp/05/index.php?action_kouhyou_detail_004_kani=true&JigyosyoCd=0572350338-00&ServiceCd=510&Type=search" }, "geometry": { "type": "Point", "coordinates": [ 140.117156, 39.9316711 ] } },
{ "type": "Feature", "properties": { "内容": "特別養護老人ホーム　うたせ苑【介護老人福祉施設】秋田県南秋田郡八郎潟町真坂字沢田122", "url2": "https://www.kaigokensaku.mhlw.go.jp/05/index.php?action_kouhyou_detail_004_kani=true&JigyosyoCd=0572350353-00&ServiceCd=510&Type=search" }, "geometry": { "type": "Point", "coordinates": [ 140.082705300000043, 39.9673586 ] } },
{ "type": "Feature", "properties": { "内容": "井川町特別養護老人ホーム　さくら苑【介護老人福祉施設】秋田県南秋田郡井川町寺沢字綱木沢145番地５", "url2": "https://www.kaigokensaku.mhlw.go.jp/05/index.php?action_kouhyou_detail_004_kani=true&JigyosyoCd=0572350775-00&ServiceCd=510&Type=search" }, "geometry": { "type": "Point", "coordinates": [ 140.12067890000003, 39.894236 ] } },
{ "type": "Feature", "properties": { "内容": "大潟村　特別養護老人ホーム　ひだまり苑【介護老人福祉施設】秋田県南秋田郡大潟村字西三丁目3番地", "url2": "https://www.kaigokensaku.mhlw.go.jp/05/index.php?action_kouhyou_detail_004_kani=true&JigyosyoCd=0572350833-00&ServiceCd=510&Type=search" }, "geometry": { "type": "Point", "coordinates": [ 139.955833, 40.0252685 ] } },
{ "type": "Feature", "properties": { "内容": "特別養護老人ホームロートピア仙南【介護老人福祉施設】秋田県仙北郡美郷町金沢西根字上糠渕3-2", "url2": "https://www.kaigokensaku.mhlw.go.jp/05/index.php?action_kouhyou_detail_004_kani=true&JigyosyoCd=0572650752-00&ServiceCd=510&Type=search" }, "geometry": { "type": "Point", "coordinates": [ 140.528402300000039, 39.3865933 ] } },
{ "type": "Feature", "properties": { "内容": "特別養護老人ホーム真昼荘【介護老人福祉施設】秋田県仙北郡美郷町本堂城回字若林119", "url2": "https://www.kaigokensaku.mhlw.go.jp/05/index.php?action_kouhyou_detail_004_kani=true&JigyosyoCd=0572651040-00&ServiceCd=510&Type=search" }, "geometry": { "type": "Point", "coordinates": [ 140.58603979999998, 39.472368 ] } },
{ "type": "Feature", "properties": { "内容": "特別養護老人ホームロートピア緑泉【介護老人福祉施設】秋田県仙北郡美郷町六郷字作山１８７", "url2": "https://www.kaigokensaku.mhlw.go.jp/05/index.php?action_kouhyou_detail_004_kani=true&JigyosyoCd=0572650539-00&ServiceCd=510&Type=search" }, "geometry": { "type": "Point", "coordinates": [ 140.556223499999987, 39.4154156 ] } },
{ "type": "Feature", "properties": { "内容": "特別養護老人ホームたかせ【介護老人福祉施設】秋田県雄勝郡羽後町下仙道字風平９７－１", "url2": "https://www.kaigokensaku.mhlw.go.jp/05/index.php?action_kouhyou_detail_004_kani=true&JigyosyoCd=0572851178-00&ServiceCd=510&Type=search" }, "geometry": { "type": "Point", "coordinates": [ 140.3199869, 39.168976 ] } },
{ "type": "Feature", "properties": { "内容": "特別養護老人ホーム松喬苑【介護老人福祉施設】秋田県雄勝郡羽後町林崎字五林坂７", "url2": "https://www.kaigokensaku.mhlw.go.jp/05/index.php?action_kouhyou_detail_004_kani=true&JigyosyoCd=0572850709-00&ServiceCd=510&Type=search" }, "geometry": { "type": "Point", "coordinates": [ 140.393994600000042, 39.2161486 ] } },
{ "type": "Feature", "properties": { "内容": "東成瀬村　特別養護老人ホーム幸寿苑【介護老人福祉施設】秋田県雄勝郡東成瀬村田子内字二階野206番地", "url2": "https://www.kaigokensaku.mhlw.go.jp/05/index.php?action_kouhyou_detail_004_kani=true&JigyosyoCd=0572850717-00&ServiceCd=510&Type=search" }, "geometry": { "type": "Point", "coordinates": [ 140.65689169999996, 39.1808885 ] } }
]
}
