{
"type": "FeatureCollection",
"name": "geo_05_小規模多機能型居宅介護",
"crs": { "type": "name", "properties": { "name": "urn:ogc:def:crs:OGC:1.3:CRS84" } },
"features": [
{ "type": "Feature", "properties": { "内容": "小規模多機能型居宅介護事業所りぼん広面【小規模多機能型居宅介護】秋田県秋田市広面字大袋50-3", "url": "https://www.kaigokensaku.mhlw.go.jp/05/index.php?action_kouhyou_detail_004_kani=true&JigyosyoCd=0590101283-00&ServiceCd=730&Type=search", "url2": "https://ribon-akita.co.jp" }, "geometry": { "type": "Point", "coordinates": [ 140.144430722090107, 39.712570066302185 ] } },
{ "type": "Feature", "properties": { "内容": "小規模多機能型居宅介護ヴェル【小規模多機能型居宅介護】秋田県秋田市新屋松美町１３番１２号", "url": "https://www.kaigokensaku.mhlw.go.jp/05/index.php?action_kouhyou_detail_004_kani=true&JigyosyoCd=0590101184-00&ServiceCd=730&Type=search", "url2": null }, "geometry": { "type": "Point", "coordinates": [ 140.0770359, 39.7000521 ] } },
{ "type": "Feature", "properties": { "内容": "小規模多機能ふれ愛の里【小規模多機能型居宅介護】秋田市牛島東五丁目4番22号", "url": "https://www.kaigokensaku.mhlw.go.jp/05/index.php?action_kouhyou_detail_004_kani=true&JigyosyoCd=0590100889-00&ServiceCd=730&Type=search", "url2": "http://www.fureainosato.or.jp/" }, "geometry": { "type": "Point", "coordinates": [ 140.122897, 39.6954533 ] } },
{ "type": "Feature", "properties": { "内容": "愛の家小規模多機能型居宅介護秋田外旭川【小規模多機能型居宅介護】秋田県秋田市外旭川堂ノ前174-1", "url": "https://www.kaigokensaku.mhlw.go.jp/05/index.php?action_kouhyou_detail_004_kani=true&JigyosyoCd=0590101309-00&ServiceCd=730&Type=search", "url2": null }, "geometry": { "type": "Point", "coordinates": [ 140.093827800000014, 39.7467883 ] } },
{ "type": "Feature", "properties": { "内容": "小規模多機能型居宅介護事業所りぼん【小規模多機能型居宅介護】秋田県秋田市横森一丁目13番7号", "url": "https://www.kaigokensaku.mhlw.go.jp/05/index.php?action_kouhyou_detail_004_kani=true&JigyosyoCd=0590100996-00&ServiceCd=730&Type=search", "url2": "https://ribon-akita.co.jp" }, "geometry": { "type": "Point", "coordinates": [ 140.139030600000012, 39.7068552 ] } },
{ "type": "Feature", "properties": { "内容": "小規模多機能型居宅介護事業所　花みずき【小規模多機能型居宅介護】秋田県秋田市添川字添川170-21", "url": "https://www.kaigokensaku.mhlw.go.jp/05/index.php?action_kouhyou_detail_004_kani=true&JigyosyoCd=0590100293-00&ServiceCd=730&Type=search", "url2": null }, "geometry": { "type": "Point", "coordinates": [ 140.14481939999996, 39.755394 ] } },
{ "type": "Feature", "properties": { "内容": "指定小規模多機能型居宅介護事業所　ひかりの樹【小規模多機能型居宅介護】秋田県秋田市保戸野八丁１－１４小規模多機能型居宅介護事業所ひかりの樹", "url": "https://www.kaigokensaku.mhlw.go.jp/05/index.php?action_kouhyou_detail_004_kani=true&JigyosyoCd=0590100301-00&ServiceCd=730&Type=search", "url2": "http://akita-hikarinoki.jp/" }, "geometry": { "type": "Point", "coordinates": [ 140.119139204846164, 39.727422822132759 ] } },
{ "type": "Feature", "properties": { "内容": "小規模多機能型居宅介護　えがお【小規模多機能型居宅介護】秋田県秋田市雄和田草川字山崎１０３番２", "url": "https://www.kaigokensaku.mhlw.go.jp/05/index.php?action_kouhyou_detail_004_kani=true&JigyosyoCd=0590100467-00&ServiceCd=730&Type=search", "url2": null }, "geometry": { "type": "Point", "coordinates": [ 140.158351900000071, 39.6400055 ] } },
{ "type": "Feature", "properties": { "内容": "小規模多機能型居宅介護事業所太陽【小規模多機能型居宅介護】秋田県秋田市高陽青柳町９番２０号", "url": "https://www.kaigokensaku.mhlw.go.jp/05/index.php?action_kouhyou_detail_004_kani=true&JigyosyoCd=0590100319-00&ServiceCd=730&Type=search", "url2": null }, "geometry": { "type": "Point", "coordinates": [ 140.104241600000023, 39.7244602 ] } },
{ "type": "Feature", "properties": { "内容": "楢山小規模多機能型居宅介護事業所【小規模多機能型居宅介護】秋田県秋田市楢山佐竹町1番地19", "url": "https://www.kaigokensaku.mhlw.go.jp/05/index.php?action_kouhyou_detail_004_kani=true&JigyosyoCd=0590100442-00&ServiceCd=730&Type=search", "url2": "https://yutaka-kaigo.net/" }, "geometry": { "type": "Point", "coordinates": [ 140.123574150331933, 39.706284583701674 ] } },
{ "type": "Feature", "properties": { "内容": "小規模多機能型居宅介護幸の家【小規模多機能型居宅介護】秋田県秋田市南通亀の町１２－２２", "url": "https://www.kaigokensaku.mhlw.go.jp/05/index.php?action_kouhyou_detail_004_kani=true&JigyosyoCd=0590100046-00&ServiceCd=730&Type=search", "url2": "http://www.oukyukai.net" }, "geometry": { "type": "Point", "coordinates": [ 140.120765900000038, 39.7102682 ] } },
{ "type": "Feature", "properties": { "内容": "小規模多機能型居宅介護事業所　ときわ野【小規模多機能型居宅介護】秋田県秋田市港北松野町１１－２８", "url": "https://www.kaigokensaku.mhlw.go.jp/05/index.php?action_kouhyou_detail_004_kani=true&JigyosyoCd=0590100103-00&ServiceCd=730&Type=search", "url2": null }, "geometry": { "type": "Point", "coordinates": [ 140.080116800000042, 39.769096 ] } },
{ "type": "Feature", "properties": { "内容": "小規模多機能型居宅介護事業所さるびあ【小規模多機能型居宅介護】秋田市仁井田字中新田８８", "url": "https://www.kaigokensaku.mhlw.go.jp/05/index.php?action_kouhyou_detail_004_kani=true&JigyosyoCd=0590100111-00&ServiceCd=730&Type=search", "url2": null }, "geometry": { "type": "Point", "coordinates": [ 140.120797700000026, 39.6781165 ] } },
{ "type": "Feature", "properties": { "内容": "小規模多機能型居宅介護事業所いいじま【小規模多機能型居宅介護】秋田県秋田市飯島字飯島水尻436番地", "url": "https://www.kaigokensaku.mhlw.go.jp/05/index.php?action_kouhyou_detail_004_kani=true&JigyosyoCd=0590100475-00&ServiceCd=730&Type=search", "url2": "https://www.akitashisyoukibo-iijima.com" }, "geometry": { "type": "Point", "coordinates": [ 140.078627591262801, 39.777610379832232 ] } },
{ "type": "Feature", "properties": { "内容": "小規模多機能型居宅介護　ひかり苑【小規模多機能型居宅介護】秋田市新屋大川町11-18", "url": "https://www.kaigokensaku.mhlw.go.jp/05/index.php?action_kouhyou_detail_004_kani=true&JigyosyoCd=0590100087-00&ServiceCd=730&Type=search", "url2": null }, "geometry": { "type": "Point", "coordinates": [ 140.0906228, 39.6872834 ] } },
{ "type": "Feature", "properties": { "内容": "小規模多機能型居宅介護事業所　ありがとう【小規模多機能型居宅介護】秋田市浜田字後谷地9-2", "url": "https://www.kaigokensaku.mhlw.go.jp/05/index.php?action_kouhyou_detail_004_kani=true&JigyosyoCd=0590100418-00&ServiceCd=730&Type=search", "url2": null }, "geometry": { "type": "Point", "coordinates": [ 140.074916499999972, 39.6778288 ] } },
{ "type": "Feature", "properties": { "内容": "まめでらハウス【小規模多機能型居宅介護】秋田県秋田市新屋扇町７－３０", "url": "https://www.kaigokensaku.mhlw.go.jp/05/index.php?action_kouhyou_detail_004_kani=true&JigyosyoCd=0590100129-00&ServiceCd=730&Type=search", "url2": "http://to-be8.com/" }, "geometry": { "type": "Point", "coordinates": [ 140.084676599999966, 39.6786428 ] } },
{ "type": "Feature", "properties": { "内容": "小規模多機能型居宅介護事業所　愛好苑【小規模多機能型居宅介護】秋田県秋田市柳田字境田１４０", "url": "https://www.kaigokensaku.mhlw.go.jp/05/index.php?action_kouhyou_detail_004_kani=true&JigyosyoCd=0590100236-00&ServiceCd=730&Type=search", "url2": null }, "geometry": { "type": "Point", "coordinates": [ 140.155797600000028, 39.7316861 ] } },
{ "type": "Feature", "properties": { "内容": "小規模多機能型居宅介護　「マリアの家」【小規模多機能型居宅介護】秋田県秋田市寺内蛭根二丁目６－３４みそのホーム", "url": "https://www.kaigokensaku.mhlw.go.jp/05/index.php?action_kouhyou_detail_004_kani=true&JigyosyoCd=0590100244-00&ServiceCd=730&Type=search", "url2": "https://www.misono-f.com" }, "geometry": { "type": "Point", "coordinates": [ 140.086903900000038, 39.730259 ] } },
{ "type": "Feature", "properties": { "内容": "小規模多機能型居宅介護事業所　ゆりかもめ【小規模多機能型居宅介護】秋田県秋田市新屋南浜町3番16号", "url": "https://www.kaigokensaku.mhlw.go.jp/05/index.php?action_kouhyou_detail_004_kani=true&JigyosyoCd=0590100061-00&ServiceCd=730&Type=search", "url2": null }, "geometry": { "type": "Point", "coordinates": [ 140.072373967459043, 39.697650655043198 ] } },
{ "type": "Feature", "properties": { "内容": "小規模多機能型居宅介護事業所　なごみ【小規模多機能型居宅介護】秋田県秋田市仁井田字西潟敷127番地2", "url": "https://www.kaigokensaku.mhlw.go.jp/05/index.php?action_kouhyou_detail_004_kani=true&JigyosyoCd=0590100095-00&ServiceCd=730&Type=search", "url2": "http://seseragiyunosato.com" }, "geometry": { "type": "Point", "coordinates": [ 140.112445500000035, 39.6864429 ] } },
{ "type": "Feature", "properties": { "内容": "小規模多機能型居宅介護事業所はる風【小規模多機能型居宅介護】秋田県秋田市河辺和田字和田251-9", "url": "https://www.kaigokensaku.mhlw.go.jp/05/index.php?action_kouhyou_detail_004_kani=true&JigyosyoCd=0590100624-00&ServiceCd=730&Type=search", "url2": "https://akita-zaitaku.co.jp/" }, "geometry": { "type": "Point", "coordinates": [ 140.2293419, 39.6527339 ] } },
{ "type": "Feature", "properties": { "内容": "小規模多機能型居宅介護和ごや家【小規模多機能型居宅介護】秋田県秋田市下北手松崎字前谷地１４１－１", "url": "https://www.kaigokensaku.mhlw.go.jp/05/index.php?action_kouhyou_detail_004_kani=true&JigyosyoCd=0590100269-00&ServiceCd=730&Type=search", "url2": "https://akita-zaitaku.co.jp/" }, "geometry": { "type": "Point", "coordinates": [ 140.160867100000019, 39.7236261 ] } },
{ "type": "Feature", "properties": { "内容": "小規模多機能型居宅介護事業所　花こまち【小規模多機能型居宅介護】秋田県能代市柳町10番14号", "url": "https://www.kaigokensaku.mhlw.go.jp/05/index.php?action_kouhyou_detail_004_kani=true&JigyosyoCd=0590200127-00&ServiceCd=730&Type=search", "url2": "https://www.umenokimizuki.com" }, "geometry": { "type": "Point", "coordinates": [ 140.024718500000063, 40.2100288 ] } },
{ "type": "Feature", "properties": { "内容": "小規模多機能型居宅介護　しらかみ長寿の里【小規模多機能型居宅介護】秋田県能代市青葉町5-33", "url": "https://www.kaigokensaku.mhlw.go.jp/05/index.php?action_kouhyou_detail_004_kani=true&JigyosyoCd=0590200135-00&ServiceCd=730&Type=search", "url2": null }, "geometry": { "type": "Point", "coordinates": [ 140.019544200000041, 40.2012908 ] } },
{ "type": "Feature", "properties": { "内容": "小規模多機能型居宅介護事業所　　わか杉の郷【小規模多機能型居宅介護】秋田県能代市二ツ井町仁鮒字家後３４－３", "url": "https://www.kaigokensaku.mhlw.go.jp/05/index.php?action_kouhyou_detail_004_kani=true&JigyosyoCd=0590200044-00&ServiceCd=730&Type=search", "url2": "https://wakasugi-futatsui.jp" }, "geometry": { "type": "Point", "coordinates": [ 140.2284526, 40.1904612 ] } },
{ "type": "Feature", "properties": { "内容": "小規模多機能型居宅介護事業所　もんじゅ苑【小規模多機能型居宅介護】秋田県能代市東町３－１８", "url": "https://www.kaigokensaku.mhlw.go.jp/05/index.php?action_kouhyou_detail_004_kani=true&JigyosyoCd=0590200051-00&ServiceCd=730&Type=search", "url2": "https://www.monjuen.jp" }, "geometry": { "type": "Point", "coordinates": [ 140.028618199999983, 40.20772639999997 ] } },
{ "type": "Feature", "properties": { "内容": "小規模多機能型居宅介護事業所「松峰園」【小規模多機能型居宅介護】秋田県能代市落合字落合72番地1", "url": "https://www.kaigokensaku.mhlw.go.jp/05/index.php?action_kouhyou_detail_004_kani=true&JigyosyoCd=0590200093-00&ServiceCd=730&Type=search", "url2": "https://www.shouhouen.co.jp" }, "geometry": { "type": "Point", "coordinates": [ 140.026234400000021, 40.2318401 ] } },
{ "type": "Feature", "properties": { "内容": "小規模多機能型居宅介護事業所すこやか館合【小規模多機能型居宅介護】秋田県横手市雄物川町薄井字新城7-2", "url": "https://www.kaigokensaku.mhlw.go.jp/05/index.php?action_kouhyou_detail_004_kani=true&JigyosyoCd=0590300190-00&ServiceCd=730&Type=search", "url2": "http://www.family-care-service.com/" }, "geometry": { "type": "Point", "coordinates": [ 140.4455676, 39.326624 ] } },
{ "type": "Feature", "properties": { "内容": "小規模多機能型居宅介護事業所　なごみ【小規模多機能型居宅介護】秋田県横手市婦気大堤字西野23－1", "url": "https://www.kaigokensaku.mhlw.go.jp/05/index.php?action_kouhyou_detail_004_kani=true&JigyosyoCd=0590300141-00&ServiceCd=730&Type=search", "url2": "http://www.fukuwarai8.jp/outline/" }, "geometry": { "type": "Point", "coordinates": [ 140.547732499999938, 39.3045435 ] } },
{ "type": "Feature", "properties": { "内容": "みずきの家【小規模多機能型居宅介護】秋田県大館市比内町新館字真館21番地3", "url": "https://www.kaigokensaku.mhlw.go.jp/05/index.php?action_kouhyou_detail_004_kani=true&JigyosyoCd=0590400321-00&ServiceCd=730&Type=search", "url2": "http://www.hinai-fukushikai.jp" }, "geometry": { "type": "Point", "coordinates": [ 140.586708, 40.2152208 ] } },
{ "type": "Feature", "properties": { "内容": "小規模多機能型居宅介護柏葉寿【小規模多機能型居宅介護】秋田県大館市清水1丁目1番63", "url": "https://www.kaigokensaku.mhlw.go.jp/05/index.php?action_kouhyou_detail_004_kani=true&JigyosyoCd=0590400263-00&ServiceCd=730&Type=search", "url2": null }, "geometry": { "type": "Point", "coordinates": [ 140.5518968, 40.2860473 ] } },
{ "type": "Feature", "properties": { "内容": "小規模多機能型居宅介護　東台【小規模多機能型居宅介護】秋田県大館市東台六丁目4番17号", "url": "https://www.kaigokensaku.mhlw.go.jp/05/index.php?action_kouhyou_detail_004_kani=true&JigyosyoCd=0590400156-00&ServiceCd=730&Type=search", "url2": "http://kk-tact.com/kkshigashidai" }, "geometry": { "type": "Point", "coordinates": [ 140.583558499999981, 40.2752107 ] } },
{ "type": "Feature", "properties": { "内容": "康楽荘【小規模多機能型居宅介護】男鹿市船川港比詰字大巻26-4", "url": "https://www.kaigokensaku.mhlw.go.jp/05/index.php?action_kouhyou_detail_004_kani=true&JigyosyoCd=0590600037-00&ServiceCd=730&Type=search", "url2": "http://www.kouyukai-h.com" }, "geometry": { "type": "Point", "coordinates": [ 139.8628807, 39.9010663 ] } },
{ "type": "Feature", "properties": { "内容": "小規模多機能型居宅介護事業所ぬくもりの里たてやま【小規模多機能型居宅介護】秋田県湯沢市上院内字小沢102番地3", "url": "https://www.kaigokensaku.mhlw.go.jp/05/index.php?action_kouhyou_detail_004_kani=true&JigyosyoCd=0590700068-00&ServiceCd=730&Type=search", "url2": "http://ogachi-nagomi.net/" }, "geometry": { "type": "Point", "coordinates": [ 140.41492740000001, 39.0502338 ] } },
{ "type": "Feature", "properties": { "内容": "ＪＡこまち小規模多機能型居宅介護　夢こまちはたの【小規模多機能型居宅介護】秋田県湯沢市倉内字三ツ屋６番１", "url": "https://www.kaigokensaku.mhlw.go.jp/05/index.php?action_kouhyou_detail_004_kani=true&JigyosyoCd=0590700084-00&ServiceCd=730&Type=search", "url2": "http://ja-komachi.jp" }, "geometry": { "type": "Point", "coordinates": [ 140.464089178434733, 39.185172462246634 ] } },
{ "type": "Feature", "properties": { "内容": "小規模多機能ホームダリアの里【小規模多機能型居宅介護】秋田県湯沢市西新町９－７", "url": "https://www.kaigokensaku.mhlw.go.jp/05/index.php?action_kouhyou_detail_004_kani=true&JigyosyoCd=0590700027-00&ServiceCd=730&Type=search", "url2": "http://www.itokenyu.com" }, "geometry": { "type": "Point", "coordinates": [ 140.485166599999957, 39.1648231 ] } },
{ "type": "Feature", "properties": { "内容": "小規模多機能型居宅介護事業所桜おかだ【小規模多機能型居宅介護】秋田県湯沢市岡田町14番20号", "url": "https://www.kaigokensaku.mhlw.go.jp/05/index.php?action_kouhyou_detail_004_kani=true&JigyosyoCd=0590700035-00&ServiceCd=730&Type=search", "url2": "http://ogachi-nagomi.net/" }, "geometry": { "type": "Point", "coordinates": [ 140.480756, 39.1601291 ] } },
{ "type": "Feature", "properties": { "内容": "東恵園指定　多機能サービス　かみはなわ【小規模多機能型居宅介護】秋田県鹿角市花輪字上花輪139番地1", "url": "https://www.kaigokensaku.mhlw.go.jp/05/index.php?action_kouhyou_detail_004_kani=true&JigyosyoCd=0590900106-00&ServiceCd=730&Type=search", "url2": "http://a-hanawafukushikai.jp/" }, "geometry": { "type": "Point", "coordinates": [ 140.788895503179873, 40.187121211203952 ] } },
{ "type": "Feature", "properties": { "内容": "東恵園指定多機能サービスたぐちさんの家【小規模多機能型居宅介護】秋田県鹿角市十和田毛馬内字毛馬内20番地", "url": "https://www.kaigokensaku.mhlw.go.jp/05/index.php?action_kouhyou_detail_004_kani=true&JigyosyoCd=0590900155-00&ServiceCd=730&Type=search", "url2": "http://www.a-hanawafukushikai.jp" }, "geometry": { "type": "Point", "coordinates": [ 140.766583, 40.271225 ] } },
{ "type": "Feature", "properties": { "内容": "小規模多機能ものがたりの家【小規模多機能型居宅介護】秋田県由利本荘市岩谷町字西野209", "url": "https://www.kaigokensaku.mhlw.go.jp/05/index.php?action_kouhyou_detail_004_kani=true&JigyosyoCd=0590500146-00&ServiceCd=730&Type=search", "url2": null }, "geometry": { "type": "Point", "coordinates": [ 140.089544899999964, 39.4410506 ] } },
{ "type": "Feature", "properties": { "内容": "小規模多機能型居宅介護かわせみ【小規模多機能型居宅介護】潟上市天王字棒沼台247番4", "url": "https://www.kaigokensaku.mhlw.go.jp/05/index.php?action_kouhyou_detail_004_kani=true&JigyosyoCd=0591000021-00&ServiceCd=730&Type=search", "url2": "http://www.seiwakai-net.com/" }, "geometry": { "type": "Point", "coordinates": [ 140.011698499999966, 39.8585124 ] } },
{ "type": "Feature", "properties": { "内容": "おおまがり介護支援センター　花あかり【小規模多機能型居宅介護】秋田県大仙市大花町5番27号", "url": "https://www.kaigokensaku.mhlw.go.jp/05/index.php?action_kouhyou_detail_004_kani=true&JigyosyoCd=0590800363-00&ServiceCd=730&Type=search", "url2": null }, "geometry": { "type": "Point", "coordinates": [ 140.4841692, 39.4672943 ] } },
{ "type": "Feature", "properties": { "内容": "多機能ホーム西仙【小規模多機能型居宅介護】秋田県大仙市刈和野字愛宕下５４番地１", "url": "https://www.kaigokensaku.mhlw.go.jp/05/index.php?action_kouhyou_detail_004_kani=true&JigyosyoCd=0590800272-00&ServiceCd=730&Type=search", "url2": "http://www.warmheart-akita.com/" }, "geometry": { "type": "Point", "coordinates": [ 140.375474069975297, 39.544865362404565 ] } },
{ "type": "Feature", "properties": { "内容": "元気ハウスきたうら【小規模多機能型居宅介護】秋田県大仙市太田町斉内字中田２０１", "url": "https://www.kaigokensaku.mhlw.go.jp/05/index.php?action_kouhyou_detail_004_kani=true&JigyosyoCd=0590800231-00&ServiceCd=730&Type=search", "url2": "https://kaigosien-kitaura.jimdo.com/" }, "geometry": { "type": "Point", "coordinates": [ 140.608474200000046, 39.5333503 ] } },
{ "type": "Feature", "properties": { "内容": "ケアサポート神岡【小規模多機能型居宅介護】秋田県大仙市神宮寺字荒屋入6-28", "url": "https://www.kaigokensaku.mhlw.go.jp/05/index.php?action_kouhyou_detail_004_kani=true&JigyosyoCd=0590800348-00&ServiceCd=730&Type=search", "url2": "http://www.fukuju-2910.com/" }, "geometry": { "type": "Point", "coordinates": [ 140.421548700000017, 39.4964134 ] } },
{ "type": "Feature", "properties": { "内容": "サポートハウス　髙砂【小規模多機能型居宅介護】秋田県大仙市横堀字星宮661番地", "url": "https://www.kaigokensaku.mhlw.go.jp/05/index.php?action_kouhyou_detail_004_kani=true&JigyosyoCd=0590800074-00&ServiceCd=730&Type=search", "url2": "http://www.fukuju-2910.com/" }, "geometry": { "type": "Point", "coordinates": [ 140.532764600000064, 39.4917344 ] } },
{ "type": "Feature", "properties": { "内容": "だんらんハウス【小規模多機能型居宅介護】秋田県北秋田市新田目字大野5番地1", "url": "https://www.kaigokensaku.mhlw.go.jp/05/index.php?action_kouhyou_detail_004_kani=true&JigyosyoCd=0591100086-00&ServiceCd=730&Type=search", "url2": null }, "geometry": { "type": "Point", "coordinates": [ 140.326601500000038, 40.1591669 ] } },
{ "type": "Feature", "properties": { "内容": "小規模多機能型居宅介護事業所ハルモニア・にかほ【小規模多機能型居宅介護】秋田県にかほ市院内字嶋田42-1", "url": "https://www.kaigokensaku.mhlw.go.jp/05/index.php?action_kouhyou_detail_004_kani=true&JigyosyoCd=0591300108-00&ServiceCd=730&Type=search", "url2": "https://harmonia-nikaho.com/" }, "geometry": { "type": "Point", "coordinates": [ 139.963828600000028, 39.2820787 ] } },
{ "type": "Feature", "properties": { "内容": "サポートハウス　仙北【小規模多機能型居宅介護】秋田県仙北市角館町勝楽123-1", "url": "https://www.kaigokensaku.mhlw.go.jp/05/index.php?action_kouhyou_detail_004_kani=true&JigyosyoCd=0591200050-00&ServiceCd=730&Type=search", "url2": "https://www.fukuju-2910.com/" }, "geometry": { "type": "Point", "coordinates": [ 140.565808580950915, 39.587148763514008 ] } },
{ "type": "Feature", "properties": { "内容": "小規模多機能型居宅介護　ピュアののはな【小規模多機能型居宅介護】秋田県仙北市田沢湖卒田字上清水４８－１", "url": "https://www.kaigokensaku.mhlw.go.jp/05/index.php?action_kouhyou_detail_004_kani=true&JigyosyoCd=0591200043-00&ServiceCd=730&Type=search", "url2": null }, "geometry": { "type": "Point", "coordinates": [ 140.63017149999996, 39.6271359 ] } },
{ "type": "Feature", "properties": { "内容": "ハッピーライフあんど【小規模多機能型居宅介護】秋田県南秋田郡五城目町西磯ノ目一丁目２番地５０", "url": "https://www.kaigokensaku.mhlw.go.jp/05/index.php?action_kouhyou_detail_004_kani=true&JigyosyoCd=0592300073-00&ServiceCd=730&Type=search", "url2": "http://www.and-akita.com" }, "geometry": { "type": "Point", "coordinates": [ 140.111184237434372, 39.942551120292897 ] } },
{ "type": "Feature", "properties": { "内容": "小規模多機能型居宅介護施設もりやま【小規模多機能型居宅介護】秋田県南秋田郡八郎潟町川崎字貝保9-1", "url": "https://www.kaigokensaku.mhlw.go.jp/05/index.php?action_kouhyou_detail_004_kani=true&JigyosyoCd=0592300099-00&ServiceCd=730&Type=search", "url2": "http://www.ja-akita-kotoh.or.jp" }, "geometry": { "type": "Point", "coordinates": [ 140.104046600386056, 39.946343829520799 ] } },
{ "type": "Feature", "properties": { "内容": "さくらケアセンター【小規模多機能型居宅介護】秋田県仙北郡美郷町本堂城回字若林１２２番地２", "url": "https://www.kaigokensaku.mhlw.go.jp/05/index.php?action_kouhyou_detail_004_kani=true&JigyosyoCd=0592600035-00&ServiceCd=730&Type=search", "url2": null }, "geometry": { "type": "Point", "coordinates": [ 140.588900599999988, 39.4725431 ] } },
{ "type": "Feature", "properties": { "内容": "喜楽館【小規模多機能型居宅介護】秋田県仙北郡美郷町六郷字熊野118番地1号", "url": "https://www.kaigokensaku.mhlw.go.jp/05/index.php?action_kouhyou_detail_004_kani=true&JigyosyoCd=0592600068-00&ServiceCd=730&Type=search", "url2": null }, "geometry": { "type": "Point", "coordinates": [ 140.552121, 39.4175403 ] } },
{ "type": "Feature", "properties": { "内容": "小規模多機能ケアセンターみわ【小規模多機能型居宅介護】秋田県雄勝郡羽後町貝沢字拾三本塚43-6", "url": "https://www.kaigokensaku.mhlw.go.jp/05/index.php?action_kouhyou_detail_004_kani=true&JigyosyoCd=0592800064-00&ServiceCd=730&Type=search", "url2": null }, "geometry": { "type": "Point", "coordinates": [ 140.440650900000037, 39.194918800000046 ] } }
]
}
