{
"type": "FeatureCollection",
"name": "geo_05_地域密着型介護老人福祉施設入所者生活介護",
"crs": { "type": "name", "properties": { "name": "urn:ogc:def:crs:OGC:1.3:CRS84" } },
"features": [
{ "type": "Feature", "properties": { "内容": "地域密着型介護老人福祉施設　ケアコンプレックス寺内【地域密着型介護老人福祉施設入所者生活介護】秋田県秋田市寺内字三千刈４７－２", "url": "https://www.kaigokensaku.mhlw.go.jp/05/index.php?action_kouhyou_detail_004_kani=true&JigyosyoCd=0590100830-00&ServiceCd=540&Type=search", "url2": "https://wel.akita-seiwakai.jp/terauchi/" }, "geometry": { "type": "Point", "coordinates": [ 140.096688500000027, 39.7431913 ] } },
{ "type": "Feature", "properties": { "内容": "特別養護老人ホームラソ茨島【地域密着型介護老人福祉施設入所者生活介護】秋田県秋田市茨島六丁目17番11号", "url": "https://www.kaigokensaku.mhlw.go.jp/05/index.php?action_kouhyou_detail_004_kani=true&JigyosyoCd=0590100897-00&ServiceCd=540&Type=search", "url2": "http://www.akita-hamanasukai.jp/" }, "geometry": { "type": "Point", "coordinates": [ 140.096627399999988, 39.692844 ] } },
{ "type": "Feature", "properties": { "内容": "地域密着型特別養護老人ホームふらっとけやき【地域密着型介護老人福祉施設入所者生活介護】秋田県秋田市御所野下堤五丁目1番8号", "url": "https://www.kaigokensaku.mhlw.go.jp/05/index.php?action_kouhyou_detail_004_kani=true&JigyosyoCd=0590101135-00&ServiceCd=540&Type=search", "url2": "https://akita-keyaki.or.jp/" }, "geometry": { "type": "Point", "coordinates": [ 140.153638565606684, 39.666105778309444 ] } },
{ "type": "Feature", "properties": { "内容": "地域密着型特別養護老人ホーム　うぐいす城東【地域密着型介護老人福祉施設入所者生活介護】秋田県秋田市広面字宮田３２番地１", "url": "https://www.kaigokensaku.mhlw.go.jp/05/index.php?action_kouhyou_detail_004_kani=true&JigyosyoCd=0590100632-00&ServiceCd=540&Type=search", "url2": "http://www.sanfuku.or.jp/" }, "geometry": { "type": "Point", "coordinates": [ 140.147979358860795, 39.71386193196453 ] } },
{ "type": "Feature", "properties": { "内容": "特別養護老人ホーム中通アネックス【地域密着型介護老人福祉施設入所者生活介護】秋田県秋田市中通5丁目8-15", "url": "https://www.kaigokensaku.mhlw.go.jp/05/index.php?action_kouhyou_detail_004_kani=true&JigyosyoCd=0590100640-00&ServiceCd=540&Type=search", "url2": "http://www.syahuku-hokuto.org/" }, "geometry": { "type": "Point", "coordinates": [ 140.121670937573299, 39.714225834855363 ] } },
{ "type": "Feature", "properties": { "内容": "特別養護老人ホームあおば【地域密着型介護老人福祉施設入所者生活介護】秋田県能代市青葉町５－１６", "url": "https://www.kaigokensaku.mhlw.go.jp/05/index.php?action_kouhyou_detail_004_kani=true&JigyosyoCd=0590200101-00&ServiceCd=540&Type=search", "url2": "http://www.shirakami.or.jp/~t-shirakami/" }, "geometry": { "type": "Point", "coordinates": [ 140.0195364, 40.200866900000051 ] } },
{ "type": "Feature", "properties": { "内容": "特別養護老人ホームしののめ【地域密着型介護老人福祉施設入所者生活介護】秋田県能代市向能代字上野越1-3", "url": "https://www.kaigokensaku.mhlw.go.jp/05/index.php?action_kouhyou_detail_004_kani=true&JigyosyoCd=0590200176-00&ServiceCd=540&Type=search", "url2": "http://www.shirakami.or.jp/~t-shirakami" }, "geometry": { "type": "Point", "coordinates": [ 140.042275370038169, 40.226631030508671 ] } },
{ "type": "Feature", "properties": { "内容": "横手市特別養護老人ホーム白寿園ユニット【地域密着型介護老人福祉施設入所者生活介護】秋田県横手市大森町字菅生田245-27", "url": "https://www.kaigokensaku.mhlw.go.jp/05/index.php?action_kouhyou_detail_004_kani=true&JigyosyoCd=0590300216-00&ServiceCd=540&Type=search", "url2": null }, "geometry": { "type": "Point", "coordinates": [ 140.414032814155604, 39.347867037254481 ] } },
{ "type": "Feature", "properties": { "内容": "特別養護老人ホーム　花むつみ【地域密着型介護老人福祉施設入所者生活介護】秋田県横手市十文字町睦合字川井川47番地", "url": "https://www.kaigokensaku.mhlw.go.jp/05/index.php?action_kouhyou_detail_004_kani=true&JigyosyoCd=0590300174-00&ServiceCd=540&Type=search", "url2": "http://isshin-group.net/" }, "geometry": { "type": "Point", "coordinates": [ 140.448730899999987, 39.2318872 ] } },
{ "type": "Feature", "properties": { "内容": "特別養護老人ホーム　あやめ苑【地域密着型介護老人福祉施設入所者生活介護】秋田県横手市平鹿町浅舞字福田207番地4", "url": "https://www.kaigokensaku.mhlw.go.jp/05/index.php?action_kouhyou_detail_004_kani=true&JigyosyoCd=0590300067-00&ServiceCd=540&Type=search", "url2": "http://www.flh1.net" }, "geometry": { "type": "Point", "coordinates": [ 140.490655699999934, 39.2676796 ] } },
{ "type": "Feature", "properties": { "内容": "特別養護老人ホーム　すこやか館合【地域密着型介護老人福祉施設入所者生活介護】秋田県横手市雄物川町薄井字新城７－２", "url": "https://www.kaigokensaku.mhlw.go.jp/05/index.php?action_kouhyou_detail_004_kani=true&JigyosyoCd=0590300182-00&ServiceCd=540&Type=search", "url2": "http://family-care-service.com/" }, "geometry": { "type": "Point", "coordinates": [ 140.446007482278418, 39.325246311567042 ] } },
{ "type": "Feature", "properties": { "内容": "特別養護老人ホーム　さくら【地域密着型介護老人福祉施設入所者生活介護】秋田県横手市駅前町１４番９号", "url": "https://www.kaigokensaku.mhlw.go.jp/05/index.php?action_kouhyou_detail_004_kani=true&JigyosyoCd=0590300158-00&ServiceCd=540&Type=search", "url2": "http://www.yokotefukushikai.or.jp" }, "geometry": { "type": "Point", "coordinates": [ 140.562150100000053, 39.3059715 ] } },
{ "type": "Feature", "properties": { "内容": "地域密着型介護老人福祉施設ClubCity【地域密着型介護老人福祉施設入所者生活介護】秋田県大館市釈迦内字獅子ヶ森１－３２", "url": "https://www.kaigokensaku.mhlw.go.jp/05/index.php?action_kouhyou_detail_004_kani=true&JigyosyoCd=0590400354-00&ServiceCd=540&Type=search", "url2": null }, "geometry": { "type": "Point", "coordinates": [ 140.577066512108189, 40.301063512469746 ] } },
{ "type": "Feature", "properties": { "内容": "地域密着型介護老人福祉施設げんき【地域密着型介護老人福祉施設入所者生活介護】秋田県男鹿市脇本脇本字中野２６番地７", "url": "https://www.kaigokensaku.mhlw.go.jp/05/index.php?action_kouhyou_detail_004_kani=true&JigyosyoCd=0590600094-00&ServiceCd=540&Type=search", "url2": "https://fukufuku-swc.jp" }, "geometry": { "type": "Point", "coordinates": [ 139.914756146032687, 39.910818153159134 ] } },
{ "type": "Feature", "properties": { "内容": "地域密着型介護老人福祉施設ゆりの希【地域密着型介護老人福祉施設入所者生活介護】秋田県男鹿市船越字内子294番地3地域密着型介護老人福祉施設ゆりの希", "url": "https://www.kaigokensaku.mhlw.go.jp/05/index.php?action_kouhyou_detail_004_kani=true&JigyosyoCd=0590600052-00&ServiceCd=540&Type=search", "url2": "http://www.akita-kousenkai.org/" }, "geometry": { "type": "Point", "coordinates": [ 139.922558368695036, 39.906890916510449 ] } },
{ "type": "Feature", "properties": { "内容": "平成園サテライト型特別養護老人ホームぬくもりの里たてやま【地域密着型介護老人福祉施設入所者生活介護】秋田県湯沢市上院内字小沢102番地3", "url": "https://www.kaigokensaku.mhlw.go.jp/05/index.php?action_kouhyou_detail_004_kani=true&JigyosyoCd=0590700050-00&ServiceCd=540&Type=search", "url2": "http://ogachi-nagomi.net/" }, "geometry": { "type": "Point", "coordinates": [ 140.415077603704844, 39.049750545320414 ] } },
{ "type": "Feature", "properties": { "内容": "特別養護老人ホームすみれ【地域密着型介護老人福祉施設入所者生活介護】秋田県湯沢市愛宕町三丁目7番46号", "url": "https://www.kaigokensaku.mhlw.go.jp/05/index.php?action_kouhyou_detail_004_kani=true&JigyosyoCd=0590700100-00&ServiceCd=540&Type=search", "url2": "http://sumire7100.jp/" }, "geometry": { "type": "Point", "coordinates": [ 140.4894445, 39.1499306 ] } },
{ "type": "Feature", "properties": { "内容": "シャイントピアみなせサテライト型特別養護老人ホームふれあいの里【地域密着型介護老人福祉施設入所者生活介護】秋田県湯沢市皆瀬字下菅生３２番地", "url": "https://www.kaigokensaku.mhlw.go.jp/05/index.php?action_kouhyou_detail_004_kani=true&JigyosyoCd=0590700092-00&ServiceCd=540&Type=search", "url2": "http://www.shinetopia.com" }, "geometry": { "type": "Point", "coordinates": [ 140.589317700000038, 39.0780922 ] } },
{ "type": "Feature", "properties": { "内容": "サン・グリーンゆざわサテライト型特別養護老人ホーム桜おかだ【地域密着型介護老人福祉施設入所者生活介護】秋田県湯沢市岡田町14番28号", "url": "https://www.kaigokensaku.mhlw.go.jp/05/index.php?action_kouhyou_detail_004_kani=true&JigyosyoCd=0590700134-00&ServiceCd=540&Type=search", "url2": "http://ogachi-nagomi.net/" }, "geometry": { "type": "Point", "coordinates": [ 140.48078882698357, 39.159933101525134 ] } },
{ "type": "Feature", "properties": { "内容": "健寿苑サテライト型特別養護老人ホーム　スマイルケアみつなし【地域密着型介護老人福祉施設入所者生活介護】秋田県湯沢市三梨町字烏帽子橋28番地スマイルケアみつなし", "url": "https://www.kaigokensaku.mhlw.go.jp/05/index.php?action_kouhyou_detail_004_kani=true&JigyosyoCd=0590700142-00&ServiceCd=540&Type=search", "url2": "http://www.inakawa-fukushi.or.jp/" }, "geometry": { "type": "Point", "coordinates": [ 140.574270299999966, 39.145653100000018 ] } },
{ "type": "Feature", "properties": { "内容": "健寿苑サテライト型特別養護老人ホーム　ケアセンターいなかわ【地域密着型介護老人福祉施設入所者生活介護】秋田県湯沢市駒形町字八面狐塚58番地", "url": "https://www.kaigokensaku.mhlw.go.jp/05/index.php?action_kouhyou_detail_004_kani=true&JigyosyoCd=0590700274-00&ServiceCd=540&Type=search", "url2": "http://www.inakawa-fukushi.or.jp" }, "geometry": { "type": "Point", "coordinates": [ 140.554093599999987, 39.1725793 ] } },
{ "type": "Feature", "properties": { "内容": "地域密着型介護老人福祉施設　月山の郷【地域密着型介護老人福祉施設入所者生活介護】秋田県鹿角市十和田毛馬内字毛馬内59番地1", "url": "https://www.kaigokensaku.mhlw.go.jp/05/index.php?action_kouhyou_detail_004_kani=true&JigyosyoCd=0590900080-00&ServiceCd=540&Type=search", "url2": "http://a-hanawafukushikai.jp/" }, "geometry": { "type": "Point", "coordinates": [ 140.765727500000025, 40.2707584 ] } },
{ "type": "Feature", "properties": { "内容": "地域密着型特別養護老人ホームはなわあいの【地域密着型介護老人福祉施設入所者生活介護】秋田県鹿角市花輪字合野70", "url": "https://www.kaigokensaku.mhlw.go.jp/05/index.php?action_kouhyou_detail_004_kani=true&JigyosyoCd=0590900072-00&ServiceCd=540&Type=search", "url2": "http://aiseikai.or.jp/" }, "geometry": { "type": "Point", "coordinates": [ 140.79974679999998, 40.2049988 ] } },
{ "type": "Feature", "properties": { "内容": "地域密着型介護老人福祉施設　鹿南の郷【地域密着型介護老人福祉施設入所者生活介護】秋田県鹿角市八幡平字長嶺前田15番地3", "url": "https://www.kaigokensaku.mhlw.go.jp/05/index.php?action_kouhyou_detail_004_kani=true&JigyosyoCd=0590900148-00&ServiceCd=540&Type=search", "url2": "http://a-hanawafukushikai.jp/" }, "geometry": { "type": "Point", "coordinates": [ 140.798100100000056, 40.13654 ] } },
{ "type": "Feature", "properties": { "内容": "地域密着型特別養護老人ホームゆうゆう【地域密着型介護老人福祉施設入所者生活介護】秋田県由利本荘市一番堰142-1", "url": "https://www.kaigokensaku.mhlw.go.jp/05/index.php?action_kouhyou_detail_004_kani=true&JigyosyoCd=0590500427-00&ServiceCd=540&Type=search", "url2": "https://honjo-kyujyukai.net/" }, "geometry": { "type": "Point", "coordinates": [ 140.0568436, 39.3788396 ] } },
{ "type": "Feature", "properties": { "内容": "特別養護老人ホームわかば【地域密着型介護老人福祉施設入所者生活介護】秋田県由利本荘市石脇字田尻野8番地3", "url": "https://www.kaigokensaku.mhlw.go.jp/05/index.php?action_kouhyou_detail_004_kani=true&JigyosyoCd=0590500153-00&ServiceCd=540&Type=search", "url2": "http://s-wakabakai.jp/" }, "geometry": { "type": "Point", "coordinates": [ 140.03048865449216, 39.404740672576409 ] } },
{ "type": "Feature", "properties": { "内容": "特別養護老人ホームわかばイースト【地域密着型介護老人福祉施設入所者生活介護】秋田県由利本荘市荒町字真城42番地１", "url": "https://www.kaigokensaku.mhlw.go.jp/05/index.php?action_kouhyou_detail_004_kani=true&JigyosyoCd=0590500328-00&ServiceCd=540&Type=search", "url2": "http://s-wakabakai.jp/" }, "geometry": { "type": "Point", "coordinates": [ 140.080640804507482, 39.356574427749045 ] } },
{ "type": "Feature", "properties": { "内容": "地域密着型特別養護老人ホーム　聚恵苑【地域密着型介護老人福祉施設入所者生活介護】秋田県潟上市天王字上江川47番地100", "url": "https://www.kaigokensaku.mhlw.go.jp/05/index.php?action_kouhyou_detail_004_kani=true&JigyosyoCd=0591000104-00&ServiceCd=540&Type=search", "url2": "http://keijinkai.akita.jp/" }, "geometry": { "type": "Point", "coordinates": [ 139.98646789999998, 39.8833063 ] } },
{ "type": "Feature", "properties": { "内容": "地域密着型介護老人福祉施設あかひげ【地域密着型介護老人福祉施設入所者生活介護】秋田県潟上市昭和大久保字街道下84－6", "url": "https://www.kaigokensaku.mhlw.go.jp/05/index.php?action_kouhyou_detail_004_kani=true&JigyosyoCd=0591000070-00&ServiceCd=540&Type=search", "url2": "https://www.akita-seiwakai.jp" }, "geometry": { "type": "Point", "coordinates": [ 140.0598963, 39.8706564 ] } },
{ "type": "Feature", "properties": { "内容": "地域密着型特別養護老人ホームたんちょう【地域密着型介護老人福祉施設入所者生活介護】潟上市天王字棒沼台247-4", "url": "https://www.kaigokensaku.mhlw.go.jp/05/index.php?action_kouhyou_detail_004_kani=true&JigyosyoCd=0591000039-00&ServiceCd=540&Type=search", "url2": "https://www.akita-seiwakai.jp" }, "geometry": { "type": "Point", "coordinates": [ 140.011698499999966, 39.8585124 ] } },
{ "type": "Feature", "properties": { "内容": "特別養護老人ホームなごみの家【地域密着型介護老人福祉施設入所者生活介護】秋田県大仙市大曲船場町1丁目1番43号", "url": "https://www.kaigokensaku.mhlw.go.jp/05/index.php?action_kouhyou_detail_004_kani=true&JigyosyoCd=0590800405-00&ServiceCd=540&Type=search", "url2": "https://akebonokai.nagomi-a.jp/" }, "geometry": { "type": "Point", "coordinates": [ 140.4708104, 39.4577154 ] } },
{ "type": "Feature", "properties": { "内容": "特別養護老人ホームなごみの家とまき【地域密着型介護老人福祉施設入所者生活介護】秋田県大仙市戸蒔字谷地添63番地１", "url": "https://www.kaigokensaku.mhlw.go.jp/05/index.php?action_kouhyou_detail_004_kani=true&JigyosyoCd=0590800470-00&ServiceCd=540&Type=search", "url2": "https://nagomi-a.jp/" }, "geometry": { "type": "Point", "coordinates": [ 140.5025714, 39.4506134 ] } },
{ "type": "Feature", "properties": { "内容": "永楽苑　ユニット型　きよらか【地域密着型介護老人福祉施設入所者生活介護】秋田県北秋田市上杉字金沢１６２－１", "url": "https://www.kaigokensaku.mhlw.go.jp/05/index.php?action_kouhyou_detail_004_kani=true&JigyosyoCd=0591100136-00&ServiceCd=540&Type=search", "url2": "http://aki-minsei.jp" }, "geometry": { "type": "Point", "coordinates": [ 140.350414116394091, 40.185301880308955 ] } },
{ "type": "Feature", "properties": { "内容": "永楽苑　サテライト型アネックス【地域密着型介護老人福祉施設入所者生活介護】秋田県北秋田市上杉字金沢469", "url": "https://www.kaigokensaku.mhlw.go.jp/05/index.php?action_kouhyou_detail_004_kani=true&JigyosyoCd=0591100144-00&ServiceCd=540&Type=search", "url2": "http://aki-minsei.jp" }, "geometry": { "type": "Point", "coordinates": [ 140.326197099999945, 40.1870136 ] } },
{ "type": "Feature", "properties": { "内容": "特別養護老人ホーム青山荘【地域密着型介護老人福祉施設入所者生活介護】秋田県北秋田市綴子字釜堤脇１０番地", "url": "https://www.kaigokensaku.mhlw.go.jp/05/index.php?action_kouhyou_detail_004_kani=true&JigyosyoCd=0591100128-00&ServiceCd=540&Type=search", "url2": "http://www.kumagera.ne.jp/szs" }, "geometry": { "type": "Point", "coordinates": [ 140.377384099999972, 40.2506073 ] } },
{ "type": "Feature", "properties": { "内容": "地域密着型特別養護老人ホーム蕉風苑【地域密着型介護老人福祉施設入所者生活介護】秋田県にかほ市象潟町大砂川字下橋20-3", "url": "https://www.kaigokensaku.mhlw.go.jp/05/index.php?action_kouhyou_detail_004_kani=true&JigyosyoCd=0591300058-00&ServiceCd=540&Type=search", "url2": "http://kisakata-kenseikai.or.jp" }, "geometry": { "type": "Point", "coordinates": [ 139.901825499999973, 39.1606773 ] } },
{ "type": "Feature", "properties": { "内容": "ユニット型指定地域密着型介護老人福祉施設　駒草の郷【地域密着型介護老人福祉施設入所者生活介護】秋田県仙北市田沢湖生保内字上清水708番地", "url": "https://www.kaigokensaku.mhlw.go.jp/05/index.php?action_kouhyou_detail_004_kani=true&JigyosyoCd=0591200068-00&ServiceCd=540&Type=search", "url2": null }, "geometry": { "type": "Point", "coordinates": [ 140.7159173, 39.6994687 ] } },
{ "type": "Feature", "properties": { "内容": "特別養護老人ホームひまわり苑【地域密着型介護老人福祉施設入所者生活介護】秋田県雄勝郡羽後町西馬音内字中野19番地39", "url": "https://www.kaigokensaku.mhlw.go.jp/05/index.php?action_kouhyou_detail_004_kani=true&JigyosyoCd=0592800080-00&ServiceCd=540&Type=search", "url2": "http://www.himawarienugo.com/" }, "geometry": { "type": "Point", "coordinates": [ 140.4106289, 39.1975344 ] } }
]
}
