{
"type": "FeatureCollection",
"name": "geo_05_看護小規模多機能型居宅介護（複合型サービス）",
"crs": { "type": "name", "properties": { "name": "urn:ogc:def:crs:OGC:1.3:CRS84" } },
"features": [
{ "type": "Feature", "properties": { "内容": "看護小規模多機能型居宅介護　ケアコンプレックス将軍野【看護小規模多機能型居宅介護（複合型サービス）】秋田県秋田市土崎港東２丁目１４－７", "url": "https://www.kaigokensaku.mhlw.go.jp/05/index.php?action_kouhyou_detail_004_kani=true&JigyosyoCd=0590101010-00&ServiceCd=&Type=search", "url2": "https://wel.akita-seiwakai.jp/shougunno/facility_introduction/mfc/" }, "geometry": { "type": "Point", "coordinates": [ 140.080448199999978, 39.7517396 ] } },
{ "type": "Feature", "properties": { "内容": "虹の街看護小規模多機能いずみ【看護小規模多機能型居宅介護（複合型サービス）】秋田県秋田市泉中央5丁目31-8", "url": "https://www.kaigokensaku.mhlw.go.jp/05/index.php?action_kouhyou_detail_004_kani=true&JigyosyoCd=0590101028-00&ServiceCd=&Type=search", "url2": "https://www.saint-care.com/niji/" }, "geometry": { "type": "Point", "coordinates": [ 140.112363798741853, 39.731355558345555 ] } },
{ "type": "Feature", "properties": { "内容": "ケアコンプレックス高清水　看護小規模多機能居宅介護【看護小規模多機能型居宅介護（複合型サービス）】秋田県秋田市土崎港南３丁目１３－４４", "url": "https://www.kaigokensaku.mhlw.go.jp/05/index.php?action_kouhyou_detail_004_kani=true&JigyosyoCd=0590101085-00&ServiceCd=&Type=search", "url2": "https://wel.akita-seiwakai.jp/takashimizu/" }, "geometry": { "type": "Point", "coordinates": [ 140.079433433868417, 39.747306998022083 ] } },
{ "type": "Feature", "properties": { "内容": "看護小規模多機能型居宅介護　リンデンバウム【看護小規模多機能型居宅介護（複合型サービス）】秋田県秋田市泉菅野２丁目１７-１１", "url": "https://www.kaigokensaku.mhlw.go.jp/05/index.php?action_kouhyou_detail_004_kani=true&JigyosyoCd=0590101242-00&ServiceCd=&Type=search", "url2": "http://ｗｗｗ.izumi.akita.jp/" }, "geometry": { "type": "Point", "coordinates": [ 140.1151396, 39.7359525 ] } },
{ "type": "Feature", "properties": { "内容": "看多機まるっとケア　花むつみ【看護小規模多機能型居宅介護（複合型サービス）】秋田県横手市十文字町睦合字川井川47番地", "url": "https://www.kaigokensaku.mhlw.go.jp/05/index.php?action_kouhyou_detail_004_kani=true&JigyosyoCd=0590300497-00&ServiceCd=&Type=search", "url2": "https://isshin-group.net" }, "geometry": { "type": "Point", "coordinates": [ 140.4484261, 39.2319234 ] } },
{ "type": "Feature", "properties": { "内容": "看護小規模多機能　まるっと一心堂【看護小規模多機能型居宅介護（複合型サービス）】秋田県大館市赤館町146-4", "url": "https://www.kaigokensaku.mhlw.go.jp/05/index.php?action_kouhyou_detail_004_kani=true&JigyosyoCd=0590400388-00&ServiceCd=&Type=search", "url2": "http://isshin-do.com" }, "geometry": { "type": "Point", "coordinates": [ 140.5710076, 40.2711147 ] } },
{ "type": "Feature", "properties": { "内容": "看護小規模多機能わかばイースト【看護小規模多機能型居宅介護（複合型サービス）】秋田県由利本荘市荒町字真城42-2", "url": "https://www.kaigokensaku.mhlw.go.jp/05/index.php?action_kouhyou_detail_004_kani=true&JigyosyoCd=0590500310-00&ServiceCd=&Type=search", "url2": "https://www.ikeda-wakaba.jp/" }, "geometry": { "type": "Point", "coordinates": [ 140.079578649737584, 39.357553312407106 ] } },
{ "type": "Feature", "properties": { "内容": "おうようかん介護センター富士見【看護小規模多機能型居宅介護（複合型サービス）】秋田県大仙市富士見町3-8", "url": "https://www.kaigokensaku.mhlw.go.jp/05/index.php?action_kouhyou_detail_004_kani=true&JigyosyoCd=0590800280-00&ServiceCd=&Type=search", "url2": "https://ohyokan.jp/" }, "geometry": { "type": "Point", "coordinates": [ 140.474818030125562, 39.47075072783516 ] } },
{ "type": "Feature", "properties": { "内容": "虹の街看護小規模多機能おおまがり【看護小規模多機能型居宅介護（複合型サービス）】秋田県大仙市大花町3番60-6号", "url": "https://www.kaigokensaku.mhlw.go.jp/05/index.php?action_kouhyou_detail_004_kani=true&JigyosyoCd=0590800413-00&ServiceCd=&Type=search", "url2": "http://www.saint-care.com/niji/" }, "geometry": { "type": "Point", "coordinates": [ 140.484872723417652, 39.464278106013445 ] } },
{ "type": "Feature", "properties": { "内容": "ケアライフ　心都【看護小規模多機能型居宅介護（複合型サービス）】秋田県仙北市角館町勝楽122-1", "url": "https://www.kaigokensaku.mhlw.go.jp/05/index.php?action_kouhyou_detail_004_kani=true&JigyosyoCd=0590800306-00&ServiceCd=&Type=search", "url2": "http://www.fukuju-2910.com" }, "geometry": { "type": "Point", "coordinates": [ 140.565366, 39.5866782 ] } }
]
}
