{
"type": "FeatureCollection",
"name": "geo_05_介護老人保健施設",
"crs": { "type": "name", "properties": { "name": "urn:ogc:def:crs:OGC:1.3:CRS84" } },
"features": [
{ "type": "Feature", "properties": { "内容": "介護老人保健施設　　三楽園【介護老人保健施設】秋田県秋田市飯島字堀川８４番地２０", "url2": "https://www.kaigokensaku.mhlw.go.jp/05/index.php?action_kouhyou_detail_004_kani=true&JigyosyoCd=0550180061-00&ServiceCd=520&Type=search" }, "geometry": { "type": "Point", "coordinates": [ 140.061563799999931, 39.7911351 ] } },
{ "type": "Feature", "properties": { "内容": "介護老人保健施設遊心苑【介護老人保健施設】秋田県秋田市添川字境内川原１９６番地１", "url2": "https://www.kaigokensaku.mhlw.go.jp/05/index.php?action_kouhyou_detail_004_kani=true&JigyosyoCd=0550180095-00&ServiceCd=520&Type=search" }, "geometry": { "type": "Point", "coordinates": [ 140.133335919049017, 39.752398073029411 ] } },
{ "type": "Feature", "properties": { "内容": "介護老人保健施設ニコニコ苑【介護老人保健施設】秋田県秋田市下新城中野字琵琶沼138-1介護老人保健施設ニコニコ苑", "url2": "https://www.kaigokensaku.mhlw.go.jp/05/index.php?action_kouhyou_detail_004_kani=true&JigyosyoCd=0550180038-00&ServiceCd=520&Type=search" }, "geometry": { "type": "Point", "coordinates": [ 140.059585259677306, 39.80324214692304 ] } },
{ "type": "Feature", "properties": { "内容": "医療法人　運忠会　介護老人保健施設なぎさ【介護老人保健施設】秋田県秋田市土崎港中央四丁目４番２３号", "url2": "https://www.kaigokensaku.mhlw.go.jp/05/index.php?action_kouhyou_detail_004_kani=true&JigyosyoCd=0550180103-00&ServiceCd=520&Type=search" }, "geometry": { "type": "Point", "coordinates": [ 140.072026300000061, 39.753225400000019 ] } },
{ "type": "Feature", "properties": { "内容": "介護老人保健施設　山盛苑【介護老人保健施設】秋田県秋田市太平山谷字中山谷227番地2", "url2": "https://www.kaigokensaku.mhlw.go.jp/05/index.php?action_kouhyou_detail_004_kani=true&JigyosyoCd=0550180111-00&ServiceCd=520&Type=search" }, "geometry": { "type": "Point", "coordinates": [ 140.264479599999987, 39.7291588 ] } },
{ "type": "Feature", "properties": { "内容": "介護老人保健施設　桜の園【介護老人保健施設】秋田県秋田市下北手梨平字登館8番地", "url2": "https://www.kaigokensaku.mhlw.go.jp/05/index.php?action_kouhyou_detail_004_kani=true&JigyosyoCd=0550180046-00&ServiceCd=520&Type=search" }, "geometry": { "type": "Point", "coordinates": [ 140.161590500000017, 39.7021176 ] } },
{ "type": "Feature", "properties": { "内容": "介護老人保健施設千秋苑【介護老人保健施設】秋田県秋田市外旭川字神田592番地", "url2": "https://www.kaigokensaku.mhlw.go.jp/05/index.php?action_kouhyou_detail_004_kani=true&JigyosyoCd=0550180079-00&ServiceCd=520&Type=search" }, "geometry": { "type": "Point", "coordinates": [ 140.118485560713225, 39.751113197497531 ] } },
{ "type": "Feature", "properties": { "内容": "介護老人保健施設あいぜん苑【介護老人保健施設】秋田県秋田市上新城道川字愛染58番地", "url2": "https://www.kaigokensaku.mhlw.go.jp/05/index.php?action_kouhyou_detail_004_kani=true&JigyosyoCd=0550180087-00&ServiceCd=520&Type=search" }, "geometry": { "type": "Point", "coordinates": [ 140.145852919049048, 39.781116243475736 ] } },
{ "type": "Feature", "properties": { "内容": "介護老人保健施設　かみの里【介護老人保健施設】秋田県秋田市上北手百崎二タ子沢1-6", "url2": "https://www.kaigokensaku.mhlw.go.jp/05/index.php?action_kouhyou_detail_004_kani=true&JigyosyoCd=0550180137-00&ServiceCd=520&Type=search" }, "geometry": { "type": "Point", "coordinates": [ 140.154372100000046, 39.6895439 ] } },
{ "type": "Feature", "properties": { "内容": "介護老人保健施設　シルバーケアセンター清遊園【介護老人保健施設】秋田県秋田市河辺戸島字上野４－３", "url2": "https://www.kaigokensaku.mhlw.go.jp/05/index.php?action_kouhyou_detail_004_kani=true&JigyosyoCd=0552480014-00&ServiceCd=520&Type=search" }, "geometry": { "type": "Point", "coordinates": [ 140.194215699999972, 39.6329852 ] } },
{ "type": "Feature", "properties": { "内容": "介護老人保健施設　ふれ愛の里【介護老人保健施設】秋田県秋田市豊岩小山字中山２１６番地２７", "url2": "https://www.kaigokensaku.mhlw.go.jp/05/index.php?action_kouhyou_detail_004_kani=true&JigyosyoCd=0550180129-00&ServiceCd=520&Type=search" }, "geometry": { "type": "Point", "coordinates": [ 140.123758100000032, 39.6348468 ] } },
{ "type": "Feature", "properties": { "内容": "介護老人保健施設　悠久荘【介護老人保健施設】秋田県秋田市御所野堤台3丁目3番1", "url2": "https://www.kaigokensaku.mhlw.go.jp/05/index.php?action_kouhyou_detail_004_kani=true&JigyosyoCd=0550180053-00&ServiceCd=520&Type=search" }, "geometry": { "type": "Point", "coordinates": [ 140.172483952050811, 39.671712869819117 ] } },
{ "type": "Feature", "properties": { "内容": "介護老人保健施設　友愛の郷【介護老人保健施設】秋田県秋田市浜田字元中村２８０番地２９", "url2": "https://www.kaigokensaku.mhlw.go.jp/05/index.php?action_kouhyou_detail_004_kani=true&JigyosyoCd=0550180020-00&ServiceCd=520&Type=search" }, "geometry": { "type": "Point", "coordinates": [ 140.068794126983676, 39.681116957020365 ] } },
{ "type": "Feature", "properties": { "内容": "介護老人保健施設　ケアネットのしろ【介護老人保健施設】秋田県能代市落合字上悪土207番地", "url2": "https://www.kaigokensaku.mhlw.go.jp/05/index.php?action_kouhyou_detail_004_kani=true&JigyosyoCd=0550280036-00&ServiceCd=520&Type=search" }, "geometry": { "type": "Point", "coordinates": [ 140.020937799999956, 40.2247797 ] } },
{ "type": "Feature", "properties": { "内容": "介護老人保健施設　友楽苑【介護老人保健施設】秋田県能代市檜山字新田沢105番地", "url2": "https://www.kaigokensaku.mhlw.go.jp/05/index.php?action_kouhyou_detail_004_kani=true&JigyosyoCd=0550280010-00&ServiceCd=520&Type=search" }, "geometry": { "type": "Point", "coordinates": [ 140.07170450000001, 40.1781304 ] } },
{ "type": "Feature", "properties": { "内容": "独立行政法人地域医療機能推進機構秋田病院附属介護老人保健施設【介護老人保健施設】秋田県能代市緑町5番47号", "url2": "https://www.kaigokensaku.mhlw.go.jp/05/index.php?action_kouhyou_detail_004_kani=true&JigyosyoCd=0550280028-00&ServiceCd=520&Type=search" }, "geometry": { "type": "Point", "coordinates": [ 140.0358569, 40.198027700000011 ] } },
{ "type": "Feature", "properties": { "内容": "横手市介護老人保健施設　老健おおもり【介護老人保健施設】秋田県横手市大森町字菅生田245-207", "url2": "https://www.kaigokensaku.mhlw.go.jp/05/index.php?action_kouhyou_detail_004_kani=true&JigyosyoCd=0550380026-00&ServiceCd=520&Type=search" }, "geometry": { "type": "Point", "coordinates": [ 140.417494900000065, 39.3516919 ] } },
{ "type": "Feature", "properties": { "内容": "介護老人保健施設　西風苑【介護老人保健施設】秋田県横手市平鹿町浅舞字新堀９１", "url2": "https://www.kaigokensaku.mhlw.go.jp/05/index.php?action_kouhyou_detail_004_kani=true&JigyosyoCd=0552780033-00&ServiceCd=520&Type=search" }, "geometry": { "type": "Point", "coordinates": [ 140.483731400000011, 39.2697486 ] } },
{ "type": "Feature", "properties": { "内容": "介護老人保健施設やすらぎの苑【介護老人保健施設】秋田県横手市杉沢字中杉沢400番地", "url2": "https://www.kaigokensaku.mhlw.go.jp/05/index.php?action_kouhyou_detail_004_kani=true&JigyosyoCd=0550380018-00&ServiceCd=520&Type=search" }, "geometry": { "type": "Point", "coordinates": [ 140.565496899999971, 39.3506931 ] } },
{ "type": "Feature", "properties": { "内容": "介護老人保健施設　りんごの里　福寿園【介護老人保健施設】秋田県横手市増田町吉野字梨木塚100-1番地", "url2": "https://www.kaigokensaku.mhlw.go.jp/05/index.php?action_kouhyou_detail_004_kani=true&JigyosyoCd=0552780017-00&ServiceCd=520&Type=search" }, "geometry": { "type": "Point", "coordinates": [ 140.5820218, 39.2016884 ] } },
{ "type": "Feature", "properties": { "内容": "介護老人保健施設成寿苑【介護老人保健施設】秋田県大館市釈迦内字狼穴７９番地", "url2": "https://www.kaigokensaku.mhlw.go.jp/05/index.php?action_kouhyou_detail_004_kani=true&JigyosyoCd=0550480032-00&ServiceCd=520&Type=search" }, "geometry": { "type": "Point", "coordinates": [ 140.572793499999989, 40.3119643 ] } },
{ "type": "Feature", "properties": { "内容": "医療法人光智会　介護老人保健施設大館園【介護老人保健施設】秋田県大館市芦田子字芦田子南275番地", "url2": "https://www.kaigokensaku.mhlw.go.jp/05/index.php?action_kouhyou_detail_004_kani=true&JigyosyoCd=0550480024-00&ServiceCd=520&Type=search" }, "geometry": { "type": "Point", "coordinates": [ 140.598608799999965, 40.2991916 ] } },
{ "type": "Feature", "properties": { "内容": "介護老人保健施設　たらちね【介護老人保健施設】秋田県男鹿市船越字一向６７－１", "url2": "https://www.kaigokensaku.mhlw.go.jp/05/index.php?action_kouhyou_detail_004_kani=true&JigyosyoCd=0550680029-00&ServiceCd=520&Type=search" }, "geometry": { "type": "Point", "coordinates": [ 139.948746, 39.8980698 ] } },
{ "type": "Feature", "properties": { "内容": "介護老人保健施設男鹿老健【介護老人保健施設】秋田県男鹿市脇本富永字南前田72番地介護老人保健施設男鹿老健", "url2": "https://www.kaigokensaku.mhlw.go.jp/05/index.php?action_kouhyou_detail_004_kani=true&JigyosyoCd=0550680045-00&ServiceCd=520&Type=search" }, "geometry": { "type": "Point", "coordinates": [ 139.902242, 39.9158345 ] } },
{ "type": "Feature", "properties": { "内容": "介護療養型老人保健施設「あきのみや」【介護老人保健施設】秋田県湯沢市秋ノ宮字根木103-1", "url2": "https://www.kaigokensaku.mhlw.go.jp/05/index.php?action_kouhyou_detail_004_kani=true&JigyosyoCd=0550780035-00&ServiceCd=520&Type=search" }, "geometry": { "type": "Point", "coordinates": [ 140.527124500000014, 38.9639418 ] } },
{ "type": "Feature", "properties": { "内容": "介護老人保健施設　ゆーとぴあ神室【介護老人保健施設】秋田県湯沢市小野字東堺76番地", "url2": "https://www.kaigokensaku.mhlw.go.jp/05/index.php?action_kouhyou_detail_004_kani=true&JigyosyoCd=0552880023-00&ServiceCd=520&Type=search" }, "geometry": { "type": "Point", "coordinates": [ 140.4549184, 39.0647332 ] } },
{ "type": "Feature", "properties": { "内容": "介護老人保健施設昭平苑【介護老人保健施設】秋田県湯沢市柳田字中嶋２２７番地の１", "url2": "https://www.kaigokensaku.mhlw.go.jp/05/index.php?action_kouhyou_detail_004_kani=true&JigyosyoCd=0550780019-00&ServiceCd=520&Type=search" }, "geometry": { "type": "Point", "coordinates": [ 140.460807599999953, 39.1845288 ] } },
{ "type": "Feature", "properties": { "内容": "介護老人保健施設　いこいの里【介護老人保健施設】秋田県鹿角市八幡平字小山50番地", "url2": "https://www.kaigokensaku.mhlw.go.jp/05/index.php?action_kouhyou_detail_004_kani=true&JigyosyoCd=0550980015-00&ServiceCd=520&Type=search" }, "geometry": { "type": "Point", "coordinates": [ 140.802041199999962, 40.1400952 ] } },
{ "type": "Feature", "properties": { "内容": "介護老人保健施設　けいあい【介護老人保健施設】秋田県鹿角市花輪字六月田78番地1", "url2": "https://www.kaigokensaku.mhlw.go.jp/05/index.php?action_kouhyou_detail_004_kani=true&JigyosyoCd=0550980056-00&ServiceCd=520&Type=search" }, "geometry": { "type": "Point", "coordinates": [ 140.790609006884807, 40.199468308682832 ] } },
{ "type": "Feature", "properties": { "内容": "介護老人保健施設ひまわりの里【介護老人保健施設】秋田県由利本荘市浜三川字小山口２０番地", "url2": "https://www.kaigokensaku.mhlw.go.jp/05/index.php?action_kouhyou_detail_004_kani=true&JigyosyoCd=0550580021-00&ServiceCd=520&Type=search" }, "geometry": { "type": "Point", "coordinates": [ 140.033775282139572, 39.415811705575237 ] } },
{ "type": "Feature", "properties": { "内容": "介護老人保健施設「しょうわ」【介護老人保健施設】秋田県由利本荘市石脇字田尻33番地", "url2": "https://www.kaigokensaku.mhlw.go.jp/05/index.php?action_kouhyou_detail_004_kani=true&JigyosyoCd=0550580013-00&ServiceCd=520&Type=search" }, "geometry": { "type": "Point", "coordinates": [ 140.0228902, 39.3901145 ] } },
{ "type": "Feature", "properties": { "内容": "介護老人保健施設　あまさぎ園【介護老人保健施設】秋田県由利本荘市岩城冨田字根本9-3", "url2": "https://www.kaigokensaku.mhlw.go.jp/05/index.php?action_kouhyou_detail_004_kani=true&JigyosyoCd=0552580037-00&ServiceCd=520&Type=search" }, "geometry": { "type": "Point", "coordinates": [ 140.086965400000054, 39.5053038 ] } },
{ "type": "Feature", "properties": { "内容": "介護老人保健施設グランドファミリー西目【介護老人保健施設】秋田県由利本荘市西目町沼田字新道下２－６介護老人保健施設　グランドファミリー西目", "url2": "https://www.kaigokensaku.mhlw.go.jp/05/index.php?action_kouhyou_detail_004_kani=true&JigyosyoCd=0552580029-00&ServiceCd=520&Type=search" }, "geometry": { "type": "Point", "coordinates": [ 140.017420499999957, 39.3531278 ] } },
{ "type": "Feature", "properties": { "内容": "介護老人保健施設　ほのぼの苑【介護老人保健施設】秋田県潟上市昭和大久保字街道下92-1", "url2": "https://www.kaigokensaku.mhlw.go.jp/05/index.php?action_kouhyou_detail_004_kani=true&JigyosyoCd=0552380040-00&ServiceCd=520&Type=search" }, "geometry": { "type": "Point", "coordinates": [ 140.060879600000021, 39.8710814 ] } },
{ "type": "Feature", "properties": { "内容": "老人保健施設　くらかけの里【介護老人保健施設】秋田県潟上市天王字鶴沼台４３－２３１", "url2": "https://www.kaigokensaku.mhlw.go.jp/05/index.php?action_kouhyou_detail_004_kani=true&JigyosyoCd=0552380024-00&ServiceCd=520&Type=search" }, "geometry": { "type": "Point", "coordinates": [ 140.016917299999932, 39.8613208 ] } },
{ "type": "Feature", "properties": { "内容": "介護老人保健施設　なごみのさと【介護老人保健施設】秋田県大仙市大曲船場町１丁目１番４号", "url2": "https://www.kaigokensaku.mhlw.go.jp/05/index.php?action_kouhyou_detail_004_kani=true&JigyosyoCd=0550880066-00&ServiceCd=520&Type=search" }, "geometry": { "type": "Point", "coordinates": [ 140.471448400000014, 39.4579376 ] } },
{ "type": "Feature", "properties": { "内容": "介護老人保健施設八乙女荘【介護老人保健施設】秋田県大仙市北長野字野口前２３番地", "url2": "https://www.kaigokensaku.mhlw.go.jp/05/index.php?action_kouhyou_detail_004_kani=true&JigyosyoCd=0550880058-00&ServiceCd=520&Type=search" }, "geometry": { "type": "Point", "coordinates": [ 140.547205100000042, 39.5491133 ] } },
{ "type": "Feature", "properties": { "内容": "介護老人保健施設幸寿園【介護老人保健施設】秋田県大仙市強首字上野台12-15", "url2": "https://www.kaigokensaku.mhlw.go.jp/05/index.php?action_kouhyou_detail_004_kani=true&JigyosyoCd=0550880041-00&ServiceCd=520&Type=search" }, "geometry": { "type": "Point", "coordinates": [ 140.299909299999968, 39.5438602 ] } },
{ "type": "Feature", "properties": { "内容": "介護老人保健施設サングレイス【介護老人保健施設】秋田県大仙市協和上淀川字五百刈田２７８番地５", "url2": "https://www.kaigokensaku.mhlw.go.jp/05/index.php?action_kouhyou_detail_004_kani=true&JigyosyoCd=0552680043-00&ServiceCd=520&Type=search" }, "geometry": { "type": "Point", "coordinates": [ 140.303385323803695, 39.598438538130075 ] } },
{ "type": "Feature", "properties": { "内容": "介護老人保健施設もりよし荘【介護老人保健施設】秋田県北秋田市米内沢字七曲２５番地", "url2": "https://www.kaigokensaku.mhlw.go.jp/05/index.php?action_kouhyou_detail_004_kani=true&JigyosyoCd=0552180010-00&ServiceCd=520&Type=search" }, "geometry": { "type": "Point", "coordinates": [ 140.379826900000012, 40.1184336 ] } },
{ "type": "Feature", "properties": { "内容": "介護老人保健施設ケアタウンたかのす【介護老人保健施設】秋田県北秋田市脇神字南陣場岱10番地", "url2": "https://www.kaigokensaku.mhlw.go.jp/05/index.php?action_kouhyou_detail_004_kani=true&JigyosyoCd=0551180045-00&ServiceCd=520&Type=search" }, "geometry": { "type": "Point", "coordinates": [ 140.3921636, 40.2115066 ] } },
{ "type": "Feature", "properties": { "内容": "介護老人保健施設　栗山荘【介護老人保健施設】秋田県にかほ市象潟町小滝字麻針堰18", "url2": "https://www.kaigokensaku.mhlw.go.jp/05/index.php?action_kouhyou_detail_004_kani=true&JigyosyoCd=0552580011-00&ServiceCd=520&Type=search" }, "geometry": { "type": "Point", "coordinates": [ 139.947035199999959, 39.1687605 ] } },
{ "type": "Feature", "properties": { "内容": "介護老人保健施設　田沢の郷【介護老人保健施設】秋田県仙北市田沢湖生保内字上清水６９８番地", "url2": "https://www.kaigokensaku.mhlw.go.jp/05/index.php?action_kouhyou_detail_004_kani=true&JigyosyoCd=0552680068-00&ServiceCd=520&Type=search" }, "geometry": { "type": "Point", "coordinates": [ 140.71592290000001, 39.6989522 ] } },
{ "type": "Feature", "properties": { "内容": "仙北市介護老人保健施設にしき園【介護老人保健施設】秋田県仙北市西木町門屋字屋敷田100番地", "url2": "https://www.kaigokensaku.mhlw.go.jp/05/index.php?action_kouhyou_detail_004_kani=true&JigyosyoCd=0551280019-00&ServiceCd=520&Type=search" }, "geometry": { "type": "Point", "coordinates": [ 140.565612800000054, 39.6596384 ] } },
{ "type": "Feature", "properties": { "内容": "介護老人保健施設やかた【介護老人保健施設】秋田県山本郡三種町鹿渡字猿田牛渕２５番地６１", "url2": "https://www.kaigokensaku.mhlw.go.jp/05/index.php?action_kouhyou_detail_004_kani=true&JigyosyoCd=0552280018-00&ServiceCd=520&Type=search" }, "geometry": { "type": "Point", "coordinates": [ 140.094686420793096, 40.040998141589206 ] } },
{ "type": "Feature", "properties": { "内容": "社会医療法人　正和会　介護老人保健施設　湖東老健【介護老人保健施設】秋田県南秋田郡五城目町大川西野字堤ノ内1番地1", "url2": "https://www.kaigokensaku.mhlw.go.jp/05/index.php?action_kouhyou_detail_004_kani=true&JigyosyoCd=0552380057-00&ServiceCd=520&Type=search" }, "geometry": { "type": "Point", "coordinates": [ 140.106432519027237, 39.934755216740207 ] } },
{ "type": "Feature", "properties": { "内容": "介護老人保健施設　榮寿苑【介護老人保健施設】秋田県南秋田郡八郎潟町真坂字沢田43-10", "url2": "https://www.kaigokensaku.mhlw.go.jp/05/index.php?action_kouhyou_detail_004_kani=true&JigyosyoCd=0552380016-00&ServiceCd=520&Type=search" }, "geometry": { "type": "Point", "coordinates": [ 140.083241300000026, 39.9681585 ] } },
{ "type": "Feature", "properties": { "内容": "介護老人保健施設　　翠香苑【介護老人保健施設】秋田県南秋田郡井川町小竹花字道端14-1", "url2": "https://www.kaigokensaku.mhlw.go.jp/05/index.php?action_kouhyou_detail_004_kani=true&JigyosyoCd=0552380032-00&ServiceCd=520&Type=search" }, "geometry": { "type": "Point", "coordinates": [ 140.084404799999987, 39.9099694 ] } },
{ "type": "Feature", "properties": { "内容": "介護老人保健施設　杏授苑【介護老人保健施設】秋田県仙北郡美郷町野中字下明子２１４", "url2": "https://www.kaigokensaku.mhlw.go.jp/05/index.php?action_kouhyou_detail_004_kani=true&JigyosyoCd=0552680050-00&ServiceCd=520&Type=search" }, "geometry": { "type": "Point", "coordinates": [ 140.555925699999989, 39.4261421 ] } },
{ "type": "Feature", "properties": { "内容": "介護老人保健施設　照隅苑【介護老人保健施設】秋田県雄勝郡羽後町床舞字軽内１９８番地１", "url2": "https://www.kaigokensaku.mhlw.go.jp/05/index.php?action_kouhyou_detail_004_kani=true&JigyosyoCd=0552880015-00&ServiceCd=520&Type=search" }, "geometry": { "type": "Point", "coordinates": [ 140.4128809, 39.1812133 ] } }
]
}
