{
"type": "FeatureCollection",
"name": "geo_05_通所介護",
"crs": { "type": "name", "properties": { "name": "urn:ogc:def:crs:OGC:1.3:CRS84" } },
"features": [
{ "type": "Feature", "properties": { "内容": "デイサービスおぐら【通所介護】秋田市河辺和田字坂本北470－4", "url2": "https://www.kaigokensaku.mhlw.go.jp/05/index.php?action_kouhyou_detail_004_kani=true&JigyosyoCd=0570119172-00&ServiceCd=150&Type=search" }, "geometry": { "type": "Point", "coordinates": [ 140.2401102, 39.6568087 ] } },
{ "type": "Feature", "properties": { "内容": "ジョイリハ秋田寺内【通所介護】秋田県秋田市寺内イサノ６０－２", "url2": "https://www.kaigokensaku.mhlw.go.jp/05/index.php?action_kouhyou_detail_004_kani=true&JigyosyoCd=0570120899-00&ServiceCd=150&Type=search" }, "geometry": { "type": "Point", "coordinates": [ 140.092555700000048, 39.7384973 ] } },
{ "type": "Feature", "properties": { "内容": "コンパスウォーク山王【通所介護】秋田県秋田市山王沼田町11-6", "url2": "https://www.kaigokensaku.mhlw.go.jp/05/index.php?action_kouhyou_detail_004_kani=true&JigyosyoCd=0570126748-00&ServiceCd=150&Type=search" }, "geometry": { "type": "Point", "coordinates": [ 140.090820464418016, 39.713842990457117 ] } },
{ "type": "Feature", "properties": { "内容": "きたえるーむ秋田泉【通所介護】秋田県秋田市泉中央4丁目18-15", "url2": "https://www.kaigokensaku.mhlw.go.jp/05/index.php?action_kouhyou_detail_004_kani=true&JigyosyoCd=0570126508-00&ServiceCd=150&Type=search" }, "geometry": { "type": "Point", "coordinates": [ 140.117358967398388, 39.733324674151433 ] } },
{ "type": "Feature", "properties": { "内容": "デイサービスきたえるーむ秋田広面【通所介護】秋田県秋田市広面字家ノ下91-3", "url2": "https://www.kaigokensaku.mhlw.go.jp/05/index.php?action_kouhyou_detail_004_kani=true&JigyosyoCd=0570126516-00&ServiceCd=150&Type=search" }, "geometry": { "type": "Point", "coordinates": [ 140.140828, 39.7234747 ] } },
{ "type": "Feature", "properties": { "内容": "きたえるーむ秋田土崎【通所介護】秋田県秋田市土崎港相染町大谷地３６－１１８", "url2": "https://www.kaigokensaku.mhlw.go.jp/05/index.php?action_kouhyou_detail_004_kani=true&JigyosyoCd=0570126490-00&ServiceCd=150&Type=search" }, "geometry": { "type": "Point", "coordinates": [ 140.068749600000046, 39.771942 ] } },
{ "type": "Feature", "properties": { "内容": "旭川デイサービスセンター【通所介護】秋田県秋田市添川字地ノ内１４３－５", "url2": "https://www.kaigokensaku.mhlw.go.jp/05/index.php?action_kouhyou_detail_004_kani=true&JigyosyoCd=0570106054-00&ServiceCd=150&Type=search" }, "geometry": { "type": "Point", "coordinates": [ 140.134379, 39.7504249 ] } },
{ "type": "Feature", "properties": { "内容": "ジョイリハ秋田仁井田【通所介護】秋田県秋田市仁井田二ツ屋1-3-49", "url2": "https://www.kaigokensaku.mhlw.go.jp/05/index.php?action_kouhyou_detail_004_kani=true&JigyosyoCd=0570121780-00&ServiceCd=150&Type=search" }, "geometry": { "type": "Point", "coordinates": [ 140.121627699999948, 39.6926481 ] } },
{ "type": "Feature", "properties": { "内容": "つどい処グッと楽デイサービスセンター悠々くらぶ【通所介護】秋田県秋田市土崎港東四丁目2-43", "url2": "https://www.kaigokensaku.mhlw.go.jp/05/index.php?action_kouhyou_detail_004_kani=true&JigyosyoCd=0570126060-00&ServiceCd=150&Type=search" }, "geometry": { "type": "Point", "coordinates": [ 140.082272800000027, 39.7532757 ] } },
{ "type": "Feature", "properties": { "内容": "デイサービス　赤とんぼ【通所介護】秋田市雄和女米木字高麓沢45", "url2": "https://www.kaigokensaku.mhlw.go.jp/05/index.php?action_kouhyou_detail_004_kani=true&JigyosyoCd=0570116764-00&ServiceCd=150&Type=search" }, "geometry": { "type": "Point", "coordinates": [ 140.207084900000041, 39.5434852 ] } },
{ "type": "Feature", "properties": { "内容": "さとみ温泉　ゆったり倶楽部【通所介護】秋田市添川字境内川原　１４２－１", "url2": "https://www.kaigokensaku.mhlw.go.jp/05/index.php?action_kouhyou_detail_004_kani=true&JigyosyoCd=0570115477-00&ServiceCd=150&Type=search" }, "geometry": { "type": "Point", "coordinates": [ 140.130790540267185, 39.748652621031937 ] } },
{ "type": "Feature", "properties": { "内容": "ケアセンターきらら通所介護事業所【通所介護】秋田県秋田市太平山谷字中山谷317－1", "url2": "https://www.kaigokensaku.mhlw.go.jp/05/index.php?action_kouhyou_detail_004_kani=true&JigyosyoCd=0570110924-00&ServiceCd=150&Type=search" }, "geometry": { "type": "Point", "coordinates": [ 140.267536110975698, 39.729584681735538 ] } },
{ "type": "Feature", "properties": { "内容": "御野場病院デイサービスセンター【通所介護】秋田県秋田市御野場４丁目３番４号御野場病院在宅ケアセンター", "url2": "https://www.kaigokensaku.mhlw.go.jp/05/index.php?action_kouhyou_detail_004_kani=true&JigyosyoCd=0570113662-00&ServiceCd=150&Type=search" }, "geometry": { "type": "Point", "coordinates": [ 140.133038400000032, 39.672464700000042 ] } },
{ "type": "Feature", "properties": { "内容": "社会福祉法人幸楽会　外旭川デイサービスセンター幸【通所介護】秋田県秋田市外旭川字鳥谷場136番地", "url2": "https://www.kaigokensaku.mhlw.go.jp/05/index.php?action_kouhyou_detail_004_kani=true&JigyosyoCd=0570107128-00&ServiceCd=150&Type=search" }, "geometry": { "type": "Point", "coordinates": [ 140.0927802, 39.7526095 ] } },
{ "type": "Feature", "properties": { "内容": "やすらぎの郷【通所介護】秋田県秋田市泉中央五丁目1番16号", "url2": "https://www.kaigokensaku.mhlw.go.jp/05/index.php?action_kouhyou_detail_004_kani=true&JigyosyoCd=0570114769-00&ServiceCd=150&Type=search" }, "geometry": { "type": "Point", "coordinates": [ 140.1121488, 39.731412600000013 ] } },
{ "type": "Feature", "properties": { "内容": "きらら通所介護事業所竿燈通り【通所介護】秋田県秋田市大町２丁目５番１号きららアーバンパレス　３階", "url2": "https://www.kaigokensaku.mhlw.go.jp/05/index.php?action_kouhyou_detail_004_kani=true&JigyosyoCd=0570124347-00&ServiceCd=150&Type=search" }, "geometry": { "type": "Point", "coordinates": [ 140.113535500000012, 39.7188474 ] } },
{ "type": "Feature", "properties": { "内容": "まごころデイサービスセンター【通所介護】秋田県秋田市牛島西一丁目10番16号", "url2": "https://www.kaigokensaku.mhlw.go.jp/05/index.php?action_kouhyou_detail_004_kani=true&JigyosyoCd=0570123505-00&ServiceCd=150&Type=search" }, "geometry": { "type": "Point", "coordinates": [ 140.1115226969589, 39.695173672330831 ] } },
{ "type": "Feature", "properties": { "内容": "ファミリー園デイサービスセンター【通所介護】秋田県秋田市桜一丁目4番21号", "url2": "https://www.kaigokensaku.mhlw.go.jp/05/index.php?action_kouhyou_detail_004_kani=true&JigyosyoCd=0570106294-00&ServiceCd=150&Type=search" }, "geometry": { "type": "Point", "coordinates": [ 140.1447832, 39.7105855 ] } },
{ "type": "Feature", "properties": { "内容": "スマイル輝【通所介護】秋田県秋田市将軍野東一丁目4番38号", "url2": "https://www.kaigokensaku.mhlw.go.jp/05/index.php?action_kouhyou_detail_004_kani=true&JigyosyoCd=0570112821-00&ServiceCd=150&Type=search" }, "geometry": { "type": "Point", "coordinates": [ 140.083628064418036, 39.75459413056619 ] } },
{ "type": "Feature", "properties": { "内容": "社会福祉法人晃和会　ひだまりデイサービスセンター【通所介護】秋田県秋田市東通仲町４－１　秋田拠点センターアルヴェ５階", "url2": "https://www.kaigokensaku.mhlw.go.jp/05/index.php?action_kouhyou_detail_004_kani=true&JigyosyoCd=0570110007-00&ServiceCd=150&Type=search" }, "geometry": { "type": "Point", "coordinates": [ 140.131411800000024, 39.71594 ] } },
{ "type": "Feature", "properties": { "内容": "八橋デイサービスセンター【通所介護】秋田県秋田市八橋南一丁目８－２", "url2": "https://www.kaigokensaku.mhlw.go.jp/05/index.php?action_kouhyou_detail_004_kani=true&JigyosyoCd=0570119339-00&ServiceCd=150&Type=search" }, "geometry": { "type": "Point", "coordinates": [ 140.092079, 39.7203629 ] } },
{ "type": "Feature", "properties": { "内容": "社会福祉法人秋田県厚生協会　南寿園デイサービスセンター【通所介護】秋田県秋田市上北手猿田字後谷地１０８－３", "url2": "https://www.kaigokensaku.mhlw.go.jp/05/index.php?action_kouhyou_detail_004_kani=true&JigyosyoCd=0570103754-00&ServiceCd=150&Type=search" }, "geometry": { "type": "Point", "coordinates": [ 140.169932, 39.6814676 ] } },
{ "type": "Feature", "properties": { "内容": "秋田けやき会デイサービスセンター【通所介護】秋田県秋田市御所野下堤五丁目１番５号", "url2": "https://www.kaigokensaku.mhlw.go.jp/05/index.php?action_kouhyou_detail_004_kani=true&JigyosyoCd=0570101733-00&ServiceCd=150&Type=search" }, "geometry": { "type": "Point", "coordinates": [ 140.15493390000006, 39.6668883 ] } },
{ "type": "Feature", "properties": { "内容": "秋田ひまわりの家デイサービス【通所介護】秋田県秋田市下北手桜字新桜谷地８５番地", "url2": "https://www.kaigokensaku.mhlw.go.jp/05/index.php?action_kouhyou_detail_004_kani=true&JigyosyoCd=0570112193-00&ServiceCd=150&Type=search" }, "geometry": { "type": "Point", "coordinates": [ 140.163636699999984, 39.7165076 ] } },
{ "type": "Feature", "properties": { "内容": "ニチイケアセンター秋田【通所介護】秋田県秋田市卸町5丁目1-33", "url2": "https://www.kaigokensaku.mhlw.go.jp/05/index.php?action_kouhyou_detail_004_kani=true&JigyosyoCd=0570104794-00&ServiceCd=150&Type=search" }, "geometry": { "type": "Point", "coordinates": [ 140.105618099999987, 39.6956524 ] } },
{ "type": "Feature", "properties": { "内容": "みらいデイサービスセンター【通所介護】秋田県秋田市川尻上野町１番１９号", "url2": "https://www.kaigokensaku.mhlw.go.jp/05/index.php?action_kouhyou_detail_004_kani=true&JigyosyoCd=0570116277-00&ServiceCd=150&Type=search" }, "geometry": { "type": "Point", "coordinates": [ 140.10188990000006, 39.7090589 ] } },
{ "type": "Feature", "properties": { "内容": "デイサービスセンターあいらんど【通所介護】秋田市飯島新町1丁目3番15号", "url2": "https://www.kaigokensaku.mhlw.go.jp/05/index.php?action_kouhyou_detail_004_kani=true&JigyosyoCd=0570113498-00&ServiceCd=150&Type=search" }, "geometry": { "type": "Point", "coordinates": [ 140.089635700000031, 39.764233 ] } },
{ "type": "Feature", "properties": { "内容": "デイサービスひなたぼっこの家【通所介護】秋田県秋田市茨島四丁目５番１０号", "url2": "https://www.kaigokensaku.mhlw.go.jp/05/index.php?action_kouhyou_detail_004_kani=true&JigyosyoCd=0570109116-00&ServiceCd=150&Type=search" }, "geometry": { "type": "Point", "coordinates": [ 140.102074, 39.69578 ] } },
{ "type": "Feature", "properties": { "内容": "秋田市北部デイサービスセンターゆりかご【通所介護】秋田県秋田市飯島字寄進田９４－１", "url2": "https://www.kaigokensaku.mhlw.go.jp/05/index.php?action_kouhyou_detail_004_kani=true&JigyosyoCd=0570114009-00&ServiceCd=150&Type=search" }, "geometry": { "type": "Point", "coordinates": [ 140.063566400000013, 39.7927045 ] } },
{ "type": "Feature", "properties": { "内容": "ツクイ秋田土崎【通所介護】秋田県秋田市土崎港相染町字中谷地182-1", "url2": "https://www.kaigokensaku.mhlw.go.jp/05/index.php?action_kouhyou_detail_004_kani=true&JigyosyoCd=0570126672-00&ServiceCd=150&Type=search" }, "geometry": { "type": "Point", "coordinates": [ 140.0660105, 39.7640119 ] } },
{ "type": "Feature", "properties": { "内容": "通所介護施設　新成園【通所介護】秋田県秋田市浜田字元中村280－9", "url2": "https://www.kaigokensaku.mhlw.go.jp/05/index.php?action_kouhyou_detail_004_kani=true&JigyosyoCd=0570102269-00&ServiceCd=150&Type=search" }, "geometry": { "type": "Point", "coordinates": [ 140.069483499999933, 39.6800283 ] } },
{ "type": "Feature", "properties": { "内容": "リンデンバウムいずみデイサービスセンター【通所介護】秋田県秋田市泉菅野二丁目１７番１１号リンデンバウムいずみ", "url2": "https://www.kaigokensaku.mhlw.go.jp/05/index.php?action_kouhyou_detail_004_kani=true&JigyosyoCd=0570106278-00&ServiceCd=150&Type=search" }, "geometry": { "type": "Point", "coordinates": [ 140.115076, 39.7360816 ] } },
{ "type": "Feature", "properties": { "内容": "ツクイ秋田川尻【通所介護】秋田県秋田市川尻御休町5-12", "url2": "https://www.kaigokensaku.mhlw.go.jp/05/index.php?action_kouhyou_detail_004_kani=true&JigyosyoCd=0570126649-00&ServiceCd=150&Type=search" }, "geometry": { "type": "Point", "coordinates": [ 140.09645230000001, 39.713318 ] } },
{ "type": "Feature", "properties": { "内容": "ツクイ秋田茨島【通所介護】秋田県秋田市茨島二丁目１１番６５号", "url2": "https://www.kaigokensaku.mhlw.go.jp/05/index.php?action_kouhyou_detail_004_kani=true&JigyosyoCd=0570126656-00&ServiceCd=150&Type=search" }, "geometry": { "type": "Point", "coordinates": [ 140.1042899, 39.7001805 ] } },
{ "type": "Feature", "properties": { "内容": "みそのホームデイサービスセンター【通所介護】秋田県秋田市寺内蛭根２丁目６番３４号", "url2": "https://www.kaigokensaku.mhlw.go.jp/05/index.php?action_kouhyou_detail_004_kani=true&JigyosyoCd=0570102046-00&ServiceCd=150&Type=search" }, "geometry": { "type": "Point", "coordinates": [ 140.086903900000038, 39.730259 ] } },
{ "type": "Feature", "properties": { "内容": "デイサービスセンター緑水苑【通所介護】秋田県秋田市雄和石田字苗代沢25-1", "url2": "https://www.kaigokensaku.mhlw.go.jp/05/index.php?action_kouhyou_detail_004_kani=true&JigyosyoCd=0572409662-00&ServiceCd=150&Type=search" }, "geometry": { "type": "Point", "coordinates": [ 140.171375399999988, 39.5956918 ] } },
{ "type": "Feature", "properties": { "内容": "松寿会指定通所介護事業所【通所介護】秋田県秋田市浜田字陳ヶ原35番地13", "url2": "https://www.kaigokensaku.mhlw.go.jp/05/index.php?action_kouhyou_detail_004_kani=true&JigyosyoCd=0570102939-00&ServiceCd=150&Type=search" }, "geometry": { "type": "Point", "coordinates": [ 140.06796810000003, 39.6523155 ] } },
{ "type": "Feature", "properties": { "内容": "さとみ温泉　りらっくす倶楽部【通所介護】秋田市　添川　字　境内川原　１４２－１", "url2": "https://www.kaigokensaku.mhlw.go.jp/05/index.php?action_kouhyou_detail_004_kani=true&JigyosyoCd=0570110346-00&ServiceCd=150&Type=search" }, "geometry": { "type": "Point", "coordinates": [ 140.131329664279178, 39.748561882639841 ] } },
{ "type": "Feature", "properties": { "内容": "デイサービスコリウス【通所介護】秋田県秋田市仁井田字大野174-3", "url2": "https://www.kaigokensaku.mhlw.go.jp/05/index.php?action_kouhyou_detail_004_kani=true&JigyosyoCd=0570112664-00&ServiceCd=150&Type=search" }, "geometry": { "type": "Point", "coordinates": [ 140.11540930000001, 39.6813492 ] } },
{ "type": "Feature", "properties": { "内容": "のしろケアセンターそよ風【通所介護】秋田県能代市落合字古悪土１－２２８のしろケアセンターそよ風", "url2": "https://www.kaigokensaku.mhlw.go.jp/05/index.php?action_kouhyou_detail_004_kani=true&JigyosyoCd=0570206748-00&ServiceCd=150&Type=search" }, "geometry": { "type": "Point", "coordinates": [ 140.010385700000029, 40.226035 ] } },
{ "type": "Feature", "properties": { "内容": "デイサービスみんなの家【通所介護】秋田県能代市河戸川字谷地47番地1デイサービスみんなの家", "url2": "https://www.kaigokensaku.mhlw.go.jp/05/index.php?action_kouhyou_detail_004_kani=true&JigyosyoCd=0570220434-00&ServiceCd=150&Type=search" }, "geometry": { "type": "Point", "coordinates": [ 140.020838207502266, 40.17406486710567 ] } },
{ "type": "Feature", "properties": { "内容": "能代市社会福祉協議会二ツ井デイサービスセンター【通所介護】秋田県能代市二ツ井町字三千苅４４番地３４", "url2": "https://www.kaigokensaku.mhlw.go.jp/05/index.php?action_kouhyou_detail_004_kani=true&JigyosyoCd=0570214114-00&ServiceCd=150&Type=search" }, "geometry": { "type": "Point", "coordinates": [ 140.239320200000066, 40.2092175 ] } },
{ "type": "Feature", "properties": { "内容": "ドリームホープなかよしデイサービスセンター【通所介護】秋田県能代市浅内字石丁家下91番地", "url2": "https://www.kaigokensaku.mhlw.go.jp/05/index.php?action_kouhyou_detail_004_kani=true&JigyosyoCd=0570216150-00&ServiceCd=150&Type=search" }, "geometry": { "type": "Point", "coordinates": [ 140.015354873350361, 40.148001712759488 ] } },
{ "type": "Feature", "properties": { "内容": "なかよしの家デイサービス【通所介護】秋田県能代市通町３番１５", "url2": "https://www.kaigokensaku.mhlw.go.jp/05/index.php?action_kouhyou_detail_004_kani=true&JigyosyoCd=0570225441-00&ServiceCd=150&Type=search" }, "geometry": { "type": "Point", "coordinates": [ 140.021418899999958, 40.2048293 ] } },
{ "type": "Feature", "properties": { "内容": "虹の街デイサービスのしろ【通所介護】秋田県能代市河戸川字下大須賀40番", "url2": "https://www.kaigokensaku.mhlw.go.jp/05/index.php?action_kouhyou_detail_004_kani=true&JigyosyoCd=0570226894-00&ServiceCd=150&Type=search" }, "geometry": { "type": "Point", "coordinates": [ 140.020926300000013, 40.1837893 ] } },
{ "type": "Feature", "properties": { "内容": "能代市緑町デイサービスセンター【通所介護】秋田県能代市緑町７番１７号", "url2": "https://www.kaigokensaku.mhlw.go.jp/05/index.php?action_kouhyou_detail_004_kani=true&JigyosyoCd=0570216689-00&ServiceCd=150&Type=search" }, "geometry": { "type": "Point", "coordinates": [ 140.036143, 40.1971111 ] } },
{ "type": "Feature", "properties": { "内容": "JAあきた白神デイサービスセンターいなほの里【通所介護】秋田県能代市鰄渕字古屋布43番地１", "url2": "https://www.kaigokensaku.mhlw.go.jp/05/index.php?action_kouhyou_detail_004_kani=true&JigyosyoCd=0570210096-00&ServiceCd=150&Type=search" }, "geometry": { "type": "Point", "coordinates": [ 140.079725400000029, 40.1886321 ] } },
{ "type": "Feature", "properties": { "内容": "長崎デイハウスふあり【通所介護】秋田県能代市長崎227番地2", "url2": "https://www.kaigokensaku.mhlw.go.jp/05/index.php?action_kouhyou_detail_004_kani=true&JigyosyoCd=0570214643-00&ServiceCd=150&Type=search" }, "geometry": { "type": "Point", "coordinates": [ 140.023128199999974, 40.1855705 ] } },
{ "type": "Feature", "properties": { "内容": "ニチイケアセンター能代【通所介護】秋田県能代市落合字下前田198-2", "url2": "https://www.kaigokensaku.mhlw.go.jp/05/index.php?action_kouhyou_detail_004_kani=true&JigyosyoCd=0570205534-00&ServiceCd=150&Type=search" }, "geometry": { "type": "Point", "coordinates": [ 140.0254569, 40.2236716 ] } },
{ "type": "Feature", "properties": { "内容": "デイサービスセンターよねしろ通所介護事業所【通所介護】秋田県能代市二ツ井町字下野家後145番地", "url2": "https://www.kaigokensaku.mhlw.go.jp/05/index.php?action_kouhyou_detail_004_kani=true&JigyosyoCd=0572204345-00&ServiceCd=150&Type=search" }, "geometry": { "type": "Point", "coordinates": [ 140.242172699999941, 40.2095759 ] } },
{ "type": "Feature", "properties": { "内容": "能代ふれあいデイサービスセンター【通所介護】秋田県能代市上町12番32号", "url2": "https://www.kaigokensaku.mhlw.go.jp/05/index.php?action_kouhyou_detail_004_kani=true&JigyosyoCd=0570216697-00&ServiceCd=150&Type=search" }, "geometry": { "type": "Point", "coordinates": [ 140.030806699999971, 40.2127092 ] } },
{ "type": "Feature", "properties": { "内容": "デイサービスセンター清風のしろ【通所介護】秋田県能代市落合字上前田149-1", "url2": "https://www.kaigokensaku.mhlw.go.jp/05/index.php?action_kouhyou_detail_004_kani=true&JigyosyoCd=0570219345-00&ServiceCd=150&Type=search" }, "geometry": { "type": "Point", "coordinates": [ 140.025581800000026, 40.2273239 ] } },
{ "type": "Feature", "properties": { "内容": "アップルデイサービスセンター【通所介護】秋田県横手市平鹿町中吉田字竹原99-1", "url2": "https://www.kaigokensaku.mhlw.go.jp/05/index.php?action_kouhyou_detail_004_kani=true&JigyosyoCd=0572708857-00&ServiceCd=150&Type=search" }, "geometry": { "type": "Point", "coordinates": [ 140.496263499999941, 39.2694879 ] } },
{ "type": "Feature", "properties": { "内容": "デイサービスセンター沼の柵【通所介護】秋田県横手市雄物川町今宿字鳴田１３６－１", "url2": "https://www.kaigokensaku.mhlw.go.jp/05/index.php?action_kouhyou_detail_004_kani=true&JigyosyoCd=0570317602-00&ServiceCd=150&Type=search" }, "geometry": { "type": "Point", "coordinates": [ 140.430812100000026, 39.2905362 ] } },
{ "type": "Feature", "properties": { "内容": "横手市大森町指定通所介護事業所【通所介護】秋田県横手市大森町字菅生田２４５番地２１４", "url2": "https://www.kaigokensaku.mhlw.go.jp/05/index.php?action_kouhyou_detail_004_kani=true&JigyosyoCd=0570313452-00&ServiceCd=150&Type=search" }, "geometry": { "type": "Point", "coordinates": [ 140.418514100000039, 39.351928 ] } },
{ "type": "Feature", "properties": { "内容": "デイサービス雁の郷【通所介護】秋田県横手市金沢中野字下矢来沢389-1老人ホーム雁ハウス", "url2": "https://www.kaigokensaku.mhlw.go.jp/05/index.php?action_kouhyou_detail_004_kani=true&JigyosyoCd=0570322180-00&ServiceCd=150&Type=search" }, "geometry": { "type": "Point", "coordinates": [ 140.553547599999973, 39.3681527 ] } },
{ "type": "Feature", "properties": { "内容": "コンパスウォーク横手【通所介護】秋田県横手市安田字堰添58-1", "url2": "https://www.kaigokensaku.mhlw.go.jp/05/index.php?action_kouhyou_detail_004_kani=true&JigyosyoCd=0570326454-00&ServiceCd=150&Type=search" }, "geometry": { "type": "Point", "coordinates": [ 140.5558996, 39.3008941 ] } },
{ "type": "Feature", "properties": { "内容": "横手市デイサービスセンター　ふるさと館【通所介護】秋田県横手市上境字谷地中141-1", "url2": "https://www.kaigokensaku.mhlw.go.jp/05/index.php?action_kouhyou_detail_004_kani=true&JigyosyoCd=0570303917-00&ServiceCd=150&Type=search" }, "geometry": { "type": "Point", "coordinates": [ 140.527465500000062, 39.3426492 ] } },
{ "type": "Feature", "properties": { "内容": "デイスパ清川の里【通所介護】秋田県横手市駅前町7-17プラザ・ウェルフェア横手　1階", "url2": "https://www.kaigokensaku.mhlw.go.jp/05/index.php?action_kouhyou_detail_004_kani=true&JigyosyoCd=0570322719-00&ServiceCd=150&Type=search" }, "geometry": { "type": "Point", "coordinates": [ 140.56192761948239, 39.308017673885104 ] } },
{ "type": "Feature", "properties": { "内容": "悠林の丘【通所介護】秋田県横手市赤坂字仁坂105番地の2", "url2": "https://www.kaigokensaku.mhlw.go.jp/05/index.php?action_kouhyou_detail_004_kani=true&JigyosyoCd=0570322867-00&ServiceCd=150&Type=search" }, "geometry": { "type": "Point", "coordinates": [ 140.5332118, 39.2975495 ] } },
{ "type": "Feature", "properties": { "内容": "ほのぼのデイサービスセンター【通所介護】秋田県横手市雄物川町造山字十足馬場115-1", "url2": "https://www.kaigokensaku.mhlw.go.jp/05/index.php?action_kouhyou_detail_004_kani=true&JigyosyoCd=0570318618-00&ServiceCd=150&Type=search" }, "geometry": { "type": "Point", "coordinates": [ 140.431884500000052, 39.28124840000001 ] } },
{ "type": "Feature", "properties": { "内容": "横手市社会福祉協議会十文字福祉センター指定通所介護事業所【通所介護】秋田県横手市十文字町梨木字御休ノ上２９番地", "url2": "https://www.kaigokensaku.mhlw.go.jp/05/index.php?action_kouhyou_detail_004_kani=true&JigyosyoCd=0570313379-00&ServiceCd=150&Type=search" }, "geometry": { "type": "Point", "coordinates": [ 140.524372200000016, 39.237548 ] } },
{ "type": "Feature", "properties": { "内容": "横手市社会福祉協議会雄風荘指定通所介護事業所【通所介護】秋田県横手市雄物川町今宿字末館47番地2", "url2": "https://www.kaigokensaku.mhlw.go.jp/05/index.php?action_kouhyou_detail_004_kani=true&JigyosyoCd=0570313262-00&ServiceCd=150&Type=search" }, "geometry": { "type": "Point", "coordinates": [ 140.402676499999984, 39.2837167 ] } },
{ "type": "Feature", "properties": { "内容": "デイサービスセンターすこやか森の家【通所介護】秋田県横手市婦気大堤字婦気前154-1", "url2": "https://www.kaigokensaku.mhlw.go.jp/05/index.php?action_kouhyou_detail_004_kani=true&JigyosyoCd=0570308866-00&ServiceCd=150&Type=search" }, "geometry": { "type": "Point", "coordinates": [ 140.553466, 39.3004775 ] } },
{ "type": "Feature", "properties": { "内容": "横手市社会福祉協議会平寿苑指定通所介護事業所【通所介護】横手市平鹿町浅舞字館廻353番地", "url2": "https://www.kaigokensaku.mhlw.go.jp/05/index.php?action_kouhyou_detail_004_kani=true&JigyosyoCd=0570313205-00&ServiceCd=150&Type=search" }, "geometry": { "type": "Point", "coordinates": [ 140.483817199999976, 39.2675732 ] } },
{ "type": "Feature", "properties": { "内容": "デイサービスセンター宏川荘【通所介護】秋田県横手市雄物川町今宿字末館52番地1", "url2": "https://www.kaigokensaku.mhlw.go.jp/05/index.php?action_kouhyou_detail_004_kani=true&JigyosyoCd=0570326355-00&ServiceCd=150&Type=search" }, "geometry": { "type": "Point", "coordinates": [ 140.4040847, 39.2825165 ] } },
{ "type": "Feature", "properties": { "内容": "デイサービスセンターあったかサロン【通所介護】秋田県大館市字観音堂391デイサービスセンターあったかサロン", "url2": "https://www.kaigokensaku.mhlw.go.jp/05/index.php?action_kouhyou_detail_004_kani=true&JigyosyoCd=0570421883-00&ServiceCd=150&Type=search" }, "geometry": { "type": "Point", "coordinates": [ 140.579305618971262, 40.279888046370331 ] } },
{ "type": "Feature", "properties": { "内容": "デイサービスセンター　みどりの丘【通所介護】秋田県大館市釈迦内字台野道上102-13", "url2": "https://www.kaigokensaku.mhlw.go.jp/05/index.php?action_kouhyou_detail_004_kani=true&JigyosyoCd=0570425785-00&ServiceCd=150&Type=search" }, "geometry": { "type": "Point", "coordinates": [ 140.565469600000029, 40.3017264 ] } },
{ "type": "Feature", "properties": { "内容": "通所介護事業所　COCOいきいき会館【通所介護】秋田県大館市釈迦内字山道上76-83", "url2": "https://www.kaigokensaku.mhlw.go.jp/05/index.php?action_kouhyou_detail_004_kani=true&JigyosyoCd=0570423111-00&ServiceCd=150&Type=search" }, "geometry": { "type": "Point", "coordinates": [ 140.578684123417673, 40.297016387615031 ] } },
{ "type": "Feature", "properties": { "内容": "デイサービスセンターいずみ【通所介護】秋田県大館市泉町９番１９号泉町地域ふくしセンター", "url2": "https://www.kaigokensaku.mhlw.go.jp/05/index.php?action_kouhyou_detail_004_kani=true&JigyosyoCd=0570422253-00&ServiceCd=150&Type=search" }, "geometry": { "type": "Point", "coordinates": [ 139.367107900000036, 35.4398296 ] } },
{ "type": "Feature", "properties": { "内容": "大館市デイサービスセンターかつら指定通所介護事業所【通所介護】秋田県大館市字三ノ丸１０３番地４大館市総合福祉センター", "url2": "https://www.kaigokensaku.mhlw.go.jp/05/index.php?action_kouhyou_detail_004_kani=true&JigyosyoCd=0570415810-00&ServiceCd=150&Type=search" }, "geometry": { "type": "Point", "coordinates": [ 140.563435499999969, 40.272235500000015 ] } },
{ "type": "Feature", "properties": { "内容": "デイサービスセンター　大館南【通所介護】秋田県大館市下川原字向野17番地4", "url2": "https://www.kaigokensaku.mhlw.go.jp/05/index.php?action_kouhyou_detail_004_kani=true&JigyosyoCd=0570414391-00&ServiceCd=150&Type=search" }, "geometry": { "type": "Point", "coordinates": [ 140.525614799999971, 40.2442016 ] } },
{ "type": "Feature", "properties": { "内容": "ニチイケアセンター桂城【通所介護】秋田県大館市字水門前5番2", "url2": "https://www.kaigokensaku.mhlw.go.jp/05/index.php?action_kouhyou_detail_004_kani=true&JigyosyoCd=0570410498-00&ServiceCd=150&Type=search" }, "geometry": { "type": "Point", "coordinates": [ 140.55710810000005, 40.2751599 ] } },
{ "type": "Feature", "properties": { "内容": "ニチイケアセンター大館【通所介護】秋田県大館市釈迦内字中台25-9", "url2": "https://www.kaigokensaku.mhlw.go.jp/05/index.php?action_kouhyou_detail_004_kani=true&JigyosyoCd=0570401554-00&ServiceCd=150&Type=search" }, "geometry": { "type": "Point", "coordinates": [ 140.569905100000028, 40.3076536 ] } },
{ "type": "Feature", "properties": { "内容": "大館市デイサービスセンター大滝【通所介護】秋田県大館市十二所字大水口4番地5", "url2": "https://www.kaigokensaku.mhlw.go.jp/05/index.php?action_kouhyou_detail_004_kani=true&JigyosyoCd=0570415794-00&ServiceCd=150&Type=search" }, "geometry": { "type": "Point", "coordinates": [ 140.6582148, 40.2158174 ] } },
{ "type": "Feature", "properties": { "内容": "指定通所介護事業所水交苑デイサービスセンターのぎく【通所介護】秋田県大館市字下綱２２番地１", "url2": "https://www.kaigokensaku.mhlw.go.jp/05/index.php?action_kouhyou_detail_004_kani=true&JigyosyoCd=0570405738-00&ServiceCd=150&Type=search" }, "geometry": { "type": "Point", "coordinates": [ 140.58984126434018, 40.290128641701365 ] } },
{ "type": "Feature", "properties": { "内容": "介護サービスセンター山王台デイサービス【通所介護】秋田県大館市池内字上野234－1", "url2": "https://www.kaigokensaku.mhlw.go.jp/05/index.php?action_kouhyou_detail_004_kani=true&JigyosyoCd=0570418301-00&ServiceCd=150&Type=search" }, "geometry": { "type": "Point", "coordinates": [ 140.578651400000012, 40.2556546 ] } },
{ "type": "Feature", "properties": { "内容": "デイサービス一心堂ピース【通所介護】秋田県大館市水門町9-38", "url2": "https://www.kaigokensaku.mhlw.go.jp/05/index.php?action_kouhyou_detail_004_kani=true&JigyosyoCd=0570426734-00&ServiceCd=150&Type=search" }, "geometry": { "type": "Point", "coordinates": [ 140.550277200000011, 40.2754458 ] } },
{ "type": "Feature", "properties": { "内容": "デイサービスセンターたしろ【通所介護】秋田県大館市岩瀬字羽貫谷地中島２１－９０", "url2": "https://www.kaigokensaku.mhlw.go.jp/05/index.php?action_kouhyou_detail_004_kani=true&JigyosyoCd=0572103992-00&ServiceCd=150&Type=search" }, "geometry": { "type": "Point", "coordinates": [ 140.451477100000034, 40.2897905 ] } },
{ "type": "Feature", "properties": { "内容": "比内町福祉センターデイサービス【通所介護】秋田県大館市比内町新館字館下79-1", "url2": "https://www.kaigokensaku.mhlw.go.jp/05/index.php?action_kouhyou_detail_004_kani=true&JigyosyoCd=0572103885-00&ServiceCd=150&Type=search" }, "geometry": { "type": "Point", "coordinates": [ 140.582674900000029, 40.2176815 ] } },
{ "type": "Feature", "properties": { "内容": "デイサービスセンターかみやま【通所介護】秋田県大館市花岡町字神山６番地２", "url2": "https://www.kaigokensaku.mhlw.go.jp/05/index.php?action_kouhyou_detail_004_kani=true&JigyosyoCd=0570404004-00&ServiceCd=150&Type=search" }, "geometry": { "type": "Point", "coordinates": [ 140.555556, 40.3230236 ] } },
{ "type": "Feature", "properties": { "内容": "ケアセンター一心堂【通所介護】秋田県大館市東台2丁目１－７５－２", "url2": "https://www.kaigokensaku.mhlw.go.jp/05/index.php?action_kouhyou_detail_004_kani=true&JigyosyoCd=0570401117-00&ServiceCd=150&Type=search" }, "geometry": { "type": "Point", "coordinates": [ 140.574306799999931, 40.2704915 ] } },
{ "type": "Feature", "properties": { "内容": "よりあいたっこ森ガーデン【通所介護】秋田県大館市比内町扇田字扇田423番地", "url2": "https://www.kaigokensaku.mhlw.go.jp/05/index.php?action_kouhyou_detail_004_kani=true&JigyosyoCd=0570425207-00&ServiceCd=150&Type=search" }, "geometry": { "type": "Point", "coordinates": [ 140.576185900000041, 40.229335400000025 ] } },
{ "type": "Feature", "properties": { "内容": "デイサービスセンター和幸苑　通所介護事業所【通所介護】秋田県男鹿市角間崎字岡見沢86番地12", "url2": "https://www.kaigokensaku.mhlw.go.jp/05/index.php?action_kouhyou_detail_004_kani=true&JigyosyoCd=0572305613-00&ServiceCd=150&Type=search" }, "geometry": { "type": "Point", "coordinates": [ 139.904919899999982, 39.9602281 ] } },
{ "type": "Feature", "properties": { "内容": "男鹿市北部デイサービスセンター【通所介護】秋田県男鹿市北浦北浦字平岱山2番地24", "url2": "https://www.kaigokensaku.mhlw.go.jp/05/index.php?action_kouhyou_detail_004_kani=true&JigyosyoCd=0570616839-00&ServiceCd=150&Type=search" }, "geometry": { "type": "Point", "coordinates": [ 139.75253440000003, 39.9517862 ] } },
{ "type": "Feature", "properties": { "内容": "コンパスウォーク湯沢【通所介護】秋田県湯沢市材木町2-2-5", "url2": "https://www.kaigokensaku.mhlw.go.jp/05/index.php?action_kouhyou_detail_004_kani=true&JigyosyoCd=0570726497-00&ServiceCd=150&Type=search" }, "geometry": { "type": "Point", "coordinates": [ 140.488972, 39.1598296 ] } },
{ "type": "Feature", "properties": { "内容": "ＪＡこまちデイサービス　夢こまちほのか【通所介護】秋田県湯沢市倉内字三ツ屋６番１", "url2": "https://www.kaigokensaku.mhlw.go.jp/05/index.php?action_kouhyou_detail_004_kani=true&JigyosyoCd=0570721712-00&ServiceCd=150&Type=search" }, "geometry": { "type": "Point", "coordinates": [ 140.464056991926554, 39.185110092167342 ] } },
{ "type": "Feature", "properties": { "内容": "ふくろう【通所介護】秋田県湯沢市横堀字小正寺18-2", "url2": "https://www.kaigokensaku.mhlw.go.jp/05/index.php?action_kouhyou_detail_004_kani=true&JigyosyoCd=0570723890-00&ServiceCd=150&Type=search" }, "geometry": { "type": "Point", "coordinates": [ 140.454649, 39.0611531 ] } },
{ "type": "Feature", "properties": { "内容": "ひまり【通所介護】秋田県湯沢市横堀字小正寺16番地の1", "url2": "https://www.kaigokensaku.mhlw.go.jp/05/index.php?action_kouhyou_detail_004_kani=true&JigyosyoCd=0572810273-00&ServiceCd=150&Type=search" }, "geometry": { "type": "Point", "coordinates": [ 140.454102200524829, 39.061879329975511 ] } },
{ "type": "Feature", "properties": { "内容": "ケアセンターいなかわデイサービス【通所介護】秋田県湯沢市駒形町字八面狐塚５８番地", "url2": "https://www.kaigokensaku.mhlw.go.jp/05/index.php?action_kouhyou_detail_004_kani=true&JigyosyoCd=0570713768-00&ServiceCd=150&Type=search" }, "geometry": { "type": "Point", "coordinates": [ 140.554373199999986, 39.1722855 ] } },
{ "type": "Feature", "properties": { "内容": "東恵園指定通所介護事業所【通所介護】秋田県鹿角市花輪字古館５番地１", "url2": "https://www.kaigokensaku.mhlw.go.jp/05/index.php?action_kouhyou_detail_004_kani=true&JigyosyoCd=0570902098-00&ServiceCd=150&Type=search" }, "geometry": { "type": "Point", "coordinates": [ 140.803552500000023, 40.1943141 ] } },
{ "type": "Feature", "properties": { "内容": "ケアホームおおゆデイサービスセンター【通所介護】秋田県鹿角市十和田大湯字湯の岱一丁目一番地", "url2": "https://www.kaigokensaku.mhlw.go.jp/05/index.php?action_kouhyou_detail_004_kani=true&JigyosyoCd=0570903641-00&ServiceCd=150&Type=search" }, "geometry": { "type": "Point", "coordinates": [ 140.83479310000007, 40.2965997 ] } },
{ "type": "Feature", "properties": { "内容": "医療法人楽山会　デイサービスセンター温泉保養館おおゆ【通所介護】秋田県鹿角市十和田大湯字川原の湯9番地3", "url2": "https://www.kaigokensaku.mhlw.go.jp/05/index.php?action_kouhyou_detail_004_kani=true&JigyosyoCd=0570909499-00&ServiceCd=150&Type=search" }, "geometry": { "type": "Point", "coordinates": [ 140.8229106, 40.292739 ] } },
{ "type": "Feature", "properties": { "内容": "医療法人恵愛会　鹿角中央病院デイサービスセンター【通所介護】秋田県鹿角市花輪字扇の間７－１", "url2": "https://www.kaigokensaku.mhlw.go.jp/05/index.php?action_kouhyou_detail_004_kani=true&JigyosyoCd=0570904631-00&ServiceCd=150&Type=search" }, "geometry": { "type": "Point", "coordinates": [ 140.790508899999963, 40.2006741 ] } },
{ "type": "Feature", "properties": { "内容": "ニチイケアセンター本荘【通所介護】秋田県由利本荘市川口字新田90", "url2": "https://www.kaigokensaku.mhlw.go.jp/05/index.php?action_kouhyou_detail_004_kani=true&JigyosyoCd=0570500058-00&ServiceCd=150&Type=search" }, "geometry": { "type": "Point", "coordinates": [ 140.061836699999958, 39.4009092 ] } },
{ "type": "Feature", "properties": { "内容": "デイサービスセンターひまわり【通所介護】秋田県由利本荘市西目町海士剥字御月森１番地", "url2": "https://www.kaigokensaku.mhlw.go.jp/05/index.php?action_kouhyou_detail_004_kani=true&JigyosyoCd=0572507218-00&ServiceCd=150&Type=search" }, "geometry": { "type": "Point", "coordinates": [ 140.019873599999983, 39.3687379 ] } },
{ "type": "Feature", "properties": { "内容": "鳥寿苑通所介護事業所【通所介護】秋田県由利本荘市鳥海町伏見字久保77番地", "url2": "https://www.kaigokensaku.mhlw.go.jp/05/index.php?action_kouhyou_detail_004_kani=true&JigyosyoCd=0570524496-00&ServiceCd=150&Type=search" }, "geometry": { "type": "Point", "coordinates": [ 140.18904950000001, 39.1896897 ] } },
{ "type": "Feature", "properties": { "内容": "由利本荘市社会福祉協議会　デイサービスゆりちゃん【通所介護】秋田県由利本荘市前郷字家岸79番地17", "url2": "https://www.kaigokensaku.mhlw.go.jp/05/index.php?action_kouhyou_detail_004_kani=true&JigyosyoCd=0570527036-00&ServiceCd=150&Type=search" }, "geometry": { "type": "Point", "coordinates": [ 140.1113804, 39.3141093 ] } },
{ "type": "Feature", "properties": { "内容": "デイサービスセンターマイ！！ともだち【通所介護】秋田県由利本荘市大鍬町162番地1", "url2": "https://www.kaigokensaku.mhlw.go.jp/05/index.php?action_kouhyou_detail_004_kani=true&JigyosyoCd=0570508168-00&ServiceCd=150&Type=search" }, "geometry": { "type": "Point", "coordinates": [ 140.046790800000053, 39.3756883 ] } },
{ "type": "Feature", "properties": { "内容": "東光苑通所介護事業所【通所介護】秋田県由利本荘市東由利蔵字蔵８３", "url2": "https://www.kaigokensaku.mhlw.go.jp/05/index.php?action_kouhyou_detail_004_kani=true&JigyosyoCd=0570525097-00&ServiceCd=150&Type=search" }, "geometry": { "type": "Point", "coordinates": [ 140.264291299999968, 39.3157327 ] } },
{ "type": "Feature", "properties": { "内容": "由利本荘市社会福祉協議会通所介護事業所高台苑【通所介護】秋田県由利本荘市岩谷町字ハケノ下58", "url2": "https://www.kaigokensaku.mhlw.go.jp/05/index.php?action_kouhyou_detail_004_kani=true&JigyosyoCd=0570511576-00&ServiceCd=150&Type=search" }, "geometry": { "type": "Point", "coordinates": [ 140.1039796, 39.4473973 ] } },
{ "type": "Feature", "properties": { "内容": "由利本荘市社会福祉協議会矢島通所介護事業所【通所介護】秋田県由利本荘市矢島町城内字八森下486-1", "url2": "https://www.kaigokensaku.mhlw.go.jp/05/index.php?action_kouhyou_detail_004_kani=true&JigyosyoCd=0570511634-00&ServiceCd=150&Type=search" }, "geometry": { "type": "Point", "coordinates": [ 140.1371838, 39.2338434 ] } },
{ "type": "Feature", "properties": { "内容": "デイサービス　ともに【通所介護】秋田県由利本荘市東梵天109-3", "url2": "https://www.kaigokensaku.mhlw.go.jp/05/index.php?action_kouhyou_detail_004_kani=true&JigyosyoCd=0570521526-00&ServiceCd=150&Type=search" }, "geometry": { "type": "Point", "coordinates": [ 140.063331299999959, 39.3830466 ] } },
{ "type": "Feature", "properties": { "内容": "デイサービスセンターふるさと学び舎【通所介護】秋田県由利本荘市土谷字新谷地157番地", "url2": "https://www.kaigokensaku.mhlw.go.jp/05/index.php?action_kouhyou_detail_004_kani=true&JigyosyoCd=0570515916-00&ServiceCd=150&Type=search" }, "geometry": { "type": "Point", "coordinates": [ 140.069400200000018, 39.3918877 ] } },
{ "type": "Feature", "properties": { "内容": "デイサービス　華【通所介護】秋田県由利本荘市矢島町元町字新所１４３", "url2": "https://www.kaigokensaku.mhlw.go.jp/05/index.php?action_kouhyou_detail_004_kani=true&JigyosyoCd=0570513861-00&ServiceCd=150&Type=search" }, "geometry": { "type": "Point", "coordinates": [ 140.154879599999958, 39.2270446 ] } },
{ "type": "Feature", "properties": { "内容": "由利本荘市社会福祉協議会通所介護事業所　さつき苑【通所介護】由利本荘市中田代字上ノ山163", "url2": "https://www.kaigokensaku.mhlw.go.jp/05/index.php?action_kouhyou_detail_004_kani=true&JigyosyoCd=0570511584-00&ServiceCd=150&Type=search" }, "geometry": { "type": "Point", "coordinates": [ 140.219629700000041, 39.4372902 ] } },
{ "type": "Feature", "properties": { "内容": "デイサービス　楓【通所介護】秋田県由利本荘市一番堰128", "url2": "https://www.kaigokensaku.mhlw.go.jp/05/index.php?action_kouhyou_detail_004_kani=true&JigyosyoCd=0570508341-00&ServiceCd=150&Type=search" }, "geometry": { "type": "Point", "coordinates": [ 140.059523200000058, 39.3776746 ] } },
{ "type": "Feature", "properties": { "内容": "デイサービスセンターたんぽぽプラザ【通所介護】秋田県由利本荘市岩城赤平字長ヶ沢18-1", "url2": "https://www.kaigokensaku.mhlw.go.jp/05/index.php?action_kouhyou_detail_004_kani=true&JigyosyoCd=0570524017-00&ServiceCd=150&Type=search" }, "geometry": { "type": "Point", "coordinates": [ 140.076236214958158, 39.503884930992605 ] } },
{ "type": "Feature", "properties": { "内容": "デイサービス　「わかば」【通所介護】秋田県由利本荘市石脇字田尻野７番地３", "url2": "https://www.kaigokensaku.mhlw.go.jp/05/index.php?action_kouhyou_detail_004_kani=true&JigyosyoCd=0570512491-00&ServiceCd=150&Type=search" }, "geometry": { "type": "Point", "coordinates": [ 140.031409476057433, 39.404761050182927 ] } },
{ "type": "Feature", "properties": { "内容": "通所介護　ほっと【通所介護】秋田県由利本荘市石脇字田尻２８－８０２", "url2": "https://www.kaigokensaku.mhlw.go.jp/05/index.php?action_kouhyou_detail_004_kani=true&JigyosyoCd=0570506428-00&ServiceCd=150&Type=search" }, "geometry": { "type": "Point", "coordinates": [ 140.025151100000016, 39.3931782 ] } },
{ "type": "Feature", "properties": { "内容": "ＪＡ秋田しんせいデイサービスセンターふれあい泉の里【通所介護】秋田県由利本荘市三条字前田75番地", "url2": "https://www.kaigokensaku.mhlw.go.jp/05/index.php?action_kouhyou_detail_004_kani=true&JigyosyoCd=0570510032-00&ServiceCd=150&Type=search" }, "geometry": { "type": "Point", "coordinates": [ 140.076106399999958, 39.3593906 ] } },
{ "type": "Feature", "properties": { "内容": "なかみちデイサービス【通所介護】秋田県由利本荘市薬師堂字中道　257", "url2": "https://www.kaigokensaku.mhlw.go.jp/05/index.php?action_kouhyou_detail_004_kani=true&JigyosyoCd=0570516351-00&ServiceCd=150&Type=search" }, "geometry": { "type": "Point", "coordinates": [ 140.05164590000004, 39.3694027 ] } },
{ "type": "Feature", "properties": { "内容": "デイサービスセンターだいち【通所介護】秋田県由利本荘市岩谷町字ハケノ下８０－２", "url2": "https://www.kaigokensaku.mhlw.go.jp/05/index.php?action_kouhyou_detail_004_kani=true&JigyosyoCd=0570516955-00&ServiceCd=150&Type=search" }, "geometry": { "type": "Point", "coordinates": [ 140.106618199999957, 39.4480723 ] } },
{ "type": "Feature", "properties": { "内容": "指定通所介護　デイサービスセンターゆうゆう【通所介護】秋田県由利本荘市一番堰142番地1", "url2": "https://www.kaigokensaku.mhlw.go.jp/05/index.php?action_kouhyou_detail_004_kani=true&JigyosyoCd=0570513960-00&ServiceCd=150&Type=search" }, "geometry": { "type": "Point", "coordinates": [ 140.056798299999969, 39.3789578 ] } },
{ "type": "Feature", "properties": { "内容": "社会福祉法人　敬仁会　デイサービスセンター　はまなす【通所介護】秋田県潟上市天王字上江川212番地2", "url2": "https://www.kaigokensaku.mhlw.go.jp/05/index.php?action_kouhyou_detail_004_kani=true&JigyosyoCd=0572302917-00&ServiceCd=150&Type=search" }, "geometry": { "type": "Point", "coordinates": [ 139.989249050594765, 39.881816420389995 ] } },
{ "type": "Feature", "properties": { "内容": "デイサービスセンターこもれび【通所介護】秋田県潟上市天王字上江川４７－１３０", "url2": "https://www.kaigokensaku.mhlw.go.jp/05/index.php?action_kouhyou_detail_004_kani=true&JigyosyoCd=0572309946-00&ServiceCd=150&Type=search" }, "geometry": { "type": "Point", "coordinates": [ 139.992870949737608, 39.875438253459521 ] } },
{ "type": "Feature", "properties": { "内容": "デイサービスセンターふくろう【通所介護】秋田県潟上市天王字棒沼台247-4", "url2": "https://www.kaigokensaku.mhlw.go.jp/05/index.php?action_kouhyou_detail_004_kani=true&JigyosyoCd=0571018282-00&ServiceCd=150&Type=search" }, "geometry": { "type": "Point", "coordinates": [ 140.011698499999966, 39.8585124 ] } },
{ "type": "Feature", "properties": { "内容": "デイサービスセンター　すてっぷ【通所介護】秋田県潟上市天王字追分西50-4", "url2": "https://www.kaigokensaku.mhlw.go.jp/05/index.php?action_kouhyou_detail_004_kani=true&JigyosyoCd=0571022649-00&ServiceCd=150&Type=search" }, "geometry": { "type": "Point", "coordinates": [ 139.9904669, 39.8855888 ] } },
{ "type": "Feature", "properties": { "内容": "デイサービスセンター　遊【通所介護】秋田県潟上市天王字細谷長根34番地１", "url2": "https://www.kaigokensaku.mhlw.go.jp/05/index.php?action_kouhyou_detail_004_kani=true&JigyosyoCd=0571015635-00&ServiceCd=150&Type=search" }, "geometry": { "type": "Point", "coordinates": [ 140.025675800000045, 39.8522775 ] } },
{ "type": "Feature", "properties": { "内容": "飯田川デイサービスセンターわかば園【通所介護】秋田県潟上市飯田川下虻川字上谷地168-1", "url2": "https://www.kaigokensaku.mhlw.go.jp/05/index.php?action_kouhyou_detail_004_kani=true&JigyosyoCd=0572305167-00&ServiceCd=150&Type=search" }, "geometry": { "type": "Point", "coordinates": [ 140.070592900000065, 39.8693402 ] } },
{ "type": "Feature", "properties": { "内容": "潟上市昭和デイサービスセンター【通所介護】秋田県潟上市昭和大久保字町後244", "url2": "https://www.kaigokensaku.mhlw.go.jp/05/index.php?action_kouhyou_detail_004_kani=true&JigyosyoCd=0571027127-00&ServiceCd=150&Type=search" }, "geometry": { "type": "Point", "coordinates": [ 140.0579788, 39.8694084 ] } },
{ "type": "Feature", "properties": { "内容": "愛・会いデイサービスセンター【通所介護】秋田県大仙市北長野字茶畑29番地", "url2": "https://www.kaigokensaku.mhlw.go.jp/05/index.php?action_kouhyou_detail_004_kani=true&JigyosyoCd=0570824615-00&ServiceCd=150&Type=search" }, "geometry": { "type": "Point", "coordinates": [ 140.5443166, 39.5474913 ] } },
{ "type": "Feature", "properties": { "内容": "リハビリデイ　もみじの家【通所介護】秋田県大仙市戸蒔字谷地中16-3", "url2": "https://www.kaigokensaku.mhlw.go.jp/05/index.php?action_kouhyou_detail_004_kani=true&JigyosyoCd=0570824052-00&ServiceCd=150&Type=search" }, "geometry": { "type": "Point", "coordinates": [ 140.506495699999988, 39.4500045 ] } },
{ "type": "Feature", "properties": { "内容": "デイサービスセンター　ハートフル刈和野【通所介護】秋田県大仙市刈和野字愛宕町17番地1", "url2": "https://www.kaigokensaku.mhlw.go.jp/05/index.php?action_kouhyou_detail_004_kani=true&JigyosyoCd=0570812727-00&ServiceCd=150&Type=search" }, "geometry": { "type": "Point", "coordinates": [ 140.370163199999979, 39.5443045 ] } },
{ "type": "Feature", "properties": { "内容": "ニチイケアセンター大曲【通所介護】秋田県大仙市四ッ屋字下古道55-1", "url2": "https://www.kaigokensaku.mhlw.go.jp/05/index.php?action_kouhyou_detail_004_kani=true&JigyosyoCd=0570800433-00&ServiceCd=150&Type=search" }, "geometry": { "type": "Point", "coordinates": [ 140.497721400000046, 39.4917476 ] } },
{ "type": "Feature", "properties": { "内容": "老人デイサービス事業　テンダーヒルズ【通所介護】秋田県大仙市内小友字明通３６番２", "url2": "https://www.kaigokensaku.mhlw.go.jp/05/index.php?action_kouhyou_detail_004_kani=true&JigyosyoCd=0570816041-00&ServiceCd=150&Type=search" }, "geometry": { "type": "Point", "coordinates": [ 140.438250399999987, 39.4318009 ] } },
{ "type": "Feature", "properties": { "内容": "真木苑デイサービスセンター【通所介護】秋田県大仙市太田町横沢字窪関南535－1", "url2": "https://www.kaigokensaku.mhlw.go.jp/05/index.php?action_kouhyou_detail_004_kani=true&JigyosyoCd=0570812123-00&ServiceCd=150&Type=search" }, "geometry": { "type": "Point", "coordinates": [ 140.59874549999995, 39.5099222 ] } },
{ "type": "Feature", "properties": { "内容": "ナイスデイ大曲【通所介護】秋田県大仙市角間川町字元道巻97番地", "url2": "https://www.kaigokensaku.mhlw.go.jp/05/index.php?action_kouhyou_detail_004_kani=true&JigyosyoCd=0570804880-00&ServiceCd=150&Type=search" }, "geometry": { "type": "Point", "coordinates": [ 140.4800186, 39.398635 ] } },
{ "type": "Feature", "properties": { "内容": "虹の楽えん【通所介護】秋田県大仙市戸蒔字谷地中11-1", "url2": "https://www.kaigokensaku.mhlw.go.jp/05/index.php?action_kouhyou_detail_004_kani=true&JigyosyoCd=0570819367-00&ServiceCd=150&Type=search" }, "geometry": { "type": "Point", "coordinates": [ 140.5055251, 39.4502695 ] } },
{ "type": "Feature", "properties": { "内容": "デイサービスあんり【通所介護】秋田県大仙市戸蒔字福田132", "url2": "https://www.kaigokensaku.mhlw.go.jp/05/index.php?action_kouhyou_detail_004_kani=true&JigyosyoCd=0570826016-00&ServiceCd=150&Type=search" }, "geometry": { "type": "Point", "coordinates": [ 140.497556499999973, 39.4564409 ] } },
{ "type": "Feature", "properties": { "内容": "コンパスウォーク大曲【通所介護】秋田県大仙市花館字鶴田65", "url2": "https://www.kaigokensaku.mhlw.go.jp/05/index.php?action_kouhyou_detail_004_kani=true&JigyosyoCd=0570826453-00&ServiceCd=150&Type=search" }, "geometry": { "type": "Point", "coordinates": [ 140.484064699999976, 39.4803024 ] } },
{ "type": "Feature", "properties": { "内容": "デイサービスセンターおうようかん【通所介護】秋田県大仙市佐野町3番41号", "url2": "https://www.kaigokensaku.mhlw.go.jp/05/index.php?action_kouhyou_detail_004_kani=true&JigyosyoCd=0570827097-00&ServiceCd=150&Type=search" }, "geometry": { "type": "Point", "coordinates": [ 140.474152900663768, 39.47068514094012 ] } },
{ "type": "Feature", "properties": { "内容": "フレンデイ大曲【通所介護】秋田県大仙市飯田字堰東２３５番地", "url2": "https://www.kaigokensaku.mhlw.go.jp/05/index.php?action_kouhyou_detail_004_kani=true&JigyosyoCd=0570804898-00&ServiceCd=150&Type=search" }, "geometry": { "type": "Point", "coordinates": [ 140.485339, 39.440395 ] } },
{ "type": "Feature", "properties": { "内容": "愛幸園デイサービスセンター【通所介護】秋田県大仙市神宮寺字本郷道南７８番地", "url2": "https://www.kaigokensaku.mhlw.go.jp/05/index.php?action_kouhyou_detail_004_kani=true&JigyosyoCd=0570816850-00&ServiceCd=150&Type=search" }, "geometry": { "type": "Point", "coordinates": [ 140.417305, 39.4915252 ] } },
{ "type": "Feature", "properties": { "内容": "音彩くらぶ【通所介護】秋田県北秋田市材木町２番１３号", "url2": "https://www.kaigokensaku.mhlw.go.jp/05/index.php?action_kouhyou_detail_004_kani=true&JigyosyoCd=0571125269-00&ServiceCd=150&Type=search" }, "geometry": { "type": "Point", "coordinates": [ 140.374386081753556, 40.23284062818751 ] } },
{ "type": "Feature", "properties": { "内容": "永楽苑デイサービスセンター指定通所介護事業所【通所介護】秋田県北秋田市川井字才ノ神61-13", "url2": "https://www.kaigokensaku.mhlw.go.jp/05/index.php?action_kouhyou_detail_004_kani=true&JigyosyoCd=0572104123-00&ServiceCd=150&Type=search" }, "geometry": { "type": "Point", "coordinates": [ 140.322923800000012, 40.1620081 ] } },
{ "type": "Feature", "properties": { "内容": "北秋田市森吉生活支援ハウス指定通所介護事業所【通所介護】秋田県北秋田市米内沢字寺の上85番地北秋田市森吉生活支援ハウス", "url2": "https://www.kaigokensaku.mhlw.go.jp/05/index.php?action_kouhyou_detail_004_kani=true&JigyosyoCd=0571114511-00&ServiceCd=150&Type=search" }, "geometry": { "type": "Point", "coordinates": [ 140.366142, 40.1180223 ] } },
{ "type": "Feature", "properties": { "内容": "たかのすケアセンターそよ風　通所介護【通所介護】秋田県北秋田市米代町5－4", "url2": "https://www.kaigokensaku.mhlw.go.jp/05/index.php?action_kouhyou_detail_004_kani=true&JigyosyoCd=0572110625-00&ServiceCd=150&Type=search" }, "geometry": { "type": "Point", "coordinates": [ 140.366203400000018, 40.223446 ] } },
{ "type": "Feature", "properties": { "内容": "ケアタウンたかのす指定通所介護事業所【通所介護】秋田県北秋田市脇神字南陣場岱１０番地", "url2": "https://www.kaigokensaku.mhlw.go.jp/05/index.php?action_kouhyou_detail_004_kani=true&JigyosyoCd=0571116748-00&ServiceCd=150&Type=search" }, "geometry": { "type": "Point", "coordinates": [ 140.391832300000033, 40.2123008 ] } },
{ "type": "Feature", "properties": { "内容": "たかのす社協地福通所介護事業所【通所介護】秋田県北秋田市宮前町９番６８号", "url2": "https://www.kaigokensaku.mhlw.go.jp/05/index.php?action_kouhyou_detail_004_kani=true&JigyosyoCd=0571111228-00&ServiceCd=150&Type=search" }, "geometry": { "type": "Point", "coordinates": [ 140.372472300000027, 40.2223991 ] } },
{ "type": "Feature", "properties": { "内容": "たかのす社協つづれこ通所介護事業所【通所介護】秋田県北秋田市綴子字大堤家後２６番地３", "url2": "https://www.kaigokensaku.mhlw.go.jp/05/index.php?action_kouhyou_detail_004_kani=true&JigyosyoCd=0571111236-00&ServiceCd=150&Type=search" }, "geometry": { "type": "Point", "coordinates": [ 140.383216507548468, 40.254623183155473 ] } },
{ "type": "Feature", "properties": { "内容": "サポートハウスたかのす指定通所介護事業所【通所介護】秋田県北秋田市脇神字南陣場岱２０番地", "url2": "https://www.kaigokensaku.mhlw.go.jp/05/index.php?action_kouhyou_detail_004_kani=true&JigyosyoCd=0571116730-00&ServiceCd=150&Type=search" }, "geometry": { "type": "Point", "coordinates": [ 140.3911101, 40.2135173 ] } },
{ "type": "Feature", "properties": { "内容": "デイサービスセンター蕉風苑【通所介護】秋田県にかほ市象潟町大砂川字下橋２０－３", "url2": "https://www.kaigokensaku.mhlw.go.jp/05/index.php?action_kouhyou_detail_004_kani=true&JigyosyoCd=0572502839-00&ServiceCd=150&Type=search" }, "geometry": { "type": "Point", "coordinates": [ 139.901825499999973, 39.1606773 ] } },
{ "type": "Feature", "properties": { "内容": "デイサービスわかば武道島【通所介護】秋田県にかほ市象潟町字家ノ後65-26", "url2": "https://www.kaigokensaku.mhlw.go.jp/05/index.php?action_kouhyou_detail_004_kani=true&JigyosyoCd=0571321421-00&ServiceCd=150&Type=search" }, "geometry": { "type": "Point", "coordinates": [ 139.903185607409654, 39.205414610623514 ] } },
{ "type": "Feature", "properties": { "内容": "浩寿苑デイサービス事業所【通所介護】秋田県にかほ市前川字中ノ森24番地5", "url2": "https://www.kaigokensaku.mhlw.go.jp/05/index.php?action_kouhyou_detail_004_kani=true&JigyosyoCd=0572503431-00&ServiceCd=150&Type=search" }, "geometry": { "type": "Point", "coordinates": [ 139.914638599999989, 39.2370357 ] } },
{ "type": "Feature", "properties": { "内容": "にかほ市デイサービスセンター【通所介護】秋田県にかほ市院内字畑ヶ田２１－１", "url2": "https://www.kaigokensaku.mhlw.go.jp/05/index.php?action_kouhyou_detail_004_kani=true&JigyosyoCd=0571313105-00&ServiceCd=150&Type=search" }, "geometry": { "type": "Point", "coordinates": [ 139.961738149004276, 39.282348038389053 ] } },
{ "type": "Feature", "properties": { "内容": "デイサービス倖【通所介護】秋田県にかほ市象潟町字才の神20-5", "url2": "https://www.kaigokensaku.mhlw.go.jp/05/index.php?action_kouhyou_detail_004_kani=true&JigyosyoCd=0572512887-00&ServiceCd=150&Type=search" }, "geometry": { "type": "Point", "coordinates": [ 139.90056408896325, 39.217326467597886 ] } },
{ "type": "Feature", "properties": { "内容": "デイサービスふるさと通所介護事業所【通所介護】秋田県仙北市田沢湖角館東前郷字杉林171-3", "url2": "https://www.kaigokensaku.mhlw.go.jp/05/index.php?action_kouhyou_detail_004_kani=true&JigyosyoCd=0571227057-00&ServiceCd=150&Type=search" }, "geometry": { "type": "Point", "coordinates": [ 140.572505, 39.622472 ] } },
{ "type": "Feature", "properties": { "内容": "ハッピーデイ西木【通所介護】秋田県仙北市西木町桧木内字松葉２３２番地", "url2": "https://www.kaigokensaku.mhlw.go.jp/05/index.php?action_kouhyou_detail_004_kani=true&JigyosyoCd=0572604692-00&ServiceCd=150&Type=search" }, "geometry": { "type": "Point", "coordinates": [ 140.591088200000058, 39.743207 ] } },
{ "type": "Feature", "properties": { "内容": "デイサービスセンター　ささえ愛【通所介護】秋田県仙北市田沢湖卒田字北竹原３９番地3", "url2": "https://www.kaigokensaku.mhlw.go.jp/05/index.php?action_kouhyou_detail_004_kani=true&JigyosyoCd=0571223528-00&ServiceCd=150&Type=search" }, "geometry": { "type": "Point", "coordinates": [ 140.617495400000053, 39.6203169 ] } },
{ "type": "Feature", "properties": { "内容": "デイサービス角館さくらさくら【通所介護】秋田県仙北市角館町中菅沢84番地", "url2": "https://www.kaigokensaku.mhlw.go.jp/05/index.php?action_kouhyou_detail_004_kani=true&JigyosyoCd=0572610285-00&ServiceCd=150&Type=search" }, "geometry": { "type": "Point", "coordinates": [ 140.567799, 39.5890612 ] } },
{ "type": "Feature", "properties": { "内容": "コンパスウォーク角館【通所介護】秋田県仙北市角館町小勝田下村117-2", "url2": "https://www.kaigokensaku.mhlw.go.jp/05/index.php?action_kouhyou_detail_004_kani=true&JigyosyoCd=0571226745-00&ServiceCd=150&Type=search" }, "geometry": { "type": "Point", "coordinates": [ 140.5533642, 39.5986268 ] } },
{ "type": "Feature", "properties": { "内容": "コンパスウォーク神代【通所介護】秋田県仙北市田沢湖小松字二枚橋81番地", "url2": "https://www.kaigokensaku.mhlw.go.jp/05/index.php?action_kouhyou_detail_004_kani=true&JigyosyoCd=0571226752-00&ServiceCd=150&Type=search" }, "geometry": { "type": "Point", "coordinates": [ 140.575765499999989, 39.6103661 ] } },
{ "type": "Feature", "properties": { "内容": "藤里町指定通所介護事業所【通所介護】秋田県山本郡藤里町藤琴字三ツ谷脇40", "url2": "https://www.kaigokensaku.mhlw.go.jp/05/index.php?action_kouhyou_detail_004_kani=true&JigyosyoCd=0572204444-00&ServiceCd=150&Type=search" }, "geometry": { "type": "Point", "coordinates": [ 140.261564799999974, 40.2819705 ] } },
{ "type": "Feature", "properties": { "内容": "ケアセンター　ほほえみ【通所介護】秋田県山本郡三種町森岳字木戸沢115-16", "url2": "https://www.kaigokensaku.mhlw.go.jp/05/index.php?action_kouhyou_detail_004_kani=true&JigyosyoCd=0572210375-00&ServiceCd=150&Type=search" }, "geometry": { "type": "Point", "coordinates": [ 140.0931789, 40.0880833 ] } },
{ "type": "Feature", "properties": { "内容": "美幸苑デイサービスセンター【通所介護】秋田県山本郡三種町鵜川字西本田８２番地１", "url2": "https://www.kaigokensaku.mhlw.go.jp/05/index.php?action_kouhyou_detail_004_kani=true&JigyosyoCd=0572205037-00&ServiceCd=150&Type=search" }, "geometry": { "type": "Point", "coordinates": [ 140.006633800000031, 40.1005709 ] } },
{ "type": "Feature", "properties": { "内容": "希望苑デイサービスセンター【通所介護】秋田県山本郡三種町鹿渡字町後２５０－２", "url2": "https://www.kaigokensaku.mhlw.go.jp/05/index.php?action_kouhyou_detail_004_kani=true&JigyosyoCd=0572201432-00&ServiceCd=150&Type=search" }, "geometry": { "type": "Point", "coordinates": [ 140.076838700000053, 40.0403278 ] } },
{ "type": "Feature", "properties": { "内容": "三種町社会福祉協議会　山本デイサービスセンター【通所介護】秋田県山本郡三種町森岳字上台93-5", "url2": "https://www.kaigokensaku.mhlw.go.jp/05/index.php?action_kouhyou_detail_004_kani=true&JigyosyoCd=0572214211-00&ServiceCd=150&Type=search" }, "geometry": { "type": "Point", "coordinates": [ 140.092034900000044, 40.0797843 ] } },
{ "type": "Feature", "properties": { "内容": "海光苑デイサービスセンター【通所介護】秋田県山本郡八峰町八森字寺の後川向８番地１", "url2": "https://www.kaigokensaku.mhlw.go.jp/05/index.php?action_kouhyou_detail_004_kani=true&JigyosyoCd=0572204162-00&ServiceCd=150&Type=search" }, "geometry": { "type": "Point", "coordinates": [ 140.028814300000022, 40.3396457 ] } },
{ "type": "Feature", "properties": { "内容": "松波苑デイサービスセンター【通所介護】秋田県山本郡八峰町峰浜水沢字下カッチキ台41番地14", "url2": "https://www.kaigokensaku.mhlw.go.jp/05/index.php?action_kouhyou_detail_004_kani=true&JigyosyoCd=0572204147-00&ServiceCd=150&Type=search" }, "geometry": { "type": "Point", "coordinates": [ 140.029192100000046, 40.296651 ] } },
{ "type": "Feature", "properties": { "内容": "社会福祉法人五城目やまゆり会　広青苑通所介護事業所【通所介護】秋田県南秋田郡五城目町上樋口字樽沢137番地", "url2": "https://www.kaigokensaku.mhlw.go.jp/05/index.php?action_kouhyou_detail_004_kani=true&JigyosyoCd=0572305746-00&ServiceCd=150&Type=search" }, "geometry": { "type": "Point", "coordinates": [ 140.117156, 39.9316711 ] } },
{ "type": "Feature", "properties": { "内容": "うたせ苑デイサービスセンター　うぐいすの里【通所介護】秋田県南秋田郡八郎潟町真坂字沢田122", "url2": "https://www.kaigokensaku.mhlw.go.jp/05/index.php?action_kouhyou_detail_004_kani=true&JigyosyoCd=0572301281-00&ServiceCd=150&Type=search" }, "geometry": { "type": "Point", "coordinates": [ 140.082705300000043, 39.9673586 ] } },
{ "type": "Feature", "properties": { "内容": "リハビリセンターほっとリハ【通所介護】秋田県南秋田郡井川町今戸字カチ田29－4", "url2": "https://www.kaigokensaku.mhlw.go.jp/05/index.php?action_kouhyou_detail_004_kani=true&JigyosyoCd=0572318772-00&ServiceCd=150&Type=search" }, "geometry": { "type": "Point", "coordinates": [ 140.077327339425636, 39.918272476287832 ] } },
{ "type": "Feature", "properties": { "内容": "さくら苑老人デイサービス事業所【通所介護】秋田県南秋田郡井川町寺沢字綱木沢１４５－５", "url2": "https://www.kaigokensaku.mhlw.go.jp/05/index.php?action_kouhyou_detail_004_kani=true&JigyosyoCd=0572305654-00&ServiceCd=150&Type=search" }, "geometry": { "type": "Point", "coordinates": [ 140.12067890000003, 39.894236 ] } },
{ "type": "Feature", "properties": { "内容": "コンパスウォークみさと【通所介護】秋田県仙北郡美郷町六郷字安楽寺362", "url2": "https://www.kaigokensaku.mhlw.go.jp/05/index.php?action_kouhyou_detail_004_kani=true&JigyosyoCd=0573926961-00&ServiceCd=150&Type=search" }, "geometry": { "type": "Point", "coordinates": [ 140.551229500000034, 39.423796200000034 ] } },
{ "type": "Feature", "properties": { "内容": "ほっと未来デイサービスセンター【通所介護】秋田県仙北郡美郷町畑屋字街道東201-1", "url2": "https://www.kaigokensaku.mhlw.go.jp/05/index.php?action_kouhyou_detail_004_kani=true&JigyosyoCd=0572607414-00&ServiceCd=150&Type=search" }, "geometry": { "type": "Point", "coordinates": [ 140.56551, 39.4358607 ] } },
{ "type": "Feature", "properties": { "内容": "いこいの里デイサービスセンター【通所介護】秋田県仙北郡美郷町六郷字遠槻２４－１", "url2": "https://www.kaigokensaku.mhlw.go.jp/05/index.php?action_kouhyou_detail_004_kani=true&JigyosyoCd=0572616472-00&ServiceCd=150&Type=search" }, "geometry": { "type": "Point", "coordinates": [ 140.514140613921853, 39.435341163852087 ] } },
{ "type": "Feature", "properties": { "内容": "デイサービスセンター仙南通所介護事業所【通所介護】秋田県仙北郡美郷町金沢西根字上糠渕3-2", "url2": "https://www.kaigokensaku.mhlw.go.jp/05/index.php?action_kouhyou_detail_004_kani=true&JigyosyoCd=0572605483-00&ServiceCd=150&Type=search" }, "geometry": { "type": "Point", "coordinates": [ 140.528402300000039, 39.3865933 ] } },
{ "type": "Feature", "properties": { "内容": "デイサービスセンター緑泉通所介護事業所【通所介護】秋田県仙北郡美郷町六郷字作山１８７", "url2": "https://www.kaigokensaku.mhlw.go.jp/05/index.php?action_kouhyou_detail_004_kani=true&JigyosyoCd=0572605855-00&ServiceCd=150&Type=search" }, "geometry": { "type": "Point", "coordinates": [ 140.556223499999987, 39.4154156 ] } },
{ "type": "Feature", "properties": { "内容": "五輪坂デイサービスセンター【通所介護】秋田県雄勝郡羽後町林崎字五林坂２１番地１", "url2": "https://www.kaigokensaku.mhlw.go.jp/05/index.php?action_kouhyou_detail_004_kani=true&JigyosyoCd=0574026456-00&ServiceCd=150&Type=search" }, "geometry": { "type": "Point", "coordinates": [ 140.394973099999987, 39.2161238 ] } }
]
}
