{
"type": "FeatureCollection",
"name": "geo_05_通所リハビリテーション",
"crs": { "type": "name", "properties": { "name": "urn:ogc:def:crs:OGC:1.3:CRS84" } },
"features": [
{ "type": "Feature", "properties": { "内容": "メディケアあきた【通所リハビリテーション】秋田県秋田市寺内堂ノ沢三丁目6-6", "url2": "https://www.kaigokensaku.mhlw.go.jp/05/index.php?action_kouhyou_detail_004_kani=true&JigyosyoCd=0510116056-00&ServiceCd=160&Type=search" }, "geometry": { "type": "Point", "coordinates": [ 140.089958799999977, 39.736703 ] } },
{ "type": "Feature", "properties": { "内容": "三楽園通所リハビリテーション【通所リハビリテーション】秋田県秋田市飯島字堀川８４－２０", "url2": "https://www.kaigokensaku.mhlw.go.jp/05/index.php?action_kouhyou_detail_004_kani=true&JigyosyoCd=0550180061-00&ServiceCd=160&Type=search" }, "geometry": { "type": "Point", "coordinates": [ 140.061563799999931, 39.7911351 ] } },
{ "type": "Feature", "properties": { "内容": "御野場病院通所リハビリテーション【通所リハビリテーション】秋田県秋田市御野場二丁目14番1号", "url2": "https://www.kaigokensaku.mhlw.go.jp/05/index.php?action_kouhyou_detail_004_kani=true&JigyosyoCd=0510112147-00&ServiceCd=160&Type=search" }, "geometry": { "type": "Point", "coordinates": [ 140.131630200000018, 39.6735896 ] } },
{ "type": "Feature", "properties": { "内容": "遊心苑通所リハビリテーション事業所【通所リハビリテーション】秋田県秋田市添川字境内川原１９６番地１", "url2": "https://www.kaigokensaku.mhlw.go.jp/05/index.php?action_kouhyou_detail_004_kani=true&JigyosyoCd=0550180095-00&ServiceCd=160&Type=search" }, "geometry": { "type": "Point", "coordinates": [ 140.133298368122809, 39.752406321519601 ] } },
{ "type": "Feature", "properties": { "内容": "介護老人保健施設ニコニコ苑【通所リハビリテーション】秋田県秋田市下新城中野字琵琶沼138-1", "url2": "https://www.kaigokensaku.mhlw.go.jp/05/index.php?action_kouhyou_detail_004_kani=true&JigyosyoCd=0550180038-00&ServiceCd=160&Type=search" }, "geometry": { "type": "Point", "coordinates": [ 140.059624259019301, 39.803227145819989 ] } },
{ "type": "Feature", "properties": { "内容": "桜の園通所リハビリテーション【通所リハビリテーション】秋田県秋田市下北手梨平字登館8番地", "url2": "https://www.kaigokensaku.mhlw.go.jp/05/index.php?action_kouhyou_detail_004_kani=true&JigyosyoCd=0550180046-00&ServiceCd=160&Type=search" }, "geometry": { "type": "Point", "coordinates": [ 140.161590500000017, 39.7021176 ] } },
{ "type": "Feature", "properties": { "内容": "医療法人　運忠会　介護老人保健施設なぎさ【通所リハビリテーション】秋田県秋田市土崎港中央四丁目４番２３号", "url2": "https://www.kaigokensaku.mhlw.go.jp/05/index.php?action_kouhyou_detail_004_kani=true&JigyosyoCd=0550180103-00&ServiceCd=160&Type=search" }, "geometry": { "type": "Point", "coordinates": [ 140.072026300000061, 39.7532254 ] } },
{ "type": "Feature", "properties": { "内容": "千秋苑通所リハビリテーション【通所リハビリテーション】秋田県秋田市外旭川字神田592番地", "url2": "https://www.kaigokensaku.mhlw.go.jp/05/index.php?action_kouhyou_detail_004_kani=true&JigyosyoCd=0550180079-00&ServiceCd=160&Type=search" }, "geometry": { "type": "Point", "coordinates": [ 140.118630400000029, 39.7512493 ] } },
{ "type": "Feature", "properties": { "内容": "あいぜん苑通所リハビリテーション事業所【通所リハビリテーション】秋田県秋田市上新城道川字愛染58番地", "url2": "https://www.kaigokensaku.mhlw.go.jp/05/index.php?action_kouhyou_detail_004_kani=true&JigyosyoCd=0550180087-00&ServiceCd=160&Type=search" }, "geometry": { "type": "Point", "coordinates": [ 140.145734800000014, 39.7810413 ] } },
{ "type": "Feature", "properties": { "内容": "介護老人保健施設　シルバーケアセンター清遊園【通所リハビリテーション】秋田県秋田市河辺戸島字上野４－３", "url2": "https://www.kaigokensaku.mhlw.go.jp/05/index.php?action_kouhyou_detail_004_kani=true&JigyosyoCd=0552480014-00&ServiceCd=160&Type=search" }, "geometry": { "type": "Point", "coordinates": [ 140.194215699999972, 39.6329852 ] } },
{ "type": "Feature", "properties": { "内容": "ふれ愛の里通所リハビリテーション事業所【通所リハビリテーション】秋田県秋田市豊岩小山字中山216番地27", "url2": "https://www.kaigokensaku.mhlw.go.jp/05/index.php?action_kouhyou_detail_004_kani=true&JigyosyoCd=0550180129-00&ServiceCd=160&Type=search" }, "geometry": { "type": "Point", "coordinates": [ 140.123758100000032, 39.634846799999984 ] } },
{ "type": "Feature", "properties": { "内容": "中通リハビリテーション病院【通所リハビリテーション】秋田県秋田市中通六丁目1番58号", "url2": "https://www.kaigokensaku.mhlw.go.jp/05/index.php?action_kouhyou_detail_004_kani=true&JigyosyoCd=0510112576-00&ServiceCd=160&Type=search" }, "geometry": { "type": "Point", "coordinates": [ 140.12289850992579, 39.713479932875885 ] } },
{ "type": "Feature", "properties": { "内容": "友愛の郷通所リハビリテーション施設【通所リハビリテーション】秋田県秋田市浜田字元中村２８０－２９", "url2": "https://www.kaigokensaku.mhlw.go.jp/05/index.php?action_kouhyou_detail_004_kani=true&JigyosyoCd=0550180020-00&ServiceCd=160&Type=search" }, "geometry": { "type": "Point", "coordinates": [ 140.068858500000033, 39.6811087 ] } },
{ "type": "Feature", "properties": { "内容": "介護老人保健施設　山盛苑【通所リハビリテーション】秋田県秋田市太平山谷字中山谷227番地2", "url2": "https://www.kaigokensaku.mhlw.go.jp/05/index.php?action_kouhyou_detail_004_kani=true&JigyosyoCd=0550180111-00&ServiceCd=160&Type=search" }, "geometry": { "type": "Point", "coordinates": [ 140.264479599999959, 39.7291588 ] } },
{ "type": "Feature", "properties": { "内容": "社会医療法人　正和会　五十嵐記念病院　通所リハビリテーション【通所リハビリテーション】秋田県秋田市土崎港中央1丁目17-23", "url2": "https://www.kaigokensaku.mhlw.go.jp/05/index.php?action_kouhyou_detail_004_kani=true&JigyosyoCd=0510115892-00&ServiceCd=160&Type=search" }, "geometry": { "type": "Point", "coordinates": [ 140.068504399999938, 39.7535392 ] } },
{ "type": "Feature", "properties": { "内容": "独立行政法人地域医療機能推進機構秋田病院附属介護老人保健施設【通所リハビリテーション】秋田県能代市緑町5番47号", "url2": "https://www.kaigokensaku.mhlw.go.jp/05/index.php?action_kouhyou_detail_004_kani=true&JigyosyoCd=0550280028-00&ServiceCd=160&Type=search" }, "geometry": { "type": "Point", "coordinates": [ 140.0358569, 40.198027700000011 ] } },
{ "type": "Feature", "properties": { "内容": "市立大森病院【通所リハビリテーション】秋田県横手市大森町字菅生田２４５番地２０５", "url2": "https://www.kaigokensaku.mhlw.go.jp/05/index.php?action_kouhyou_detail_004_kani=true&JigyosyoCd=0510311343-00&ServiceCd=160&Type=search" }, "geometry": { "type": "Point", "coordinates": [ 140.416392299999984, 39.3511003 ] } },
{ "type": "Feature", "properties": { "内容": "横手市介護老人保健施設　老健おおもり【通所リハビリテーション】秋田県横手市大森町字菅生田２４５－２０７", "url2": "https://www.kaigokensaku.mhlw.go.jp/05/index.php?action_kouhyou_detail_004_kani=true&JigyosyoCd=0550380026-00&ServiceCd=160&Type=search" }, "geometry": { "type": "Point", "coordinates": [ 140.417494900000065, 39.3516919 ] } },
{ "type": "Feature", "properties": { "内容": "介護老人保健施設西風苑【通所リハビリテーション】秋田県横手市平鹿町浅舞字新堀９１", "url2": "https://www.kaigokensaku.mhlw.go.jp/05/index.php?action_kouhyou_detail_004_kani=true&JigyosyoCd=0552780033-00&ServiceCd=160&Type=search" }, "geometry": { "type": "Point", "coordinates": [ 140.483731400000011, 39.2697486 ] } },
{ "type": "Feature", "properties": { "内容": "介護老人保健施設やすらぎの苑【通所リハビリテーション】秋田県横手市杉沢字中杉沢400番地", "url2": "https://www.kaigokensaku.mhlw.go.jp/05/index.php?action_kouhyou_detail_004_kani=true&JigyosyoCd=0550380018-00&ServiceCd=160&Type=search" }, "geometry": { "type": "Point", "coordinates": [ 140.565496899999971, 39.3506931 ] } },
{ "type": "Feature", "properties": { "内容": "介護老人保健施設　りんごの里　福寿園【通所リハビリテーション】秋田県横手市増田町吉野字梨木塚100-1番地", "url2": "https://www.kaigokensaku.mhlw.go.jp/05/index.php?action_kouhyou_detail_004_kani=true&JigyosyoCd=0552780017-00&ServiceCd=160&Type=search" }, "geometry": { "type": "Point", "coordinates": [ 140.5820218, 39.2016884 ] } },
{ "type": "Feature", "properties": { "内容": "通所リハビリ柏葉寿【通所リハビリテーション】秋田県大館市清水1丁目1番60", "url2": "https://www.kaigokensaku.mhlw.go.jp/05/index.php?action_kouhyou_detail_004_kani=true&JigyosyoCd=0510411036-00&ServiceCd=160&Type=search" }, "geometry": { "type": "Point", "coordinates": [ 140.5523144, 40.285872100000013 ] } },
{ "type": "Feature", "properties": { "内容": "成寿苑指定通所リハビリテーション事業所【通所リハビリテーション】秋田県大館市釈迦内字狼穴７９番地", "url2": "https://www.kaigokensaku.mhlw.go.jp/05/index.php?action_kouhyou_detail_004_kani=true&JigyosyoCd=0550480032-00&ServiceCd=160&Type=search" }, "geometry": { "type": "Point", "coordinates": [ 140.572793499999989, 40.3119643 ] } },
{ "type": "Feature", "properties": { "内容": "医療法人　光智会　大館園通所リハビリテーション事業所【通所リハビリテーション】秋田県大館市芦田子字芦田子南２７５番地", "url2": "https://www.kaigokensaku.mhlw.go.jp/05/index.php?action_kouhyou_detail_004_kani=true&JigyosyoCd=0550480024-00&ServiceCd=160&Type=search" }, "geometry": { "type": "Point", "coordinates": [ 140.598608799999965, 40.2991916 ] } },
{ "type": "Feature", "properties": { "内容": "介護医療院西大館病院通所リハビリテーション事業所【通所リハビリテーション】秋田県大館市川口字上野6番地125", "url2": "https://www.kaigokensaku.mhlw.go.jp/05/index.php?action_kouhyou_detail_004_kani=true&JigyosyoCd=05B0400011-00&ServiceCd=160&Type=search" }, "geometry": { "type": "Point", "coordinates": [ 140.4753297, 40.2790409 ] } },
{ "type": "Feature", "properties": { "内容": "通所リハビリテーションたらちね【通所リハビリテーション】男鹿市船越字一向６７－１", "url2": "https://www.kaigokensaku.mhlw.go.jp/05/index.php?action_kouhyou_detail_004_kani=true&JigyosyoCd=0550680029-00&ServiceCd=160&Type=search" }, "geometry": { "type": "Point", "coordinates": [ 139.948746, 39.8980698 ] } },
{ "type": "Feature", "properties": { "内容": "長谷川医院デイケアセンター【通所リハビリテーション】秋田県男鹿市船川港船川字新浜町26番地2", "url2": "https://www.kaigokensaku.mhlw.go.jp/05/index.php?action_kouhyou_detail_004_kani=true&JigyosyoCd=0570612291-00&ServiceCd=160&Type=search" }, "geometry": { "type": "Point", "coordinates": [ 139.847583200000031, 39.8842152 ] } },
{ "type": "Feature", "properties": { "内容": "男鹿老健通所リハビリテーション【通所リハビリテーション】秋田県男鹿市脇本富永字南前田72番地介護老人保健施設　男鹿老健", "url2": "https://www.kaigokensaku.mhlw.go.jp/05/index.php?action_kouhyou_detail_004_kani=true&JigyosyoCd=0550680045-00&ServiceCd=160&Type=search" }, "geometry": { "type": "Point", "coordinates": [ 139.902242, 39.915834500000045 ] } },
{ "type": "Feature", "properties": { "内容": "介護老人保健施設　ゆーとぴあ神室【通所リハビリテーション】秋田県湯沢市小野字東堺76番地", "url2": "https://www.kaigokensaku.mhlw.go.jp/05/index.php?action_kouhyou_detail_004_kani=true&JigyosyoCd=0552880023-00&ServiceCd=160&Type=search" }, "geometry": { "type": "Point", "coordinates": [ 140.4549184, 39.0647332 ] } },
{ "type": "Feature", "properties": { "内容": "介護老人保健施設昭平苑【通所リハビリテーション】秋田県湯沢市柳田字中嶋２２７番地の１", "url2": "https://www.kaigokensaku.mhlw.go.jp/05/index.php?action_kouhyou_detail_004_kani=true&JigyosyoCd=0550780019-00&ServiceCd=160&Type=search" }, "geometry": { "type": "Point", "coordinates": [ 140.460807599999953, 39.1845288 ] } },
{ "type": "Feature", "properties": { "内容": "いこいの里通所リハビリテーション【通所リハビリテーション】秋田県鹿角市八幡平字小山５０番地", "url2": "https://www.kaigokensaku.mhlw.go.jp/05/index.php?action_kouhyou_detail_004_kani=true&JigyosyoCd=0550980015-00&ServiceCd=160&Type=search" }, "geometry": { "type": "Point", "coordinates": [ 140.802041199999962, 40.1400952 ] } },
{ "type": "Feature", "properties": { "内容": "大湯リハビリ温泉病院【通所リハビリテーション】秋田県鹿角市十和田大湯字湯ノ岱１６番地２", "url2": "https://www.kaigokensaku.mhlw.go.jp/05/index.php?action_kouhyou_detail_004_kani=true&JigyosyoCd=0510910474-00&ServiceCd=160&Type=search" }, "geometry": { "type": "Point", "coordinates": [ 140.8404289, 40.2989022 ] } },
{ "type": "Feature", "properties": { "内容": "介護老人保健施設ひまわりの里【通所リハビリテーション】秋田県由利本荘市浜三川字小山口２０番地", "url2": "https://www.kaigokensaku.mhlw.go.jp/05/index.php?action_kouhyou_detail_004_kani=true&JigyosyoCd=0550580021-00&ServiceCd=160&Type=search" }, "geometry": { "type": "Point", "coordinates": [ 140.03359289192656, 39.416060364697678 ] } },
{ "type": "Feature", "properties": { "内容": "あまさぎ園　通所リハビリテーション【通所リハビリテーション】秋田県由利本荘市岩城冨田根本9-3", "url2": "https://www.kaigokensaku.mhlw.go.jp/05/index.php?action_kouhyou_detail_004_kani=true&JigyosyoCd=0552580037-00&ServiceCd=160&Type=search" }, "geometry": { "type": "Point", "coordinates": [ 140.086965400000054, 39.5053038 ] } },
{ "type": "Feature", "properties": { "内容": "介護老人保健施設　グランドファミリー西目【通所リハビリテーション】秋田県由利本荘市西目町沼田字新道下２－６", "url2": "https://www.kaigokensaku.mhlw.go.jp/05/index.php?action_kouhyou_detail_004_kani=true&JigyosyoCd=0552580029-00&ServiceCd=160&Type=search" }, "geometry": { "type": "Point", "coordinates": [ 140.017420499999957, 39.3531278 ] } },
{ "type": "Feature", "properties": { "内容": "介護老人保健施設　ほのぼの苑【通所リハビリテーション】秋田県潟上市昭和大久保字街道下92-1", "url2": "https://www.kaigokensaku.mhlw.go.jp/05/index.php?action_kouhyou_detail_004_kani=true&JigyosyoCd=0552380040-00&ServiceCd=160&Type=search" }, "geometry": { "type": "Point", "coordinates": [ 140.060879600000021, 39.8710814 ] } },
{ "type": "Feature", "properties": { "内容": "老人保健施設　くらかけの里【通所リハビリテーション】秋田県潟上市天王字鶴沼台４３－２３１", "url2": "https://www.kaigokensaku.mhlw.go.jp/05/index.php?action_kouhyou_detail_004_kani=true&JigyosyoCd=0552380024-00&ServiceCd=160&Type=search" }, "geometry": { "type": "Point", "coordinates": [ 140.016917299999932, 39.8613208 ] } },
{ "type": "Feature", "properties": { "内容": "大曲リハビリテーションクリニック【通所リハビリテーション】秋田県大仙市大曲住吉町１－１７", "url2": "https://www.kaigokensaku.mhlw.go.jp/05/index.php?action_kouhyou_detail_004_kani=true&JigyosyoCd=0510811607-00&ServiceCd=160&Type=search" }, "geometry": { "type": "Point", "coordinates": [ 140.484532869975283, 39.449217547005553 ] } },
{ "type": "Feature", "properties": { "内容": "介護老人保健施設　なごみのさと【通所リハビリテーション】秋田県大仙市大曲船場町1丁目1番4号", "url2": "https://www.kaigokensaku.mhlw.go.jp/05/index.php?action_kouhyou_detail_004_kani=true&JigyosyoCd=0550880066-00&ServiceCd=160&Type=search" }, "geometry": { "type": "Point", "coordinates": [ 140.471448399999986, 39.4579376 ] } },
{ "type": "Feature", "properties": { "内容": "介護老人保健施設八乙女荘【通所リハビリテーション】秋田県大仙市北長野字野口前２３番地", "url2": "https://www.kaigokensaku.mhlw.go.jp/05/index.php?action_kouhyou_detail_004_kani=true&JigyosyoCd=0550880058-00&ServiceCd=160&Type=search" }, "geometry": { "type": "Point", "coordinates": [ 140.547205100000042, 39.5491133 ] } },
{ "type": "Feature", "properties": { "内容": "介護老人保健施設幸寿園【通所リハビリテーション】秋田県大仙市強首字上野台１２－１５", "url2": "https://www.kaigokensaku.mhlw.go.jp/05/index.php?action_kouhyou_detail_004_kani=true&JigyosyoCd=0550880041-00&ServiceCd=160&Type=search" }, "geometry": { "type": "Point", "coordinates": [ 140.299909299999939, 39.5438602 ] } },
{ "type": "Feature", "properties": { "内容": "社会医療法人明和会　大曲中通病院【通所リハビリテーション】秋田県大仙市大曲上栄町６番４号", "url2": "https://www.kaigokensaku.mhlw.go.jp/05/index.php?action_kouhyou_detail_004_kani=true&JigyosyoCd=0510811342-00&ServiceCd=160&Type=search" }, "geometry": { "type": "Point", "coordinates": [ 140.476381400000037, 39.4512023 ] } },
{ "type": "Feature", "properties": { "内容": "介護老人保健施設サングレイス【通所リハビリテーション】秋田県大仙市協和上淀川字五百刈田２７８番地５", "url2": "https://www.kaigokensaku.mhlw.go.jp/05/index.php?action_kouhyou_detail_004_kani=true&JigyosyoCd=0552680043-00&ServiceCd=160&Type=search" }, "geometry": { "type": "Point", "coordinates": [ 140.303626722615036, 39.598479872600919 ] } },
{ "type": "Feature", "properties": { "内容": "もりよし荘通所リハビリテーション【通所リハビリテーション】秋田県北秋田市米内沢字七曲25番地", "url2": "https://www.kaigokensaku.mhlw.go.jp/05/index.php?action_kouhyou_detail_004_kani=true&JigyosyoCd=0552180010-00&ServiceCd=160&Type=search" }, "geometry": { "type": "Point", "coordinates": [ 140.379826900000012, 40.1184336 ] } },
{ "type": "Feature", "properties": { "内容": "介護老人保健施設ケアタウンたかのす【通所リハビリテーション】秋田県北秋田市脇神字南陣場岱10番地", "url2": "https://www.kaigokensaku.mhlw.go.jp/05/index.php?action_kouhyou_detail_004_kani=true&JigyosyoCd=0551180045-00&ServiceCd=160&Type=search" }, "geometry": { "type": "Point", "coordinates": [ 140.3921636, 40.2115066 ] } },
{ "type": "Feature", "properties": { "内容": "介護老人保健施設　栗山荘【通所リハビリテーション】秋田県にかほ市象潟町小滝字麻針堰18", "url2": "https://www.kaigokensaku.mhlw.go.jp/05/index.php?action_kouhyou_detail_004_kani=true&JigyosyoCd=0552580011-00&ServiceCd=160&Type=search" }, "geometry": { "type": "Point", "coordinates": [ 139.947035199999959, 39.1687605 ] } },
{ "type": "Feature", "properties": { "内容": "介護老人保健施設　田沢の郷【通所リハビリテーション】秋田県仙北市田沢湖生保内字上清水698番地", "url2": "https://www.kaigokensaku.mhlw.go.jp/05/index.php?action_kouhyou_detail_004_kani=true&JigyosyoCd=0552680068-00&ServiceCd=160&Type=search" }, "geometry": { "type": "Point", "coordinates": [ 140.715681501188669, 39.699464001097439 ] } },
{ "type": "Feature", "properties": { "内容": "介護老人保健施設やかた【通所リハビリテーション】秋田県山本郡三種町鹿渡字猿田牛渕25番地61", "url2": "https://www.kaigokensaku.mhlw.go.jp/05/index.php?action_kouhyou_detail_004_kani=true&JigyosyoCd=0552280018-00&ServiceCd=160&Type=search" }, "geometry": { "type": "Point", "coordinates": [ 140.094595225686618, 40.040874934051431 ] } },
{ "type": "Feature", "properties": { "内容": "ドラゴンクリニック　通所リハビリテーション【通所リハビリテーション】秋田県山本郡三種町浜田字上浜田1番地", "url2": "https://www.kaigokensaku.mhlw.go.jp/05/index.php?action_kouhyou_detail_004_kani=true&JigyosyoCd=0512210741-00&ServiceCd=160&Type=search" }, "geometry": { "type": "Point", "coordinates": [ 139.998306599999978, 40.1031176 ] } },
{ "type": "Feature", "properties": { "内容": "介護老人保健施設　湖東老健【通所リハビリテーション】秋田県南秋田郡五城目町大川西野字堤ノ内1番地1", "url2": "https://www.kaigokensaku.mhlw.go.jp/05/index.php?action_kouhyou_detail_004_kani=true&JigyosyoCd=0552380057-00&ServiceCd=160&Type=search" }, "geometry": { "type": "Point", "coordinates": [ 140.106423931552428, 39.93468610332517 ] } },
{ "type": "Feature", "properties": { "内容": "榮寿苑　通所リハビリテーション【通所リハビリテーション】秋田県南秋田郡八郎潟町真坂字沢田43-10", "url2": "https://www.kaigokensaku.mhlw.go.jp/05/index.php?action_kouhyou_detail_004_kani=true&JigyosyoCd=0552380016-00&ServiceCd=160&Type=search" }, "geometry": { "type": "Point", "coordinates": [ 140.083241300000026, 39.9681585 ] } },
{ "type": "Feature", "properties": { "内容": "介護老人保健施設　　翠香苑【通所リハビリテーション】秋田県南秋田郡井川町小竹花字道端14-1", "url2": "https://www.kaigokensaku.mhlw.go.jp/05/index.php?action_kouhyou_detail_004_kani=true&JigyosyoCd=0552380032-00&ServiceCd=160&Type=search" }, "geometry": { "type": "Point", "coordinates": [ 140.084404799999987, 39.9099694 ] } },
{ "type": "Feature", "properties": { "内容": "医療法人社団　杏真会　通所リハビリテーションセンター【通所リハビリテーション】秋田県仙北郡美郷町六郷字馬町64番地", "url2": "https://www.kaigokensaku.mhlw.go.jp/05/index.php?action_kouhyou_detail_004_kani=true&JigyosyoCd=0572608420-00&ServiceCd=160&Type=search" }, "geometry": { "type": "Point", "coordinates": [ 140.549086250866139, 39.424696408958731 ] } },
{ "type": "Feature", "properties": { "内容": "介護老人保健施設　照隅苑【通所リハビリテーション】秋田県雄勝郡羽後町床舞字軽内１９８番地１", "url2": "https://www.kaigokensaku.mhlw.go.jp/05/index.php?action_kouhyou_detail_004_kani=true&JigyosyoCd=0552880015-00&ServiceCd=160&Type=search" }, "geometry": { "type": "Point", "coordinates": [ 140.4128809, 39.1812133 ] } }
]
}
