{
"type": "FeatureCollection",
"name": "geo_05_地域密着型特定施設入居者生活介護（有料老人ホーム（サービス付き高齢者向け住宅））",
"crs": { "type": "name", "properties": { "name": "urn:ogc:def:crs:OGC:1.3:CRS84" } },
"features": [
{ "type": "Feature", "properties": { "内容": "特定施設入居者生活介護さくら【地域密着型特定施設入居者生活介護（有料老人ホーム（サービス付き高齢者向け住宅））】秋田県横手市駅前町１３番２２号", "url2": "https://www.kaigokensaku.mhlw.go.jp/05/index.php?action_kouhyou_detail_004_kani=true&JigyosyoCd=0590300208-00&ServiceCd=&Type=search" }, "geometry": { "type": "Point", "coordinates": [ 140.562869538076711, 39.305727784794229 ] } }
]
}
