{
"type": "FeatureCollection",
"name": "geo_05_訪問リハビリテーション",
"crs": { "type": "name", "properties": { "name": "urn:ogc:def:crs:OGC:1.3:CRS84" } },
"features": [
{ "type": "Feature", "properties": { "内容": "医療法人　惇慧会　外旭川サテライトクリニック【訪問リハビリテーション】秋田市外旭川字中谷地４６", "url": "https://www.kaigokensaku.mhlw.go.jp/05/index.php?action_kouhyou_detail_004_kani=true&JigyosyoCd=0510115728-00&ServiceCd=140&Type=search", "url2": "http://www.jkk-sotohp.or.jp" }, "geometry": { "type": "Point", "coordinates": [ 140.099290500000052, 39.7555204 ] } },
{ "type": "Feature", "properties": { "内容": "ふれ愛の里　訪問リハビリテーション【訪問リハビリテーション】秋田県秋田市豊岩小山字中山216番地27介護老人保健施設　ふれ愛の里", "url": "https://www.kaigokensaku.mhlw.go.jp/05/index.php?action_kouhyou_detail_004_kani=true&JigyosyoCd=0570126789-00&ServiceCd=140&Type=search", "url2": "http://fureainosato.or.jp" }, "geometry": { "type": "Point", "coordinates": [ 140.1238708, 39.6347368 ] } },
{ "type": "Feature", "properties": { "内容": "今村記念クリニック訪問リハビリテーション【訪問リハビリテーション】秋田市下新城長岡字毛無谷地265", "url": "https://www.kaigokensaku.mhlw.go.jp/05/index.php?action_kouhyou_detail_004_kani=true&JigyosyoCd=0510114374-00&ServiceCd=140&Type=search", "url2": "http://www.kyukokai.com/" }, "geometry": { "type": "Point", "coordinates": [ 140.060571399999958, 39.805542 ] } },
{ "type": "Feature", "properties": { "内容": "介護老人保健施設あいぜん苑訪問リハビリテーション・介護予防訪問リハビリテーション事業所【訪問リハビリテーション】秋田県秋田市上新城道川字愛染５８番地", "url": "https://www.kaigokensaku.mhlw.go.jp/05/index.php?action_kouhyou_detail_004_kani=true&JigyosyoCd=0550180087-00&ServiceCd=140&Type=search", "url2": null }, "geometry": { "type": "Point", "coordinates": [ 140.1457351, 39.7806104 ] } },
{ "type": "Feature", "properties": { "内容": "千秋苑訪問リハビリテーション【訪問リハビリテーション】秋田県秋田市外旭川字神田592番地", "url": "https://www.kaigokensaku.mhlw.go.jp/05/index.php?action_kouhyou_detail_004_kani=true&JigyosyoCd=0570125500-00&ServiceCd=140&Type=search", "url2": "http://www.kenjukai-senshuen.jp" }, "geometry": { "type": "Point", "coordinates": [ 140.118534055819765, 39.751561663191922 ] } },
{ "type": "Feature", "properties": { "内容": "あをによしリハビリ脳神経外科クリニック　訪問リハビリテーション【訪問リハビリテーション】秋田県秋田市土崎港相染町字沼端77-33", "url": "https://www.kaigokensaku.mhlw.go.jp/05/index.php?action_kouhyou_detail_004_kani=true&JigyosyoCd=0510116981-00&ServiceCd=140&Type=search", "url2": "https://awoniyoshi.com/" }, "geometry": { "type": "Point", "coordinates": [ 140.0677978, 39.7685284 ] } },
{ "type": "Feature", "properties": { "内容": "御野場病院【訪問リハビリテーション】秋田県秋田市御野場２丁目　１４－１", "url": "https://www.kaigokensaku.mhlw.go.jp/05/index.php?action_kouhyou_detail_004_kani=true&JigyosyoCd=0510112147-00&ServiceCd=140&Type=search", "url2": "http://www.seikankai.or.jp/" }, "geometry": { "type": "Point", "coordinates": [ 140.131630200000018, 39.6735896 ] } },
{ "type": "Feature", "properties": { "内容": "遊心苑訪問リハビリテーション事業所【訪問リハビリテーション】秋田県秋田市添川字境内川原１９６番地１", "url": "https://www.kaigokensaku.mhlw.go.jp/05/index.php?action_kouhyou_detail_004_kani=true&JigyosyoCd=0570112656-00&ServiceCd=140&Type=search", "url2": "http://www.yushinen.or.jp/" }, "geometry": { "type": "Point", "coordinates": [ 140.133142799999973, 39.7526579 ] } },
{ "type": "Feature", "properties": { "内容": "中通リハビリテーション病院【訪問リハビリテーション】秋田県秋田市中通六丁目１番５８号", "url": "https://www.kaigokensaku.mhlw.go.jp/05/index.php?action_kouhyou_detail_004_kani=true&JigyosyoCd=0510112576-00&ServiceCd=140&Type=search", "url2": "http://www.meiwakai.or.jp" }, "geometry": { "type": "Point", "coordinates": [ 140.122391410450774, 39.713485586025605 ] } },
{ "type": "Feature", "properties": { "内容": "三楽園訪問リハビリテーション【訪問リハビリテーション】秋田県秋田市飯島字堀川８４番地２０", "url": "https://www.kaigokensaku.mhlw.go.jp/05/index.php?action_kouhyou_detail_004_kani=true&JigyosyoCd=0550180061-00&ServiceCd=140&Type=search", "url2": "http://www.kyusei.or.jp/sanrakuen/index.html" }, "geometry": { "type": "Point", "coordinates": [ 140.0612898, 39.791321 ] } },
{ "type": "Feature", "properties": { "内容": "独立行政法人地域医療機能推進機構秋田病院【訪問リハビリテーション】秋田県能代市緑町5-22", "url": "https://www.kaigokensaku.mhlw.go.jp/05/index.php?action_kouhyou_detail_004_kani=true&JigyosyoCd=0510210834-00&ServiceCd=140&Type=search", "url2": "http://akita.jcho.go.jp" }, "geometry": { "type": "Point", "coordinates": [ 140.035112499999968, 40.1982527 ] } },
{ "type": "Feature", "properties": { "内容": "やすらぎ訪問リハビリテーション【訪問リハビリテーション】秋田県横手市杉沢字中杉沢400番地", "url": "https://www.kaigokensaku.mhlw.go.jp/05/index.php?action_kouhyou_detail_004_kani=true&JigyosyoCd=0550380018-00&ServiceCd=140&Type=search", "url2": "http://www.kohseikai.com" }, "geometry": { "type": "Point", "coordinates": [ 140.565034200000014, 39.3510183 ] } },
{ "type": "Feature", "properties": { "内容": "市立大森病院【訪問リハビリテーション】秋田県横手市大森町字菅生田245番地205", "url": "https://www.kaigokensaku.mhlw.go.jp/05/index.php?action_kouhyou_detail_004_kani=true&JigyosyoCd=0510311343-00&ServiceCd=140&Type=search", "url2": "http://www.oomorihp.jp/" }, "geometry": { "type": "Point", "coordinates": [ 140.416414499999973, 39.3511031 ] } },
{ "type": "Feature", "properties": { "内容": "雄物川クリニック【訪問リハビリテーション】横手市雄物川町今宿字棒突44-1", "url": "https://www.kaigokensaku.mhlw.go.jp/05/index.php?action_kouhyou_detail_004_kani=true&JigyosyoCd=0510311079-00&ServiceCd=140&Type=search", "url2": null }, "geometry": { "type": "Point", "coordinates": [ 140.4310398, 39.2919305 ] } },
{ "type": "Feature", "properties": { "内容": "成寿苑指定訪問リハビリテーション事業所【訪問リハビリテーション】秋田県大館市釈迦内字狼穴７９番地", "url": "https://www.kaigokensaku.mhlw.go.jp/05/index.php?action_kouhyou_detail_004_kani=true&JigyosyoCd=0570419044-00&ServiceCd=140&Type=search", "url2": "http://seijuen.or.jp/" }, "geometry": { "type": "Point", "coordinates": [ 140.572793499999989, 40.3119643 ] } },
{ "type": "Feature", "properties": { "内容": "訪問リハビリテーション　たらちね【訪問リハビリテーション】秋田県男鹿市船越字一向67-1", "url": "https://www.kaigokensaku.mhlw.go.jp/05/index.php?action_kouhyou_detail_004_kani=true&JigyosyoCd=0570625806-00&ServiceCd=140&Type=search", "url2": "http://www.jusinkai.or.jp" }, "geometry": { "type": "Point", "coordinates": [ 139.948746, 39.8980698 ] } },
{ "type": "Feature", "properties": { "内容": "男鹿老健訪問リハビリテーション【訪問リハビリテーション】秋田県男鹿市脇本富永字南前田72番地男鹿老健", "url": "https://www.kaigokensaku.mhlw.go.jp/05/index.php?action_kouhyou_detail_004_kani=true&JigyosyoCd=0550680045-00&ServiceCd=140&Type=search", "url2": "https://wel.akita-seiwakai.jp/ogarouken/" }, "geometry": { "type": "Point", "coordinates": [ 139.902242, 39.915834500000045 ] } },
{ "type": "Feature", "properties": { "内容": "いこいの里訪問リハビリセンター【訪問リハビリテーション】秋田県鹿角市八幡平字小山５０番地", "url": "https://www.kaigokensaku.mhlw.go.jp/05/index.php?action_kouhyou_detail_004_kani=true&JigyosyoCd=0570925115-00&ServiceCd=140&Type=search", "url2": "https://suihoukai-ikoinosato.com/" }, "geometry": { "type": "Point", "coordinates": [ 140.802568899999983, 40.1400952 ] } },
{ "type": "Feature", "properties": { "内容": "大湯リハビリ温泉病院【訪問リハビリテーション】秋田県鹿角市十和田大湯字湯ノ岱１６番地２", "url": "https://www.kaigokensaku.mhlw.go.jp/05/index.php?action_kouhyou_detail_004_kani=true&JigyosyoCd=0510910474-00&ServiceCd=140&Type=search", "url2": "http://oyu-reha.com/" }, "geometry": { "type": "Point", "coordinates": [ 140.8404289, 40.2989022 ] } },
{ "type": "Feature", "properties": { "内容": "訪問リハビリテーション　ひまわりの里【訪問リハビリテーション】秋田県由利本荘市浜三川字小山口２０番地", "url": "https://www.kaigokensaku.mhlw.go.jp/05/index.php?action_kouhyou_detail_004_kani=true&JigyosyoCd=0570508333-00&ServiceCd=140&Type=search", "url2": "http://www.kaigo-himawari.com/" }, "geometry": { "type": "Point", "coordinates": [ 140.034209799999985, 39.4159982 ] } },
{ "type": "Feature", "properties": { "内容": "あまさぎ園訪問リハビリテーション【訪問リハビリテーション】秋田県由利本荘市岩城冨田字根本9-3", "url": "https://www.kaigokensaku.mhlw.go.jp/05/index.php?action_kouhyou_detail_004_kani=true&JigyosyoCd=0570526715-00&ServiceCd=140&Type=search", "url2": "http://www.amasagi.or.jp" }, "geometry": { "type": "Point", "coordinates": [ 140.086635199999989, 39.5055427 ] } },
{ "type": "Feature", "properties": { "内容": "由利本荘医師会病院訪問リハビリテーション【訪問リハビリテーション】秋田県由利本荘市水林456番地4", "url": "https://www.kaigokensaku.mhlw.go.jp/05/index.php?action_kouhyou_detail_004_kani=true&JigyosyoCd=0510510662-00&ServiceCd=140&Type=search", "url2": "http://honyui.jp/" }, "geometry": { "type": "Point", "coordinates": [ 140.025670499999933, 39.3778014 ] } },
{ "type": "Feature", "properties": { "内容": "介護老人保健施設　ほのぼの苑【訪問リハビリテーション】秋田県潟上市昭和大久保字街道下92-1", "url": "https://www.kaigokensaku.mhlw.go.jp/05/index.php?action_kouhyou_detail_004_kani=true&JigyosyoCd=0552380040-00&ServiceCd=140&Type=search", "url2": "http://www.seiwakai-net.com/" }, "geometry": { "type": "Point", "coordinates": [ 140.0607503, 39.8707074 ] } },
{ "type": "Feature", "properties": { "内容": "社会医療法人正和会　小玉医院【訪問リハビリテーション】秋田県潟上市昭和大久保字街道下96-8", "url": "https://www.kaigokensaku.mhlw.go.jp/05/index.php?action_kouhyou_detail_004_kani=true&JigyosyoCd=0511010167-00&ServiceCd=140&Type=search", "url2": "http://med.akita-seiwakai.jp/kodama/" }, "geometry": { "type": "Point", "coordinates": [ 140.061726799999974, 39.8701704 ] } },
{ "type": "Feature", "properties": { "内容": "大曲リハビリテーションクリニック【訪問リハビリテーション】秋田県大仙市大曲住吉町１－１７", "url": "https://www.kaigokensaku.mhlw.go.jp/05/index.php?action_kouhyou_detail_004_kani=true&JigyosyoCd=0510811607-00&ServiceCd=140&Type=search", "url2": "https://omagari-rc.jp" }, "geometry": { "type": "Point", "coordinates": [ 140.484318293254091, 39.449130557821803 ] } },
{ "type": "Feature", "properties": { "内容": "なごみ訪問リハビリテーション【訪問リハビリテーション】秋田県大仙市大曲船場町１丁目１番4号", "url": "https://www.kaigokensaku.mhlw.go.jp/05/index.php?action_kouhyou_detail_004_kani=true&JigyosyoCd=0570821124-00&ServiceCd=140&Type=search", "url2": "https://akebonokai.nagomi-a.jp/" }, "geometry": { "type": "Point", "coordinates": [ 140.471448400000014, 39.4579376 ] } },
{ "type": "Feature", "properties": { "内容": "社会医療法人明和会　大曲中通病院【訪問リハビリテーション】秋田県大仙市大曲上栄町６番４号", "url": "https://www.kaigokensaku.mhlw.go.jp/05/index.php?action_kouhyou_detail_004_kani=true&JigyosyoCd=0510811342-00&ServiceCd=140&Type=search", "url2": "http://www.meiwakai.or.jp/omagari/" }, "geometry": { "type": "Point", "coordinates": [ 140.476381400000037, 39.4512023 ] } },
{ "type": "Feature", "properties": { "内容": "介護老人保健施設　田沢の郷【訪問リハビリテーション】秋田県仙北市田沢湖生保内字上清水698番地", "url": "https://www.kaigokensaku.mhlw.go.jp/05/index.php?action_kouhyou_detail_004_kani=true&JigyosyoCd=0552680068-00&ServiceCd=140&Type=search", "url2": "http://www.tazawanosato.jp" }, "geometry": { "type": "Point", "coordinates": [ 140.7156494, 39.6994156 ] } },
{ "type": "Feature", "properties": { "内容": "介護老人保健施設　湖東老健【訪問リハビリテーション】秋田県南秋田郡五城目町字上町284-1", "url": "https://www.kaigokensaku.mhlw.go.jp/05/index.php?action_kouhyou_detail_004_kani=true&JigyosyoCd=0552380057-00&ServiceCd=140&Type=search", "url2": "http://www.seiwakai-net.com" }, "geometry": { "type": "Point", "coordinates": [ 140.1250076, 39.9475887 ] } },
{ "type": "Feature", "properties": { "内容": "榮寿苑　訪問リハビリテーション【訪問リハビリテーション】秋田県南秋田郡八郎潟町真坂字沢田43-10", "url": "https://www.kaigokensaku.mhlw.go.jp/05/index.php?action_kouhyou_detail_004_kani=true&JigyosyoCd=0552380016-00&ServiceCd=140&Type=search", "url2": "https://r.goope.jp/eijyuen/" }, "geometry": { "type": "Point", "coordinates": [ 140.0831885, 39.9681729 ] } },
{ "type": "Feature", "properties": { "内容": "訪問リハビリテーション杉山【訪問リハビリテーション】秋田県南秋田郡井川町小竹花字道端14番地1", "url": "https://www.kaigokensaku.mhlw.go.jp/05/index.php?action_kouhyou_detail_004_kani=true&JigyosyoCd=0572314367-00&ServiceCd=140&Type=search", "url2": "https://www.smc-jinseikai.com" }, "geometry": { "type": "Point", "coordinates": [ 140.084404799999987, 39.9099694 ] } },
{ "type": "Feature", "properties": { "内容": "医療法人社団杏真会まっこいしゃ訪問リハビリテーション【訪問リハビリテーション】秋田県仙北郡美郷町六郷字馬町６４番地", "url": "https://www.kaigokensaku.mhlw.go.jp/05/index.php?action_kouhyou_detail_004_kani=true&JigyosyoCd=0572623692-00&ServiceCd=140&Type=search", "url2": "https://kyoushinkai.wixsite.com/makkoisha" }, "geometry": { "type": "Point", "coordinates": [ 140.549129968994862, 39.424690099105767 ] } }
]
}
